Name,Type,Hours,Accessible,Lat,Long
Edinburgh Bicycle Co-operative,bicycle,Mo-Fr 09:00-19:00; Sa-Su 10:00-18:00,yes,55.9377371,-3.2029994
Sainsbury's Local,supermarket,Mo-Sa 07:00-22:00; Su 08:00-21:00,yes,55.9456712,-3.2061679
Tesco,supermarket,Mo-Su 06:00-23:00,,55.9442938,-3.2047762
Scotmid,supermarket,Mo-Su 07:00-22:00,,55.9374112,-3.2346906
Charles Wilson,butcher,,,55.9424743,-3.2815848
Scotmid Co-operative,supermarket,Mo-Su 07:00-22:00,,55.9426140,-3.2821951
Boots Opticians,optician,,,55.9423980,-3.2799003
Edinburgh Cheesecake Company,cake,,,55.9427967,-3.2847542
Moat Newsagent,convenience,,,55.9314329,-3.2378080
Food & News,convenience,,yes,55.9400118,-3.2190937
The Bike Station,bicycle,,yes,55.9346776,-3.1799482
BP,yes,,,55.9372727,-3.3656602
Day-Today Express,convenience,,,55.9381013,-3.2917803
Co-Op,supermarket,,,55.8956823,-3.3127216
Sainsbury's Local,convenience,Mo-Su 07:00-23:00,,55.9361501,-3.1945246
C&G Cycles,bicycle,,,55.9396082,-3.2047715
Scotmid Co-operative,supermarket,Mo-Su 07:00-22:00,,55.9415461,-3.2037701
Scotmid,supermarket,Mo-Su 06:00-23:00,,55.9588838,-2.9866165
Lidl,supermarket,,,55.9628193,-2.9773049
,convenience,,,55.9134373,-3.1394198
usave,convenience,,,55.9184757,-3.1386029
,convenience,,,55.9352799,-3.1161510
Margiotta,convenience,Mo-Su 07:00-23:00,,55.9384782,-3.1976530
McColl's,convenience,,,55.9126342,-3.1069875
BP,convenience,,,55.9377502,-3.4029754
Nisa Local,convenience,,,55.8721057,-3.0415305
,convenience,,,55.9369640,-3.0735036
Scotmid,supermarket,"Mo-Fr 07:00-22:00; Sa,Su 08:00-22:00",,55.9452290,-3.2056125
Sainsbury's Local,convenience,Mo-Fr 07:00-22:00; Sa 08:00-22:00; Su 08:00-21:00,,55.9438677,-3.1918679
Tesco,supermarket,Mo-Su 06:00-01:00,yes,55.9447948,-3.1836736
Scotmid,convenience,,,55.8826817,-3.3387192
Loanhead Mini-Market,convenience,,,55.8779685,-3.1549015
Cooperative Food,supermarket,Mo-Su 07:00-23:00,,55.9609090,-2.9809542
Freewheelin',bicycle,,,55.9337946,-3.2339258
,car,,,55.8912050,-3.0757389
Tills Bookshop,books,,,55.9412176,-3.1828378
Bilston Post Office,convenience,,,55.8691265,-3.1820880
Sainsbury's Local,convenience,Mo-Sa 07:00-22:00; Su 09:00-20:00,yes,55.9533557,-3.1941234
Eastside Bikes,bicycle,,,55.9571895,-3.1689348
,convenience,,,55.9695431,-3.2699615
Tesco Metro,supermarket,Mo-Sa 08:00-22:00; Su 09:00-22:00,yes,55.9341803,-3.2107330
,convenience,,,55.9375390,-3.2261292
Margiotta,convenience,,limited,55.9333144,-3.2294499
Londis,convenience,,,55.9323251,-3.2283509
,convenience,,,55.9332858,-3.2298991
V&S Sharma,convenience,,,55.9374035,-3.2224855
,convenience,,,55.9398452,-3.2120902
Fountain News,convenience,,limited,55.9399166,-3.2194246
,convenience,,,55.9368178,-3.2366301
Co-op,convenience,,,55.9143573,-3.2910477
Activity Awards,sports,,,55.9374533,-3.2263052
Happy Valley Convenience Store,convenience,,,55.9240702,-3.2364278
,convenience,,,55.9645895,-3.2407211
Falko Konditormeister,bakery,,,55.9353820,-3.2098014
Holder Planning,vacant,,,55.9508773,-3.2057640
Sainsbury's Local,convenience,06:30-23:00,,55.9379712,-3.1813444
Scotmid,convenience,24/7,yes,55.9449289,-3.1842347
Vogue Video,video,,,55.9417149,-3.1819311
W Armstrong & Son,clothes,,,55.9417925,-3.1815443
Great Grog,alcohol,,,55.9406447,-3.1769726
Underground Solu'shn,music,,,55.9506780,-3.1907990
,convenience,,,55.9623992,-3.2363631
Shop,convenience,,,55.9629817,-3.2348066
Cafe S. Luca,ice_cream,,,55.9337219,-3.2103787
Oxfam Book Shop,books,,,55.9283372,-3.2096631
Oxfam,clothes,,,55.9284355,-3.2096768
St. Columba's Hospice Book Shop,charity,,,55.9285342,-3.2092752
Bodrum Fine Foods,supermarket,,,55.9386101,-3.1916162
,greengrocer,,,55.9383505,-3.1915904
Scotmid Co-operative,convenience,,yes,55.9787590,-3.1834722
,convenience,,,55.9784173,-3.1932815
,convenience,,,55.9746947,-3.1720608
Traditional Fire Surrounds,fire_surrounds,,,55.9360063,-3.2214193
Waterstones,books,,,55.9507994,-3.2047897
Nut-Hoose,hairdresser,,,55.9756628,-3.1789124
Barnados,charity,,,55.9633319,-3.1779087
St Columba's Hospice,charity,,,55.9642554,-3.1775738
AdvoCard,charity,,,55.9646306,-3.1772557
Leith Cycles,bicycle,,unknown,55.9656550,-3.1763495
Crawford's Furniture Salesroom,furniture,,,55.9662924,-3.1757475
Barnardo's Furniture,charity,,,55.9680765,-3.1742698
Capability Scotland,charity,,,55.9710064,-3.1723834
Fruit Heaven,convenience,,,55.9713482,-3.1729206
Bethany Shop,charity,,,55.9703552,-3.1705675
Prestige,hairdresser,,,55.9416037,-3.2231491
Johnstons Cashmere,clothes,,,55.9504516,-3.1864147
Thistle Do Nicely,yes,,,55.9504737,-3.1862899
Cancer Research,charity,,,55.9523564,-3.1127126
British Heart Foundation,charity,,,55.9523798,-3.1128729
Barnados,charity,,,55.9524091,-3.1129949
,convenience,,,55.9744744,-3.2097019
,convenience,,,55.9785312,-3.2317995
Tesco Express,supermarket,Mo-Su 06:00-23:00,,55.9360196,-3.1802824
T.C. Juner & Son,car_repair,,,55.9705550,-3.2069089
metro Auto Centre,car_repair,,,55.9805549,-3.2224831
News Corner,convenience,,,55.9566802,-3.2027690
D.J. Alexander,estate_agent,,,55.9579554,-3.1999583
Quigley Hair,hairdresser,,,55.9714701,-3.2076316
Kitschy Coo,fabric,,,55.9715095,-3.2076510
Nail & Brow Bar,beauty,,,55.9716342,-3.2076984
Marie Curie Cancer Care,charity,,,55.9710439,-3.2085977
Present,gift,,,55.9502085,-3.1836830
Royal Mile Sweets,confectionery,,,55.9506823,-3.1845084
Tollcross Newsagent,convenience,,,55.9459225,-3.2023243
H&T Pawnbrokers,pawnbroker,,,55.9447579,-3.2003926
Leatherwork,leather,,,55.9452868,-3.2007728
Peter Trainer - Corporate Services Ltd,other,,,55.9453341,-3.2008641
The 3 Stooges,hairdresser,,,55.9457015,-3.2022374
Smooch,clothes,,,55.9459245,-3.2027280
Cabaret,antiques,,,55.9461426,-3.2013402
West Port News,convenience,,,55.9461271,-3.2013829
Lily West,florist,,,55.9460949,-3.2014723
Edinburgh Books,books,,,55.9460448,-3.2015976
Herman Brown,clothes,,,55.9459999,-3.2017116
Boardwise,sports,,,55.9464168,-3.2018687
McAlister Matheson Music Ltd,music,,,55.9465932,-3.2029853
GT II Newsagent,convenience,,,55.9459875,-3.2031608
Tesco Metro,supermarket,Mo-Su 06:00-24:00,yes,55.9475772,-3.1860219
Costcutter,convenience,,,55.9456708,-3.2051118
Sainsbury's Local,supermarket,Mo-Su 07:00-23:00,,55.9459203,-3.2010630
Eddie's Seafood Market,seafood,,,55.9382405,-3.1921251
Thomas Cook,travel_agency,,,55.9531470,-3.1974408
The Scotsman,newsagent,,,55.9604041,-3.2011488
Flight Centre,travel_agency,,,55.9454367,-3.1914509
,vacant,,,55.9455366,-3.1913887
Greggs,bakery,,,55.9456427,-3.1913637
Shelter,charity,,,55.9457260,-3.1913448
,vacant,,,55.9457957,-3.1913361
Sta Travel,travel_agency,,,55.9459544,-3.1913088
Ikina,hairdresser,,limited,55.9455210,-3.2347603
Simon Scott,antiques,,,55.9454997,-3.2346753
,vacant,,,55.9454811,-3.2345758
Smoothies Beauty Clinic,beauty,,,55.9456961,-3.2344793
3D Cakes,cakes,,,55.9457408,-3.2346984
Traditional Turkish Barbers,hairdresser,,,55.9457508,-3.2347477
Art & Facts,art,,,55.9454353,-3.2342478
Thallon Soulis,hairdresser,,yes,55.9454440,-3.2343044
Clancys,estate_agent,,,55.9454547,-3.2343983
Scotbet,bookmaker,,,55.9329675,-3.2355228
SimplyFixIt,computer,,,55.9465069,-3.1911686
,vacant,,,55.9480341,-3.1920996
Coda Music,music,,,55.9499235,-3.1931042
I Love Scotland,clothes,,,55.9497371,-3.1930136
Best in Scotland,gift,,,55.9499183,-3.1933188
Bonkers,gift,,,55.9532039,-3.1974699
Ernest Jones,jewelry,,,55.9521751,-3.1967993
Twenty Twenty,optician,,,55.9547423,-3.1982576
Margiotta,convenience,,,55.9207481,-3.2122374
Three Bridges Sandwich Bar,kiosk,,,55.9875791,-3.4039889
Henri,deli,,,55.9591737,-3.2122413
Peter Green,alcohol,,,55.9384155,-3.1946168
Gregg's,bakery,,,55.9257928,-3.2095594
Scotmid,convenience,Mo-Sa 06:00-00:00; Su 06:00-22:00,,55.9380026,-3.1935037
Word Power,books,,no,55.9446069,-3.1855056
Sainsbury's,supermarket,Mo-Fr 08:00-22:00;Sa 07:00-22:00; Su 08:00-22:00,,55.9587892,-3.1643659
,convenience,,,55.9580738,-3.1838975
Valvona & Crolla,convenience,,,55.9588413,-3.1831632
Welch Fishmongers,seafood,,,55.9815990,-3.1948284
Fish Market,seafood,,,55.9819316,-3.1948252
Newtown Executive Drycleaners & Launderers,dry_cleaning,,,55.9593188,-3.2142138
James Wilson,furniture,,,55.9592601,-3.2134159
Calzeat Home,furniture,,,55.9592803,-3.2136898
Shelter,charity,,,55.9593061,-3.2140408
Artisan Roast,florist,,,55.9592903,-3.2138265
moda,hairdresser,,,55.9592843,-3.2137452
Jimmy Martin Travel Ltd,travel_agency,,,55.9592702,-3.2135527
mary's living & giving shop,charity,,,55.9590888,-3.2113350
Caoba,general,,,55.9591938,-3.2125151
Corson Hardware,hardware,,,55.9592057,-3.2126768
Wo:mankind Beauty,beauty,,,55.9591985,-3.2125784
Lucie Fenton,art,,,55.9590274,-3.2105717
Chetty & Das,optician,,,55.9588187,-3.2106087
Sergio Tosoratti Coutour & Tailors,tailor,,,55.9590438,-3.2107764
Capelli,hairdresser,,,55.9588072,-3.2104684
Oagoll Hairdresser,hairdresser,,,55.9590518,-3.2108749
Costcutter,convenience,,,55.9592200,-3.2128709
British Heart Foundation,charity,,,55.9589239,-3.2119019
Oxfam,charity,,,55.9592106,-3.2127430
Spar,convenience,,,55.8746424,-3.1063209
Maqbool's Supermarket,supermarket,,,55.9451748,-3.1864323
,convenience,,,55.9458546,-3.1865145
Jordan Valley,convenience,,,55.9470067,-3.1857249
James Borthwick,convenience,,,55.9581977,-3.2266410
Muirhouse Mall,mall,,,55.9715086,-3.2527583
Douglas's Bakery,bakery,,,55.9687872,-3.1730375
Scotmid,convenience,,,55.9612642,-3.1518000
Scotmid,supermarket,Mo-Sa 07:00-22:00; Su 09:00-22:00,yes,55.9744618,-3.1843973
Masons Bakery,bakery,,,55.9801706,-3.1982531
Pilrig Newsagent,newsagent,,,55.9692653,-3.1848652
Premier Laundrette and Linen Services,laundry,,,55.9657163,-3.2434145
Luigi's,hairdresser,,,55.9752286,-3.2157568
J. R. Gowans,seafood,,,55.9658713,-3.2434963
Lifestyle Express,convenience,,,55.9701043,-3.2077211
Ferry Road Newsagents,newsagent,,,55.9749766,-3.1808433
JR's Hair Studio,hairdresser,,,55.9748281,-3.2157044
Brendan Haddock,jewelry,,,55.9462981,-3.2361490
ID Hair,hairdresser,,,55.9462863,-3.2362272
PC Doctor,computer,,,55.9456854,-3.2344362
The Murrayfield Laundrette,laundry,,,55.9462724,-3.2363082
Bloemen Ecke,florist,,,55.9463082,-3.2360753
Scotmid,supermarket,Mo-Su 07:00-22:00,yes,55.9246213,-3.2764605
,bakery,,,55.9605889,-3.1427782
C. B. Store,convenience,,,55.9599724,-3.1386919
A.Q.Q.A. Stores,convenience,,,55.9605003,-3.1426292
Edinburgh Cycle Company,bicycle,,,55.9764735,-3.2155726
Keystore Express,convenience,,,55.9338344,-3.1612131
,ice_cream,,,55.9451505,-3.2675594
Scotmid Co-operative,supermarket,Mo-Su 07:00-22:00,,55.9752473,-3.2384345
Roll Up,bakery,,,55.9788896,-3.2317323
West Granton Newsagents,newsagent,,,55.9789247,-3.2316753
Scotmid,convenience,Mo-Su 06:00-22:00,no,55.9455703,-3.2351050
Timber Center,doityourself,,,55.9343703,-3.1784354
Kwik Fit,car_repair,Mo-Fr 08:30-18:00; Sa 08:30-17:00; Su 10:00-16:00,,55.9616880,-3.1819501
Wangping Travel,travel_agency,,,55.9395554,-3.2261304
,vacant,,,55.9434340,-3.2352266
Scotmid,supermarket,Mo-Su 07:00-22:00,yes,55.9088450,-3.2286848
Broadway Convenience Store,convenience,,,55.9056929,-3.2222000
Scotmid,convenience,Mo-Su 07:00-22:00,,55.9362298,-3.2787530
McArthur's,butcher,,,55.9361134,-3.2793167
Scotmid,supermarket,Mo-Su 07:00-22:00,,55.9589541,-3.2073114
Poundsavers,variety_store,,,55.9463807,-3.1856860
,convenience,,,55.9458336,-3.1846602
Newstime & Party Planet,convenience,,,55.9456804,-3.1849745
Scayles Music,music,,,55.9435386,-3.1836533
,butcher,,,55.9462332,-3.1856460
,convenience,,,55.8732182,-3.1016501
,newsagent,,,55.9536725,-3.1879644
M. Paget Newsagent,convenience,,,55.9685875,-3.1586569
McColls,convenience,,,55.9681738,-3.1583077
Alpine Bikes,bicycle,,,55.9588055,-3.2074568
Blackhall Cycle Repairs,bicycle,,,55.9573359,-3.2497051
B G Cycles,bicycle,,,55.9549411,-3.1174700
Hermiston Motor Company,car,,,55.9184179,-3.3148233
TK Maxx,clothes,,,55.9579914,-3.1661172
Marks & Spencer Outlet,clothes,,,55.9587242,-3.1654064
Tesco Express,supermarket,Mo-Su 06:00-23:00,,55.9503203,-3.1782658
Links Convenience Store,convenience,,,55.9732566,-3.1650777
Farmer Autocare,car_repair,,,55.9553448,-3.1442758
Poundland,department_store,,,55.9587914,-3.1650044
I.J. Mellis,cheese,,,55.9575980,-3.2076553
Oxfam Books,books,,,55.9588659,-3.2111897
Gregg's,bakery,,,55.9588767,-3.2113228
Carnies Autocentre,car_repair,,,55.9401993,-3.2400658
B&Q,garden_centre,,,55.9318588,-3.0991264
Margiotta,convenience,,,55.9599005,-3.2008967
,garden_centre,,,55.9641668,-3.2124109
Tesco Express,convenience,,,55.9472098,-3.1374791
Sainsbury's,supermarket,Mo-Sa 07:30-22:00; Su 08:00-20:00,yes,55.9269783,-3.1633004
KB Shop,convenience,,,55.9228915,-3.1746724
,vacant,,,55.9398308,-3.2041793
Edinburgh Bicycle Co-operative,bicycle,,,55.9621555,-3.1958412
AMT Coffee,kiosk,,,55.9455285,-3.2183503
Farmer,car_repair,,,55.9605084,-3.2565551
Unknown Pleasures,music,,,55.9516371,-3.1782872
Scotmid,convenience,,,55.9765746,-3.2155952
Catwalk,clothes,Mo 11:00-16:00;Tu-Fr 10:30-17:00;Sa 10:30-16:30,,55.9707445,-3.2083161
Elliott Clark Flowers,florist,Mo-Fr 08:00-17:30; Sa 08:00-17:00; Su 10:00-16:00,,55.9704132,-3.2080046
The Craftye Fisherman,fishing,,,55.9704375,-3.2080275
J Brown,seafood,,,55.9698585,-3.2074755
Botanic Barbers,hairdresser,,,55.9699263,-3.2075433
Rodger & Smalridge,optician,Mo-Fr 09:00-17:30; Tu 09:00-19:00; Sa 09:00-12:30,,55.9698130,-3.2074301
Stuart Martin Framing,frame,,,55.9657690,-3.2035466
McPherson Day Gallery,antiques,,,55.9565166,-3.1985725
Colin Campbell Sports,sports,"Mo-Fr 09:00-17:30, Sa 08:00-13:00",,55.9657335,-3.2035068
Just Chairs,furniture,,,55.9658010,-3.2035800
John Hall,hairdresser,,,55.9620275,-3.2004179
Phase,hairdresser,,,55.9620766,-3.2003138
Christopher Ness Jewellery,jewelry,,,55.9591987,-3.2000020
Sandy Jones,hairdresser,,,55.9619677,-3.2005446
Barnton Fine Foods,bakery,,,55.9614993,-3.3058797
Raymond,hairdresser,,,55.9618494,-3.3060047
Barbers,hairdresser,,,55.9708099,-3.2089052
William Purves,funeral_directors,,,55.9713277,-3.2072242
D:Isis Hair,beauty,,,55.9709351,-3.2090211
best-one,convenience,,,55.9708725,-3.2089620
User 2 Computers,computer,,,55.9710524,-3.2091319
Inverleith Drycleaners,dry_cleaning,,,55.9707825,-3.2088808
Zuba hair & beauty,beauty,,,55.9709901,-3.2090730
Costcutter,convenience,,,55.9707109,-3.2088175
Domo,clothes,,,55.9810044,-3.1775316
Holland & Barrett,chemist,,yes,55.9817506,-3.1769104
White Stuff,clothes,,yes,55.9815721,-3.1770519
Toys R Us,toys,,yes,55.9808985,-3.1775380
Baxters - Closed,deli,,yes,55.9807263,-3.1786131
Imported Instruments,musical_instrument,,,55.9808631,-3.1777927
EE,mobile_phone,,,55.9815970,-3.1771940
Xile,clothes,,yes,55.9814580,-3.1772610
The Perfume Shop,perfume,,,55.9805986,-3.1790384
Bishop Newsagents,newsagent,,,55.9807117,-3.1778550
M&S Simply Food,convenience,,yes,55.9804302,-3.1792045
Ness Clothing,clothes,,,55.9807218,-3.1780537
H. Samuel,jewelry,,,55.9814434,-3.1774778
The Body Shop,cosmetics,,,55.9805218,-3.1791802
Fat Face,clothes,,yes,55.9812164,-3.1771401
New Look,clothes,,yes,55.9803685,-3.1785169
Mostyn McKenzie,shoes,,,55.9805804,-3.1783147
Goldsmiths,jewelry,,,55.9812898,-3.1777616
Maddie & Mark's Play Town,yes,,,55.9816755,-3.1766706
Debenhams,department_store,,yes,55.9819022,-3.1761309
Superdry,clothes,,yes,55.9810426,-3.1780289
Build-A-Bear,toys,,yes,55.9810751,-3.1774011
Vision Express,optician,,yes,55.9811362,-3.1780453
Schuh,shoes,,yes,55.9814284,-3.1765591
Sofa Workshop,furniture,,yes,55.9808348,-3.1784128
Trespass,outdoor,,yes,55.9809340,-3.1776620
Carphone Warehouse,mobile_phone,,,55.9816738,-3.1770522
O2,mobile_phone,,,55.9809826,-3.1783290
Thorntons,confectionery,,,55.9811635,-3.1770486
Claire's Accessories,accessories,,,55.9815202,-3.1773360
Pure Spa,beauty,,,55.9812190,-3.1773250
Phones 4 U,mobile_phone,,,55.9808290,-3.1786128
JOY,clothes,,yes,55.9815697,-3.1764875
Clinton Cards,stationery,,,55.9813666,-3.1776197
BHS,department_store,,yes,55.9802720,-3.1790530
Charlie Miller,hairdresser,,yes,55.9816500,-3.1768879
Crew Clothing,clothes,,yes,55.9814284,-3.1767485
Boots,chemist,,,55.9812130,-3.1779034
Waterstones,books,,yes,55.9815168,-3.1763960
The Whisky Shop,alcohol,,yes,55.9813540,-3.1774530
French Connection,clothes,,,55.9812870,-3.1770096
GAP,clothes,,yes,55.9804569,-3.1783537
H&M,clothes,,yes,55.9801520,-3.1788650
Thomson,travel_agency,,,55.9810594,-3.1781872
GAME,computer,,yes,55.9813401,-3.1767223
The Village Shop,convenience,,,55.9217298,-3.3820660
Newsagent,convenience,,,55.9215229,-3.3807852
Crombie & Co,estate_agent,,,55.9591843,-3.2153031
Tesco Express,supermarket,Mo-Su 06:00-00:00,,55.9569888,-3.1872260
News Express,convenience,,,55.9775592,-3.1974672
Sobo Hair & Skincare Boutique,hairdresser,Mo 10:00-17:00; Tu-We 10:00-18:00;Th 09:00-19:00; Fr 09:00-18:00; Sa 09:00-17:00,,55.9775172,-3.1974519
Louis Vuitton,clothes,Mo-We 10:00-18:00; Th 10:00-19:00; Fr-Sa 10:00-18:00; Su 12:00-18:00,,55.9551214,-3.1921746
Central Superstore,convenience,,,55.9477277,-3.1937113
Egg,hairdresser,Tu-Th 10:00-20:00; Fr 09:00-18:00; Sa 09:00-17:00; Su 10:00-18:00,,55.9570229,-3.1878765
Real Foods,convenience,,,55.9572779,-3.1881262
Something Fishy,seafood,,,55.9571434,-3.1884895
lifestyle express,convenience,,,55.9572209,-3.1885728
Angela Jane,hairdresser,,,55.9733492,-3.2151658
Goodfillas,deli,,,55.9733149,-3.2151560
KeyStore,convenience,,,55.9732120,-3.2151263
Hirsute,hairdresser,,,55.9588158,-3.1719907
Lochend Newsagent,newsagent,,,55.9616095,-3.1583532
Launderette,laundry,,,55.9571279,-3.1697209
Edinburgh Towbars - Indespension,car_repair,,,55.9558966,-3.1602446
Pretty Woman,clothes,,,55.9573366,-3.1670675
Qwik Lube,car_repair,Mo-Fr 08:00-18:00; Sa 08:00-17:00,,55.9561232,-3.1673156
M.S. Newsagent,convenience,,,55.9385807,-3.1742602
M&S Simply Food,convenience,"Mo-Sa 07:00-22:00; Th,Fr 07:00-23:00; Su 08:00-22:00",,55.9523620,-3.1888390
I J Mellis,cheese,,,55.9273197,-3.2095236
Laid Back Bikes,bicycle,,,55.9378764,-3.1928940
La Croissanterie,bakery,,,55.9334740,-3.1781896
Revitalize,massage,,,55.9334249,-3.1781519
Mathieson,butcher,,,55.9333253,-3.1780752
Rose MacDonald,dry_cleaning,,,55.9333503,-3.1780944
Spirit Hair and Beauty,hairdresser,,,55.9335581,-3.1782544
Blackwells,books,,yes,55.9103355,-3.3217849
"Your Union, Your Shop",convenience,,yes,55.9102993,-3.3219353
Poundstretcher Extra,variety_store,,,55.9574545,-3.1661424
B&M,yes,,,55.9583952,-3.1660569
,car,,,55.9407568,-3.3062908
Homebase,garden_centre,,,55.9596855,-3.2406519
Salon Dorcas,hairdresser,,,55.9376966,-3.2190484
Scotmid Leith Walk,convenience,Mo-Su 07:00-24:00,,55.9669346,-3.1745997
Scotmid Pilrig,convenience,Mo-Su 06:00-23:00,,55.9634613,-3.1785294
Tesco Express,convenience,Mo-Su 06:00-24:00,yes,55.9613043,-3.1803525
Polish Mini Market,deli,,,55.9664048,-3.1750167
Accessorize,accessories,,,55.9527974,-3.1931504
British Home Stores,department_store,,,55.9523936,-3.1955684
Great Scot,gift,,,55.9523454,-3.1958602
Holland & Barrett,chemist,,,55.9532149,-3.1907376
Fraser Hart,jewelry,,,55.9522686,-3.1963245
H&M,clothes,,,55.9529061,-3.1925362
Kanoo Travel,travel_agency,,,55.9528075,-3.1931015
M&S,department_store,,,55.9525480,-3.1946349
Monsoon,clothes,,,55.9527851,-3.1932100
O2,mobile_phone,,,55.9523265,-3.1959745
Romanes & Paterson,clothes,,,55.9524646,-3.1951393
Swatch,jewelry,,,55.9528399,-3.1929444
EE,mobile_phone,,,55.9531814,-3.1909324
The Works,books,,,55.9524411,-3.1952812
Topshop / Topman,clothes,,,55.9530130,-3.1919454
Vodafone,mobile_phone,,,55.9531511,-3.1911639
Dr. Martens,shoes,,,55.9522882,-3.1962061
Whittard,tea,,,55.9531653,-3.1910296
3 Store,mobile_phone,,,55.9523064,-3.1960960
Costcutter: Bellevue Express,newsagent,,,55.9625319,-3.1886928
Mathiesons Bakers,bakery,,,55.9057929,-3.2224600
Sideburns Barber Shop,hairdresser,,,55.9057993,-3.2223552
St Columba's Hospice,books,,,55.9702171,-3.2078338
Kim O'Donnell,hairdresser,,,55.9237034,-3.2369454
U Save,convenience,Mo-Fr 06:30-20:00; Sa 07:00-20:00; Su 07:30-20:00,,55.9093750,-3.2328470
Soul Cycles,bicycle,,,55.9428777,-3.2013260
Murray & Murray,kitchen,,,55.9364996,-3.2077443
Ideal Computing,computer,,,55.9376995,-3.2062851
Scotbet,bookmaker,,,55.9340527,-3.1781594
C'est Si Bon,boutique,,,55.9361521,-3.2093092
CHI,boutique,,,55.9360662,-3.2095217
Craig Davidson Hair,hairdresser,,,55.9359802,-3.2097544
Greggs,bakery,,,55.9360042,-3.2097006
M.W. Christie,butcher,,,55.9360917,-3.2094667
News Plus,newsagent,,,55.9360168,-3.2096610
Oddbins,alcohol,,,55.9361953,-3.2092458
A la carte,deli,,,55.9365153,-3.2083716
Albany Lettings,estate_agent,,,55.9364173,-3.2086379
Caroline Temple,jewelry,,,55.9365314,-3.2083346
Cheynes,hairdresser,,,55.9363261,-3.2088942
Tippi,antiques,,,55.9366264,-3.2081482
Coco,confectionery,,,55.9363481,-3.2088249
Costcutter,convenience,Mo-Sa 08:00-23:00; Su 08:00-13:00,,55.9367462,-3.2079475
Fabulous Jewels,jewelry,,,55.9363987,-3.2086861
Snapdragon,florist,,,55.9366036,-3.2081876
Boombarbers,hairdresser,,,55.9367162,-3.2079832
Moss Green,art,,,55.9366712,-3.2080634
Belquin Hearing,hearing_aids,,,55.9364359,-3.2085775
Edinburgh Letting Centre,estate_agent,,,55.9364528,-3.2085263
Rosie Brown,jewelry,,,55.9365842,-3.2082378
White Blossom Paper Boutique,gift,,,55.9369760,-3.2078284
All About Eve,hairdresser,,,55.9370084,-3.2075009
Art Clay Scotland Jewellery Studio,jewelry,,,55.9369932,-3.2075371
Beauty Boutique,beauty,,,55.9375747,-3.2064905
Cuckoo's Bakery,bakery,,,55.9370406,-3.2074419
Framers,frame,,,55.9376120,-3.2064249
Halibut and Herring,gift,,,55.9371244,-3.2073044
Artisan Cheesecakes,confectionery,,,55.9371701,-3.2072197
R. C. Cunning,optician,,,55.9370651,-3.2074041
Stitches,tailor,,,55.9375127,-3.2066031
Swinton,insurance,,,55.9373267,-3.2069794
The Bay Tree Company,card,,,55.9371032,-3.2073331
Very Vintage,antiques,,,55.9372598,-3.2070668
esq barbers,hairdresser,,,55.9373589,-3.2070081
Curiouser,gift,,,55.9371523,-3.2072499
Accommodate Edinburgh,estate_agent,,,55.9393466,-3.2048703
Davison Kilt Hire & Sales,clothes,,,55.9394502,-3.2048172
Hill's,pet,,,55.9393778,-3.2048508
The Salvation Army,charity,,,55.9392807,-3.2048838
The Dress Fabric Company,clothes,,,55.9392499,-3.2048942
Harlequin Antiques,antiques,,,55.9395169,-3.2047913
Drinkmonger,alcohol,,,55.9400784,-3.2044006
,vacant,,,55.9399512,-3.2045223
Pedals,bicycle,,,55.9402034,-3.2043021
JFK,hairdresser,,,55.9404121,-3.2041646
Kilmour Thomson,hairdresser,,,55.9397393,-3.2046950
Valerio,hairdresser,,,55.9406741,-3.2038827
Riva,hairdresser,,,55.9401161,-3.2043806
Nordic Outdoor,outdoor,,,55.9398212,-3.2046309
Thrift Shop,charity,,,55.9402233,-3.2042920
Young Antiques,antiques,,,55.9400502,-3.2044226
Zen Lifestyle,yes,,,55.9401356,-3.2043625
Jason Hall Hairdressing,hairdresser,,,55.9280735,-3.2295806
Just Giles Too,hairdresser,,,55.9278766,-3.2298462
The Zone,beauty,,,55.9280344,-3.2296343
Just Bike Repairs,bicycle,,,55.9034518,-3.2847195
Earthy,convenience,,,55.9340921,-3.1776666
Scotmid,convenience,,,55.9357488,-3.2212709
Munro Glazing,glaziery,,,55.9396401,-3.2204394
National Tyres & Autocare,car_repair,,,55.9341936,-3.1793706
La Quinta,deli,,,55.9337928,-3.2108378
Everyone's Designs,paper,,,55.9346723,-3.2099053
Acanthus,furniture,,,55.9349001,-3.2098775
Maddie & Mark's Shoes,shoes,,,55.9348265,-3.2098825
The Edinburgh Bookshop,books,,,55.9346065,-3.2098926
Trinity Factors,estate_agent,,,55.9347253,-3.2099015
Vivaldi,boutique,,,55.9346298,-3.2098952
George Hughes,seafood,,,55.9349631,-3.2098712
ACE Property Management,estate_agent,,,55.9355674,-3.2097378
181 Delicatessen,deli,Mo-Sa 08:45-18:00,,55.9354599,-3.2098009
Gulliver's Toys and Gifts,toys,,,55.9357386,-3.2095256
MvDonald Green,jewelry,,,55.9357960,-3.2093992
,vacant,,,55.9364853,-3.2078154
Links Barbers,hairdresser,Mo-We 09:15-17:00;Th 09:15-18:00;Fr 09:15-17:00;Sa 09:00-15:00;Su off,,55.9364574,-3.2078682
Andiamo,clothes,Mo 09:30-17:00; Tu-Fr 09:30-17:30; Sa 10:00-17:00,,55.9365297,-3.2073726
Bruntsfield News,newsagent,,,55.9368144,-3.2072231
Indigo Hairdressing,hairdresser,,,55.9369169,-3.2070498
Soprano Ice,beauty,,,55.9368822,-3.2071085
Dig-in,greengrocer,,,55.9367713,-3.2072962
ooh! ruby shoes,shoes,,,55.9367919,-3.2072613
Gordon Stevenson Violins,musical_instrument,,,55.9396249,-3.2041387
Sirs,hairdresser,"Mo,Th 08:30-17:30;Tu,We 08:30-19:00;Fr 09:00-17:30;Sa 08:00-15:00",,55.9396564,-3.2042847
Costcutter,convenience,,,55.9523416,-3.1133098
McColls,convenience,,,55.9535969,-3.1152881
Evans Cycles,bicycle,,,55.9441930,-3.2068338
Tesco Express,supermarket,Mo-Su 06:00-00:00,yes,55.9430622,-3.2092408
Cotswold,outdoor,,,55.9524733,-3.1982130
Tiso,outdoor,,,55.9519793,-3.2020879
Hutchison Newsagent,convenience,,,55.9290539,-3.2435667
Sandy's Barber Shop,hairdresser,,,55.9290846,-3.2434287
Next,clothes,,,55.9514111,-3.2012078
University Gift Shop,gift,Mo-Sa 09:30-17:30,,55.9449949,-3.1876964
Potter Shop,convenience,,,55.9460853,-3.1884605
Sainsbury's Local,convenience,Mo-Su 07:00-23:00,,55.9759198,-3.1688863
Tesco Express,convenience,,,55.9732269,-3.1757642
Bonaly Store,convenience,,,55.9010733,-3.2592819
John Lewis,department_store,,yes,55.9553640,-3.1875110
Sainsbury's Local,convenience,Mo-Su 07:00-23:00,,55.9564271,-3.2026401
Debra,charity,,yes,55.9379417,-3.1933894
Magnet kitchen showroom,furniture,,yes,55.9615630,-3.1799851
Glam Nail Bar,hairdresser,,yes,55.9617936,-3.1797794
Tailor,tailor,,limited,55.9618580,-3.1796927
Urbantek,computer,,yes,55.9618910,-3.1796482
Smart Buzz Travel Link,travel_agency,,yes,55.9618192,-3.1797449
Clark's Foodstore,convenience,,,55.9696933,-3.1722263
Euro Foods - Polski Skelp,convenience,,,55.9691127,-3.1727428
All Togther,charity,,,55.9691887,-3.1726833
+48 Tattoo Saloon,tattoo,,,55.9653733,-3.1759068
Gamesmasters,computer,,,55.9653570,-3.1759212
Storries Home Bakery,bakery,,,55.9654170,-3.1758684
Co-operative,supermarket,,,55.9518428,-3.3045734
Lloyds Pharmacy,chemist,,,55.9518788,-3.3043713
High Spirit Drinks,alcohol,,,55.9347252,-3.2318214
Farmfoods,supermarket,,yes,55.9453098,-3.1841497
Edina Lock & Key Co. Ltd.,doityourself,,,55.9621259,-3.2002093
Iceland,convenience,"Mo-Sa 09:00-18:30; Th,Fr 09:00-19:00; Su 10:00-17:30",,55.9422885,-3.2851064
,vacant,,yes,55.9397814,-3.1797976
Lothian Bike Shed,bicycle,,,55.8692196,-3.0690614
Wickes,doityourself,,,55.9381502,-3.2433363
Gordon Wilson,hairdresser,,,55.9371511,-3.1785019
Crew,hairdresser,,,55.9371286,-3.1786065
Robert Murray Stamp Shop,books,,,55.9710676,-3.2093363
Robert Murray Stamp Shop,books,,,55.9710423,-3.2098425
Sainsburys Local,supermarket,Mo-Su 07:00-23:00,,55.9424940,-3.2818573
True Test,car_repair,,,55.9318887,-3.1780643
Vino Wines,alcohol,,,55.9338890,-3.1785006
Vino Wines,alcohol,,,55.9244380,-3.2101197
Austen Thomson,hairdresser,,,55.9752561,-3.1791314
Downes Leith Opticians,optician,,,55.9755280,-3.1788431
Alpha Trophies,engraving,,,55.9744843,-3.1842846
Executive Launderette,dry_cleaning,,yes,55.9744993,-3.1841934
Scotbet,bookmaker,,,55.9741706,-3.1860656
The Village Store,convenience,,,55.9737789,-3.1886995
Coral,bookmaker,,,55.9710442,-3.2075056
Morrison's Bakery,bakery,,,55.9460037,-3.2122493
Appellation Wines,alcohol,,,55.9446899,-3.2176130
Greggs,bakery,,,55.9466560,-3.2163830
Gregg's,bakery,,,55.9448417,-3.2174972
City Laundry and Ironing Service,laundry,,,55.9450555,-3.2177623
Greggs,bakery,,,55.9424799,-3.2816617
Greggs,bakery,,,55.9713034,-3.2524594
Build-a-bear Workshop,toys,,,55.9510384,-3.2033844
Carphone Warehouse,mobile_phone,,,55.9506655,-3.2055766
,vacant,,,55.9498208,-3.2085468
Coral,bookmaker,,,55.9496768,-3.2088827
Currys PCWorld,electronics,,yes,55.9510028,-3.2035937
Flight Centre,travel_agency,,,55.9506719,-3.2095534
Three,mobile_phone,,,55.9506475,-3.2056826
HMV,video,,,55.9507694,-3.2049656
Holland & Barrett,health_food,,,55.9500433,-3.2087914
Rae Macintosh,musical_instrument,,,55.9495163,-3.2092686
McGraths,optician,,,55.9506138,-3.2094202
Mountain Warehouse,outdoor,,,55.9508425,-3.2045363
New Look,clothes,,,55.9509223,-3.2040671
O2,mobile_phone,,,55.9505828,-3.2062515
Oddbins,alcohol,,,55.9503708,-3.2089074
Optical Express,optician,,,55.9497350,-3.2087493
EE,mobile_phone,,,55.9506921,-3.2054202
Patissier Maxine,bakery,,,55.9504108,-3.2089957
Sainsbury's Local,supermarket,Mo-Su 06:00-23:00,,55.9497489,-3.2095479
Scotbet,bookmaker,,,55.9502957,-3.2087397
Specsavers Opticians,optician,,,55.9499878,-3.2089218
Thomson,travel_agency,,,55.9505410,-3.2092474
Urban Outfitters,clothes,,,55.9508889,-3.2042633
Edinburgh Woollen Mill,clothes,,,55.9504862,-3.2068246
Allsaints,clothes,,,55.9516375,-3.1998692
Ann Summers,erotic,,,55.9519008,-3.1984149
Clarks,shoes,,,55.9520858,-3.1973443
Samsung,mobile_phone,,,55.9519248,-3.1982756
Footlocker,shoes,,,55.9519471,-3.1981468
Gap,clothes,,,55.9520088,-3.1977897
H&M,clothes,,,55.9519841,-3.1979326
Hotter,shoes,,,55.9512388,-3.2022267
Levi's,clothes,,,55.9513709,-3.2014456
Office,shoes,,,55.9521310,-3.1970825
Russell Bromley,shoes,,,55.9514425,-3.2010226
Size?,clothes,,,55.9519106,-3.1994290
Superdrug,cosmetics,,,55.9520617,-3.1974837
The Body Shop,cosmetics,,,55.9518846,-3.1985084
The Perfume Shop,perfume,,,55.9512004,-3.2024540
Lush Spa,perfume,,,55.9512129,-3.2023801
Thomas Sabo,jewelry,,,55.9516018,-3.2000800
Ben's Cookies,confectionery,,,55.9512255,-3.2023055
USC,clothes,,,55.9517396,-3.1993336
Zara,clothes,,,55.9514787,-3.2008085
fat face,clothes,,,55.9531997,-3.2002068
Cath Kidston,clothes,,,55.9529896,-3.1991497
Charles Tyrwhitt,clothes,,,55.9531227,-3.1983631
Jones,shoes,,,55.9532570,-3.1975697
Kiehl's,beauty,,,55.9530322,-3.1988979
Lakeland,kitchen,,,55.9533055,-3.1968297
TM Lewin,clothes,,,55.9531427,-3.1982449
Trotters opticians,optician,,,55.9531760,-3.1980483
Margiotta,convenience,,,55.9374561,-3.2171083
Al-Halal,convenience,,,55.9385020,-3.2179588
EH11,hairdresser,,,55.9375838,-3.2164066
Shelter,charity,,,55.9451003,-3.2173120
Mint,beauty,,,55.9450612,-3.2173404
Jim's Barbers,hairdresser,,,55.9449469,-3.2174267
Aqua Vapor,e-cigarette,,,55.9449200,-3.2174466
Dudes & Divas,hairdresser,,,55.9448983,-3.2174596
Stitch Express,tailor,,,55.9446032,-3.2176790
Wallaces,electrical_appliance,,,55.9436294,-3.2190625
Salvation Army,charity,,,55.9432123,-3.2201084
Scotts,newsagent,,,55.9431191,-3.2203108
Tesco Express,supermarket,Mo-Su 06:00-23:00,,55.9460513,-3.2224536
Scotmid,convenience,Mo-Su 07:00-22:00,,55.9460165,-3.2204442
Bike Smith,bicycle,,,55.9460152,-3.2203544
Tesco Express,convenience,Mo-Su 06:00-23:00,,55.9453178,-3.2334068
Hobs Reprographics,copyshop,,,55.9462728,-3.2139352
McColl's,convenience,,,55.9467974,-3.2160819
Costcutter,convenience,,,55.9467288,-3.2162398
Co-operative Food,supermarket,Mo-Su 06:00-23:00,,55.9493968,-3.2095231
Sweet Service,newsagent,,,55.9517391,-3.2125828
George Bower,butcher,,,55.9590449,-3.2133693
G Armstrong,seafood,,,55.9592433,-3.2131872
Crombie's of Edinburgh,butcher,,,55.9586606,-3.1898701
Sainsbury's Local,supermarket,Mo-Su 07:00-23:00,,55.9359530,-3.2090040
Blackwells,books,,limited,55.9478310,-3.1861334
Prego Local,convenience,,,55.9446309,-3.2513641
John Brash,butcher,,,55.9447464,-3.2502929
Sterling,furniture,,,55.9384979,-3.2423099
Premier,convenience,,,55.9452542,-3.2172002
Waterstone's,books,,,55.9529704,-3.2016563
Costcutter,convenience,,,55.9459535,-3.2111220
Milton Convenience Store,convenience,,,55.9436374,-3.1175794
M. Azhar Newsagent,newsagent,,,55.9546852,-3.1491350
Willowbrae Convenience Store,convenience,,,55.9547559,-3.1492399
High & Mighty,clothes,,,55.9512409,-3.2032056
Trailfinders,travel_agency,,,55.9514709,-3.2033360
Day-Today,convenience,,,55.9518600,-3.2028724
Paperchase,stationery,,,55.9530393,-3.2012412
Links,jewelry,,,55.9551443,-3.1920326
Burberry,clothes,,,55.9551900,-3.1917491
Mulberry,clothes,,,55.9552185,-3.1915725
Tesla,car,,,55.9552387,-3.1914470
Nespresso,coffee,,,55.9551089,-3.1913231
Reiss,clothes,,,55.9551241,-3.1912375
JoJo Maman Bebe,clothes,,,55.9552550,-3.1913461
Tommy Hilfiger,clothes,,,55.9551361,-3.1911696
North America Travel Service,travel_agency,,,55.9550789,-3.1909691
Kurt Geiger,shoes,,,55.9553106,-3.1910009
Boss,clothes,,,55.9552751,-3.1906765
Swarovski,jewelry,,,55.9551179,-3.1907064
Pandora,jewelry,,,55.9551317,-3.1906138
Pepperberry,clothes,,,55.9551447,-3.1905257
Sole,shoes,,,55.9551578,-3.1904375
Miss Selfridge,clothes,,,55.9525192,-3.1964600
Virgin Media,yes,,,55.9524214,-3.1969832
JD,sports,,,55.9523652,-3.1969523
Crabtree & Evelyn,gift,,,55.9522868,-3.1969092
The Bicycle Works,bicycle,"Mo-Fr 08:00-20:00; Sa,Su 09:00-18:00",,55.9387449,-3.1916318
River Island,clothes,,,55.9513361,-3.2016517
Swarovski,jewelry,,,55.9515758,-3.2002338
EE,mobile_phone,,,55.9518029,-3.1989813
International Newsagents,newsagent,,,55.9498171,-3.1911893
Warhammer,video_games,,,55.9497794,-3.1891002
Argos,general,,,55.9510084,-3.1876316
Patisserie Valerie,bakery,,,55.9505271,-3.1874272
J & S Newsagents,newsagent,,,55.9503579,-3.1879003
Premier,convenience,,,55.9477844,-3.1954795
Lifestyle Express,convenience,,,55.9478809,-3.2059454
Hamilton & Young Jewellery Desigers,jewelry,,,55.9514029,-3.1802859
Historic Connections Jewellery Designers,jewelry,,,55.9503734,-3.1852186
Castle Fine Art,art,,,55.9551052,-3.1907919
Pen Shop,accessories,,,55.9550932,-3.1908729
Whistles,clothes,,,55.9528078,-3.2027141
Jo Malone,fragrance,,,55.9528404,-3.2024386
White Stuff,clothes,,,55.9528934,-3.2021195
Hamilton & Inches,jewelry,,,55.9529148,-3.2019912
Arran Aromatics,perfumery,,,55.9532791,-3.1997367
Jack Wills,clothes,,,55.9532620,-3.1998379
Sweaty Betty,clothes,,,55.9532400,-3.1999681
Co-operative Food,convenience,Mo-Su 07:00-22:00,,55.9525393,-3.2004241
Speedy Hire,hardware,,,55.9423929,-3.2291543
Trespass,outdoor,,,55.9590323,-3.2432727
maddie & mark's shoes,shoes,,,55.9574517,-3.2500730
Aitken & Niven,clothes,,,55.9575448,-3.2493757
Mace,convenience,Mo-Sa 07:00-20:00; Su 07:00-18:00,,55.9571279,-3.2490414
Bella Hairdressing Salon,hairdresser,,,55.9086975,-3.2285525
Baguette Stop,deli,,,55.9086383,-3.2285131
Iceland,supermarket,,,55.9024661,-3.2880581
Sainsbury's Local,convenience,,,55.8991828,-3.2975585
Kodak Express,photo,,yes,55.9802390,-3.1787250
Space.NK,chemist,,,55.9527382,-3.2031515
Anta,furniture,,,55.9525034,-3.2045956
Under Armour,sports,,,55.9460006,-3.2193648
First XV,sports,,,55.9460020,-3.2194600
schuh,shoes,,,55.9518139,-3.1999701
The North Face,outdoor,,,55.9520701,-3.2001305
Pretty Green,clothes,,,55.9523541,-3.2003082
Barbour,clothes,,,55.9523798,-3.1997161
Radley,handbag,,,55.9518376,-3.1993883
Alistir Wood Tait,jewelry,,,55.9520324,-3.2008808
Robert Anthony,jewelry,,,55.9521045,-3.2005031
Goodwins,jewelry,,,55.9521219,-3.2004075
Rogerson Footwear,shoes,,,55.9519581,-3.2013097
ecco,shoes,,,55.9520877,-3.2014673
Watch,jewelry,,,55.9524277,-3.1997431
John Whyte,jewelry,,,55.9520183,-3.2009622
Trespass,outdoor,,,55.9525275,-3.1997994
Maplin,electronics,Mo-Fr 08:30-20:00; Sa 09:00-18:00; Sa 10:00-18:00,,55.9427728,-3.2215457
Jigsaw,clothes,,,55.9534259,-3.1988679
Moss,clothes,,,55.9535038,-3.1983783
Hobbs,clothes,,,55.9534444,-3.1987584
LK Bennett,clothes,,,55.9534736,-3.1985860
Anthropologie,clothes,,,55.9535248,-3.1982826
Ede & Ravenscroft,clothes,,,55.9534210,-3.2009886
Brora,clothes,,,55.9534741,-3.2010164
Sassoon,hairdresser,,,55.9552719,-3.1912409
Keir Street News,newsagent,,,55.9450566,-3.1973244
Fudge House,confectionery,,,55.9511703,-3.1812601
The Carson Clark Gallery,map;gift,,,55.9512942,-3.1806845
The Herald,newsagent,,,55.9519116,-3.1780741
Co-operative Food,convenience,Mo-Su 06:00-23:00,,55.9620122,-3.1824164
Laura Ashley,clothes,,,55.9534000,-3.1990211
News R Us,newsagent,,,55.9428518,-3.2174205
Appellation Wines,alcohol,,,55.9594456,-3.2188677
,convenience,,,55.9001832,-3.3074057
,butcher,,,55.8973064,-3.3042792
,garden_centre,,,55.9027891,-3.3116409
Left Luggage,left_luggage,,,55.9525153,-3.1885898
Lyon & Turnbull Auctionhouse,antiques,,,55.9590622,-3.1874786
Coast,clothes,,,55.9533046,-3.1995858
Mint Velvet,clothes,,,55.9532425,-3.1976555
Phase Eight,clothes,,,55.9534552,-3.1986944
Jaeger,clothes,,,55.9536081,-3.1977897
lululemon athletica,clothes,,,55.9533476,-3.1993313
McColl's,convenience,,,55.9526280,-3.1965124
Church's,shoes,,,55.9533170,-3.1995128
Bibi's Cake Boutique,bakery,,,55.9529055,-3.1966423
Karen Millen,clothes,,,55.9533834,-3.1991372
Molton Brown,boutique,,,55.9535926,-3.1978815
The Kooples,clothes,,,55.9535624,-3.1980601
Goodwins,jewelry,,,55.9508297,-3.2099102
Duncanson & Edwards,pawnbroker,,,55.9542953,-3.2009135
Harvey Jones,kitchen,,,55.9521555,-3.2030455
Fired Earth,interior_decorartion,,,55.9521244,-3.2030273
Greggs,bakery,,,55.9530315,-3.1960873
Nevisport,outdoor,,,55.9530553,-3.1959315
Farrow & Ball,interior_decoration,,,55.9574353,-3.2068753
best-one,convenience,,,55.9397448,-3.1830053
Clan,car_repair,,,55.9426764,-3.2372303
JB McLean Interiors,furniture,,,55.9431776,-3.2358808
Collinson Ceramics,houseware,,,55.9428849,-3.2366327
Roseburn Garage,car_repair,,,55.9427282,-3.2370770
JRM Coachworks,car_repair,,,55.9433234,-3.2355660
Craighead & Woolf,kitchen,,,55.9512402,-3.2100013
Gallery Ten,art,,,55.9494070,-3.2111644
Belle-Eve,hairdresser,,,55.9509189,-3.2101081
Remus,interior_decoration,,,55.9496299,-3.2114546
Run And Become,sports,,,55.9509613,-3.2102080
Paper Tiger,gift,,,55.9493342,-3.2110431
City Barbers,hairdresser,,,55.9511559,-3.2101110
,convenience,,,55.9511104,-3.2100145
James Ness,jewelry,,,55.9508082,-3.2093728
Studio One,gift,,,55.9494552,-3.2112394
James Alexander,hairdresser,,,55.9509381,-3.2101548
Ruffians,hairdresser,,,55.9511972,-3.2101988
Shuropidy,shoes,,,55.9497661,-3.2086847
Boscolo Bathrooms,bathroom_furnishing,,,55.9574064,-3.2067026
Vincent Bell,hairdresser,,,55.9574624,-3.2070378
Jeffreys Interiors,interior_decoration,,,55.9573186,-3.2061776
Ted & Muffy,shoes,,,55.9513152,-3.2032458
His Hair,hairdresser,,,55.9517941,-3.2126964
Cheynes,hairdresser,,,55.9562020,-3.1892738
Villeneuve Wines,alcohol,,,55.9577516,-3.1886297
Natural Selection Food,yes,,,55.9577243,-3.1885132
Life Story,gift,,,55.9590063,-3.1908424
Paige Connor,hairdresser,,,55.9581787,-3.1898419
Vino,alcohol,,,55.9579184,-3.1894493
Broughton News,newsagent,,,55.9578931,-3.1894080
Narcissus,florist,,,55.9583296,-3.1895278
Coco Chocolate,confectionery,,,55.9580612,-3.1891114
Allan Hair,hairdresser,,,55.9580147,-3.1890391
Curiouser,gift,,,55.9586140,-3.1898174
Bentley,car,,,55.9305476,-3.1050752
Ferrari,car,,,55.9304415,-3.1053765
Lamborghini,car,,,55.9303021,-3.1056599
Bank,clothes,,,55.9340114,-3.1041555
Vodafone,mobile_phone,,,55.9339406,-3.1041801
Mountain Warehouse,outdoor,,,55.9332389,-3.1049239
Thomas Cook,travel_agency,,,55.9331468,-3.1050890
Card Factory,gift,,,55.9342051,-3.1040865
Three,mobile_phone,,,55.9340848,-3.1041207
Claire's,boutique,,,55.9334240,-3.1047978
O2,mobile_phone,,,55.9342396,-3.1039631
New Look,clothes,,,55.9337475,-3.1042582
WH Smith,newsagent,,,55.9329845,-3.1078170
Jacamo,clothes,,,55.9328841,-3.1082272
Superdrug,chemist,,,55.9317925,-3.1080510
Monsoon,clothes,,,55.9329225,-3.1080755
H Samuel,jewelry,,,55.9329559,-3.1075423
Game,computer,,,55.9317352,-3.1079979
Accesorize,boutique,,,55.9329432,-3.1079781
O2,mobile_phone,,,55.9553739,-3.1886075
Thorntons,confectionery,,,55.9541821,-3.1884083
AMERIkandy,confectionery,,,55.9552361,-3.1900199
H Samuel,jewelry,,,55.9548458,-3.1882125
Burton,clothes,,,55.9548865,-3.1882869
Warren James,jewelry,,,55.9554219,-3.1890140
I Luv Scotland,gift,,,55.9554385,-3.1894149
Next,clothes,,,55.9552478,-3.1883304
Accessorize,boutique,,,55.9547263,-3.1882280
Mountain Warehouse,outdoor,,,55.9552903,-3.1884240
JD,sports,,,55.9553174,-3.1900698
Perfume Shop,beauty,,,55.9546473,-3.1882587
McColl's,newsagent,,,55.9553052,-3.1887053
Carphone Warehouse,mobile_phone,,,55.9545449,-3.1882854
Razor Sharp,hairdresser,,,55.9553577,-3.1888174
Clintons,gift,,,55.9546233,-3.1884108
Garage,shoes,,,55.9547023,-3.1883663
Claire's,boutique,,,55.9547934,-3.1883184
Millie's Cookies,confectionery,,,55.9554809,-3.1891644
Card Factory,gift,,,55.9550558,-3.1885925
Tiger,variety_store,,,55.9551845,-3.1885196
Sports Direct,sports,,,55.9553844,-3.1897075
River Island,clothes,,,55.9554217,-3.1887116
Books4Less,books,,,55.9542945,-3.1885490
Superdrug,chemist,,,55.9552816,-3.1897851
Ryman,stationery,,,55.9554511,-3.1887924
Michael Kors,clothes,,,55.9550953,-3.1914005
Barrhead Travel,travel_agency,,,55.9543952,-3.1884949
EE,mobile_phone,,,55.9545392,-3.1884413
Wallis,clothes,,,55.9549314,-3.1883690
Poundland,variety_store,,,55.9553942,-3.1891314
Dorothy Perkins,clothes,,,55.9550167,-3.1885249
ManKind,toys,,,55.9554115,-3.1895611
Officers Club,clothes,,,55.9549759,-3.1884502
Hawkin's Bazaar,toys,,,55.9553638,-3.1893091
Quiz,clothes,,,55.9553300,-3.1885213
Ernest Jones,jewelry,,,55.9544020,-3.1883318
Radiator Studio,hardware,,,55.9730066,-3.1941848
Lochrin Autos,car_repair,,,55.9421808,-3.2047764
Provenance Wines,alcohol,,,55.9428086,-3.2033918
View Forth Grocers,newsagent,,,55.9398982,-3.2120884
Viewforth Glazing,house,,,55.9397068,-3.2118157
Black & Lizars,optician,,,55.9462467,-3.2059633
Sainsbury's Local,supermarket,Mo-Su 07:00-23:00,,55.9439171,-3.2042409
Tattoo Studio,yes,,,55.9399018,-3.2113835
James Morrow,hifi,,,55.9435206,-3.2032854
Bike Trax,bicycle,,,55.9424283,-3.2042531
Run 4 It,sports,,,55.9460793,-3.2059084
NTP,kitchen,,,55.9731309,-3.1817203
GDK,kitchen,,,55.9729499,-3.1815900
Specsavers,optician,,,55.9277909,-3.2095894
Age Scotland,charity,,,55.9443843,-3.1835306
Barnardo's,charity,,,55.9444608,-3.1835632
British Heart Foundation,charity,,,55.9445840,-3.1836157
Cancer Research UK,charity,,,55.9440477,-3.1833972
Capability Scotland,charity,,,55.9455300,-3.1848508
"Chest, Heart and Stroke Scotland",charity,,,55.9376928,-3.1785779
Marie Curie Cancer Care,charity,,,55.9454074,-3.1842782
PDSA,charity,,,55.9451480,-3.1844761
Salvation Army,charity,,,55.9380518,-3.1783866
Signage,copyshop,,,55.9375330,-3.1783784
Edinburgh Bike Tours,bicycle,,,55.9763771,-3.1678937
Andean Trails Limited,travel_agency,,,55.9763676,-3.1718236
Daziels,car_repair,,,55.9765223,-3.1766443
Great Grogg,alcohol,,,55.9766076,-3.1763937
Bernard Grocers,convenience,,,55.9761028,-3.1685561
Cork & Cask,alcohol,,,55.9351610,-3.1943978
Andrew May Wind Instrument Repair,music,,,55.9419808,-3.2042868
Aroosa Boutique,clothes,,,55.9420009,-3.2041515
Chameleon,hairdresser,,,55.9399527,-3.2119552
Dough Re Mi,bakery,,,55.9399803,-3.2118878
"Hospice of Hope, Romania",charity,,,55.9421394,-3.2037248
Dough Re Mi,bakery,,,55.9398206,-3.2115635
Khyber,newsagent,,,55.9418302,-3.2052961
Pins & Needles,craft,,,55.9419492,-3.2044743
Swanson Decorators,paint,,,55.9399294,-3.2120121
The Pine Tree Bakery,bakery,,,55.9420894,-3.2037121
Thrift Shop 2,second_hand,,,55.9419570,-3.2044149
Sun Home,yes,,,55.9398639,-3.2114676
Looks Vintage,yes,,,55.9397923,-3.2116257
myBearpaw,gift,,,55.9418662,-3.2050538
2U Beauty,beauty,,,55.9419401,-3.2045593
Kami,hairdresser,,,55.9418486,-3.2051731
best-one,convenience,,,55.9764297,-3.1661162
Frost Health and Beauty,beauty,,,55.9569415,-3.1569060
Premier,convenience,Mo-Su 06:30-22:00,,55.9423135,-3.2790950
Majestic Wine,alcohol,,,55.9601186,-3.2955546
Bayne's,bakery,,,55.9600977,-3.2957282
Polwarth Garage,car_repair,,,55.9386778,-3.2156820
Shrub: Swap&ReuseHub,doityourself,,,55.9481768,-3.1884842
Raeburn Fine Wines,alcohol,,,55.9591985,-3.2155037
Tesco Express,convenience,,,55.9268380,-3.2326390
Capability Scotland,charity,,,55.9586823,-3.2095871
Annie Smith,jewelry,,,55.9589932,-3.2102545
Henderson,art,,,55.9590551,-3.2109166
Cancer Research UK,charity,,,55.9590746,-3.2111579
Herbie,deli,,,55.9592149,-3.2128020
"Chest, Heart & Stroke",charity,,,55.9590360,-3.2132731
Sculleries,kitchen,,,55.9574140,-3.2078517
Raeburn Laundrette,laundry,,,55.9589774,-3.2125599
Gordon Fraser,hairdresser,,,55.9580264,-3.2092912
Daisy Cheynes,gift,,,55.9589561,-3.2122981
Barnardo's,charity,,,55.9585224,-3.2094139
abc hearing,hearing_aids,,,55.9587385,-3.2096425
Banks,florist,,,55.9590633,-3.2110184
Sharon Robertson Hair,hairdresser,,,55.9578465,-3.2081435
Flavours,travel_agency,,,55.9590095,-3.2129542
Green Grocer,convenience,,,55.9583585,-3.2091516
Saorsa Art Gallery,art,,,55.9580593,-3.2093396
The Write Stuff,stationery,,,55.9589390,-3.2120876
Boombarbers,hairdresser,,,55.9582350,-3.2095983
Bliss,baby_goods,,,55.9588008,-3.2103889
simplyfixit,computer,,,55.9590318,-3.2106265
Geluja,gift,,,55.9590668,-3.2110611
Galerie Mirages,art,,,55.9593054,-3.2122286
Goodfellow & Steven,bakery,,,55.9592529,-3.2133182
Rock Paper Scissors,hairdresser,,,55.9590521,-3.2134471
Stockbridge Store,convenience,,,55.9578024,-3.2080567
Pencig,e-cigarette,,,55.9589934,-3.2127563
debra,charity,,,55.9584326,-3.2092525
Kim McGregor,hairdresser,,,55.9589512,-3.2122374
Just Dogs,pet,,,55.9580993,-3.2093985
GirCo,interior_decoration,,,55.9588976,-3.2115787
Eden,clothes,,,55.9574148,-3.2067531
Dick's,clothes,,,55.9572475,-3.2057525
Sheila Fleet,jewelry,,,55.9575877,-3.2069189
Catalog Ltd,houseware,,,55.9578831,-3.2068718
Gorgeous,hairdresser;beauty,,,55.9598011,-3.2066873
Spanish Fine Foods,deli,,,55.9572932,-3.2074458
Aesop,cosmetics,,,55.9572886,-3.2060019
Antiques,antiques,,,55.9576678,-3.2072566
Frank Lindsay,hairdresser,,,55.9576139,-3.2068688
Vagabond,hairdresser,,,55.9579353,-3.2067737
Reiss,hairdresser,,,55.9597146,-3.2068490
Alpha Art,art,,,55.9588611,-3.2073945
Vino,alcohol,,,55.9573580,-3.2077299
Ian Smith Design,interior_decoration,,,55.9574455,-3.2069368
New Town Desigh,interior_decoration,,,55.9572602,-3.2058285
Bethany,charity,,,55.9587202,-3.2075403
The Floatarium,beauty,,,55.9573121,-3.2075607
Rose Street Barbers,hairdresser,,,55.9516492,-3.2041010
The Players Lounge,hairdresser,,,55.9514844,-3.2050989
Joules,clothes,,,55.9538007,-3.1968654
Daniel Henderson,jewelry,,,55.9514207,-3.2045713
Georgian Antiques,antiques,,,55.9735013,-3.1634192
EUSA JMCC Shop,convenience,,,55.9401289,-3.1698778
The Chocolate Moose,confectionery,,yes,55.9450302,-3.1886102
Levenhall Post Office,Newsagents,,,55.9446568,-3.0255429
Hawico,clothes,,,55.9475572,-3.1947246
Hawes & Curtis,clothes,,,55.9529708,-3.1992613
reddog music,musical_instrument,,,55.9471415,-3.1981353
Oliver Bonas,clothes,,,55.9530567,-3.1967132
Dunedin,clothes,,,55.9498323,-3.1881220
Gift World,gift,,,55.9554860,-3.1888570
Rox,jewelry,,,55.9531077,-3.1984519
Kitchens International,kitchen,,,55.9605329,-3.2006547
Broughton Convenience Store,convenience,,,55.9647363,-3.1916447
Treehouse,clothes,,,55.9580455,-3.2081675
Babu,hairdresser,,,55.9361804,-3.1940532
Optical Express,optician,,,55.9437222,-3.1832653
Sheila's,seafood,,,55.9362266,-3.1940570
Ishi,hairdresser,,,55.9382400,-3.1919596
Marchmont Hardware,hardware,,,55.9379934,-3.1917172
Vintage Hair Company,hairdresser,,,55.9348178,-3.1943606
Salut,deli,,,55.9455700,-3.1906242
Fruit Corner,greengrocer,,,55.9382400,-3.1922013
Nina's Mini market,convenience,,,55.9434323,-3.2022546
,vacant,,,55.9379963,-3.1915666
Lyndsay Brown,optician,,,55.9385002,-3.1946781
Macintosh,hairdresser,,,55.9382400,-3.1923044
Duke's,hairdresser,,,55.9350370,-3.1938751
D Fraser McLeod,deli,,,55.9351271,-3.1944000
Jones,shoes,,,55.9452438,-3.2049759
Timpson,craft,,,55.9453008,-3.2049773
March Hair,hairdresser,,,55.9393149,-3.1948236
W Armstrong & Son,clothes,,,55.9456405,-3.1902225
Bohemia,boutique,,,55.9382533,-3.1929473
Scotmid,convenience,Mo-Su 06:00-24:00,yes,55.9352928,-3.1944500
Hewats,clothes,,,55.9456700,-3.1900713
Futon Company,furniture,,,55.9450869,-3.2055908
Napiers,herbalist,,,55.9458381,-3.1897200
The Edge,hairdresser,,,55.9365420,-3.1947094
Russell Paints,paint,,,55.9384895,-3.1975043
Fruitalicious,greengrocer,,,55.9275946,-3.2095289
,newsagent,,,55.9478164,-3.1914928
Richer Sounds,hifi,,,55.9480844,-3.1870409
Specsavers,optician,,,55.9504830,-3.1874084
Schuh,shoes,,,55.9507985,-3.1881221
Premier,convenience,,,55.9457036,-3.1909300
Wood's Deli,deli,,,55.9026428,-3.2873221
bath store,bathroom_furnishing,,,55.9557874,-3.1939338
La Novia,clothes,,,55.9557589,-3.1941385
James Scott,antiques,,,55.9577028,-3.1992123
Ian Dickson Travel,travel_agency,,,55.9576215,-3.1997738
Vans,clothes,,,55.9508285,-3.2046182
Fireplace Design,houseware,,,55.9740506,-3.1894827
Ferry Road Mini Market,convenience,,,55.9744498,-3.1859154
Dunedin Builders Merchants,hardware,,,55.9654070,-3.1919843
David Waddell & Son Ltd,car_repair,,,55.9076910,-3.2580286
Beerhive,alcohol,,,55.9622114,-3.1959434
Black & Lizars,optician,,,55.8939619,-3.0714786
The Wee Bakehouse,bakery,,,55.8950995,-3.0688104
WH Smith,newsagent,,,55.8943906,-3.0704398
Farmfoods,supermarket,,,55.8939053,-3.0709805
Superdrug,chemist,,,55.8934268,-3.0718202
William Hill,bookmaker,,,55.9588888,-3.2114704
Penhaligon's,boutique,,,55.9536319,-3.1976493
Tiso,outdoor,,,55.9230140,-3.3971797
Peffer Paint,paint,,,55.9605719,-3.2562296
Decorum Decor,interior_decoration,,,55.9557826,-3.2585983
Mel Mackey,hairdresser,,,55.9558038,-3.2586685
The Corner Shop,convenience,,,55.9558290,-3.2587294
Blackhall Framing Gallery,art,,,55.9602160,-3.2560261
Sonya Moore,hairdresser,,,55.9605894,-3.2564928
Scotmid,convenience,Mo-Su 07:00-22:00,,55.9761633,-3.2226174
Hairizon,hairdresser,,,55.9761813,-3.2224350
,newsagent,,,55.9761452,-3.2228239
Day-Today,convenience,,,55.9761163,-3.2231328
Forth Store,convenience,,,55.9712837,-3.2424683
Corner Shop,convenience,,,55.9443480,-3.2121609
Glamour Pooch,pet,,,55.9443740,-3.2121122
Barnardo's,charity,,,55.9391289,-3.2274397
Fine Fellas,hairdresser,,,55.9458005,-3.2217189
Eden Aquatics And Reptiles,pet,,,55.9391712,-3.2271024
Drummond,houseware,,,55.9457991,-3.2216087
Caldow,hairdresser,,,55.9460465,-3.2218029
Stamper's Grove,art,,,55.9428985,-3.2111208
Siller & Donaldson,antiques,,,55.9435914,-3.2115809
Benny's,hairdresser,,,55.9436450,-3.2116314
Greggs,bakery,,,55.9453652,-3.1842234
Lidl,supermarket,Mo-Sa 07:00-22:00; Su 08:00-22:00,,55.9455833,-3.1843657
Poundland,variety_store,,,55.9456787,-3.1844972
Mc Coll's,convenience,,,55.9459183,-3.1847508
Hot Head,hairdresser,,,55.9448911,-3.1849785
Tribe Tattoo,tattoo,,,55.9445687,-3.1855914
Digger,gift,,,55.9446994,-3.1853312
Crown Couture,hairdresser,,,55.9456883,-3.2048824
Duncan McLaren,locksmith,,,55.9459248,-3.2041529
Birrell Rainford,optician,,,55.9496046,-3.2121140
Liam Ross,jewelry,,,55.9486702,-3.2142431
Eve Manders,hairdresser,,,55.9499867,-3.2113388
Liggy's Cake Company,confectionery,,,55.9487250,-3.2141218
Hogarth,bag,"Mo-Fr 10:00-17:30, Sa 09:30-17:30",,55.9497491,-3.2116532
Lindsey Gillies,hairdresser,,,55.9487018,-3.2136165
Lily Luna,jewelry,,,55.9487507,-3.2140649
Marina Rinaldi,clothes,,,55.9499273,-3.2114420
Dickson Reid,hairdresser,,,55.9536325,-3.2004827
Pride,hairdresser,,,55.9537653,-3.1999718
Joseph Bonnar,jewelry,,,55.9537264,-3.2001956
Floritalia,florist,,,55.9624730,-3.1962407
Day-Today,convenience,,,55.9533994,-3.2965007
Barrhead Travel,travel_agency,,,55.9600650,-3.2959966
Madison,hairdresser,,,55.9533871,-3.2965592
Gail Stewart,hairdresser,,,55.9595628,-3.3005223
Ballantine Goldie,optician,,,55.9653982,-3.2704022
Care Clean,dry_cleaning,,,55.9653621,-3.2716441
Congratulations,gift,,,55.9653713,-3.2714611
Granger,hairdresser,,,55.9650835,-3.2741226
Hidden Hearing,hearing_aids,,,55.9526689,-3.1971192
Xile,clothes,,,55.9519635,-3.2000637
Argento,jewelry,,,55.9521247,-3.2001646
Dune,shoes,,,55.9519061,-3.2000278
Longstone Convenience Store,convenience,,,55.9251043,-3.2604397
Matthew's Foods,supermarket,,,55.9249456,-3.2543275
Timpson,yes,,,55.9450756,-3.1838725
EE,mobile_phone,,,55.9341422,-3.1041091
Body Shop,beauty,,,55.9331863,-3.1050752
Outfit,clothes,,,55.9328270,-3.1084378
,vacant,,,55.9329799,-3.1074371
Carphone Warehouse,mobile_phone,,,55.9354168,-3.1015628
Bubbles,bathroom_furnishing,,,55.9333285,-3.2103431
Studio One,furniture,,,55.9307676,-3.2096518
soren,furniture,,,55.9306337,-3.2099863
Morningside Travel,travel_agency,,,55.9269763,-3.2094198
Bakery Andante,bakery,,,55.9268573,-3.2094072
Scotcleen,dry_cleaning,,,55.9287693,-3.2092719
Newslink,newsagent,,,55.9253502,-3.2096956
Time & Tide,furniture,"Mo-Sa 10:00-17:00, Su 11:30-16:30",,55.9279284,-3.2091864
Bathstore,bathroom_furnishing,,,55.9317838,-3.2097588
Bruntsfield Sports,sports,,,55.9277908,-3.2091663
Sofa So Good,houseware,,,55.9316849,-3.2097588
Good Food,deli,,,55.9270667,-3.2090586
Home Hardware,hardware,,,55.9292203,-3.2093794
Toys Galore,toys,,,55.9286120,-3.2092561
Johnsons,dry_cleaning,,,55.9257388,-3.2095726
Sony Centre,electronics,,,55.9328142,-3.2102866
Feather & Black,bed,,,55.9318706,-3.2097588
Rifkind & Brophy,optician,,,55.9273116,-3.2090949
Ann Brownlie,shoes,Mo-Sa 10:00-17:00,,55.9272619,-3.2090869
Costcutter,convenience,Mo-Su 06:00-22:00,,55.9287225,-3.2092590
Karine,deli,,,55.9261197,-3.2094713
Browns,optician,"Mo-We 09:00-17:30, Th 09:00-18:30, Fr 09:00-17:30, Sa 09:00-16:00",,55.9549275,-3.1448469
Premier,convenience,,,55.9654900,-3.1551370
McColl's,convenience,,,55.9563517,-3.1381167
Suds R Us,laundry,,,55.9373595,-3.2166365
Merchiston Dry Cleaners,dry_cleaning,,,55.9374403,-3.2160603
beets,alcohol,,,55.9759822,-3.1690710
Premier,convenience,Mo-Su 07:30-22:00,,55.9622946,-3.1791132
Sainsbury's Local,supermarket,Mo-Sa 07:00-23:00; Su 08:00-22:00,,55.9522655,-3.1119404
Londis,convenience,,no,55.9756898,-3.1848562
The Co-operative Food,supermarket,Mo-Su 07:00-23:00,yes,55.9401392,-3.1800633
Mathur's,convenience,,,55.9073664,-3.2566713
General Finishes UK,paint,"10am - 4pm, Monday - Friday.",yes,55.9339443,-3.1453717
Bottledog,alcohol,,,55.9571435,-3.1989266
Kirkliston Garage,car_repair,,,55.9557129,-3.4036796
Krkliston News,convenience,,,55.9562729,-3.4052203
The Entertainer,toys,,,55.9267966,-3.1644354
Game,computer,,,55.9268779,-3.1644281
Peacocks,clothes,,,55.9265181,-3.1644354
O2,mobile_phone,,,55.9266163,-3.1644347
Yours,clothes,,,55.9267126,-3.1644313
Poundworld,variety_store,,,55.9263157,-3.1644689
3 Store,mobile_phone,,,55.9263949,-3.1644633
Shoe Zone,shoes,,,55.9261530,-3.1644682
Holland & Barrett,herbalist,,,55.9262370,-3.1644738
Semi-chem,chemist,,,55.9259192,-3.1644871
Specsavers,optician,,,55.9259836,-3.1644904
Claire's,boutique,,,55.9274376,-3.1641161
Thomson,travel_agency,,,55.9271220,-3.1641273
Optical Express,optician,,,55.9258492,-3.1644904
Boots,optician,,,55.9273114,-3.1641206
Thomson,travel_agency,,,55.9273745,-3.1641183
Barrhead Travel,travel_agency,,,55.9270589,-3.1641296
Thomas Cook,travel_agency,,,55.9269958,-3.1641318
Carphone Warehouse,mobile_phone,,,55.9267239,-3.1640996
EE,mobile_phone,,,55.9267920,-3.1640962
Thorntons,confectionery,,,55.9269327,-3.1641341
Trespass,outdoor,,,55.9265742,-3.1641066
H Samuel,jewelry,,,55.9266596,-3.1641029
Bodycare,chemist,,,55.9262581,-3.1641239
BHS,department_store,,,55.9263849,-3.1641070
New Look,clothes,,,55.9259213,-3.1641306
Blue Inc,clothes,,,55.9264985,-3.1641033
WH Smith,newsagent,,,55.9260670,-3.1641205
Clarks,shoes,,,55.9261843,-3.1641272
Waterstones,books,,,55.9273534,-3.1644654
Card Factory,gift,,,55.9270448,-3.1643992
Laundrette,laundry,,,55.9644055,-3.1774463
best-one,convenience,,,55.9648945,-3.1763252
Greggs,bakery,,yes,55.9807322,-3.1775607
Baby Stork Company,baby_goods,,,55.9813482,-3.1768733
Boscolo,bathroom_furnishing,,,55.9362160,-3.1803214
AP Savile Stores,convenience,,,55.9295570,-3.1757405
Scotmid,convenience,,,55.8695780,-3.0687822
,convenience,,,55.8715494,-3.0567015
Nemo's World,pet,,,55.9567294,-3.1656981
Sainsbury's Local,convenience,Mo-Sa 07:00-23:00; Su 08:00-22:00,yes,55.9405934,-3.2170944
The Harvest Garden,confectionery,,,55.9325997,-3.2102606
,vacant,Mo-Sa 07:30-22:00; Su 08:00-22:00,,55.9225701,-3.2111664
Henderson Wines,alcohol,,,55.9221048,-3.2110397
Addiction,beauty,,,55.9197793,-3.1677163
Elan Hairdressing,hairdresser,,,55.9199138,-3.1677666
Kirkbrae Upholstery,furniture,,,55.9135918,-3.1599863
Orvis,clothes,,,55.9508938,-3.2079778
Scribbler,gift,,,55.9521050,-3.1972333
FOPP,video,,,55.9532324,-3.1949111
STA Travel,travel_agency,,,55.9536174,-3.1977351
Cochrane's Motor Company,car,,,55.9119376,-3.1583394
Day-Today,convenience,,,55.9127494,-3.1590140
Kurlz,hairdresser,,,55.9125410,-3.1588378
Lasswade Newsplus,newsagent,,,55.9124481,-3.1587556
Margiotta Food & Wine,convenience,,,55.9117193,-3.1582602
amplifon,hearing_aids,,,55.9494814,-3.2093440
Johnsons,dry_cleaning,,,55.9514674,-3.2118771
Helen Bateman,bag,,,55.9494435,-3.2119734
Poundstretcher,variety_store,,,55.9496392,-3.2097811
Just G,boutique,,,55.9495130,-3.2117692
Sam Brown,clothes,"Mo-We 10:00-17:30, Th 10:00-18:30, Fr-Sa 10:00-17:30, Su 12:00-17:00",,55.9497154,-3.2117746
Liam Ross,jewelry,,,55.9494816,-3.2118635
McColl's,convenience,,,55.9422426,-3.0513680
Best-one,convenience,,,55.9426602,-3.0509022
Moleta Munro,furniture,,,55.9590802,-3.1911295
Napier,bathroom_furnishing,,,55.9626254,-3.1991981
Canonmills Dry Cleaners,dry_cleaning,,,55.9624228,-3.1994878
Allan Makin & Sons,musical_instrument,,,55.9639406,-3.2020888
,newsagent,,,55.9628815,-3.2003345
Iceland,supermarket,,,55.9579154,-3.1717463
Cornelius,alcohol,,,55.9580738,-3.1717165
20 20 Opticians,optician,,,55.9583357,-3.1721088
Bowdens,clothes,,,55.9591222,-3.1719194
Greggs,bakery,,,55.9591279,-3.1715305
Bayne's,bakery,,,55.9592018,-3.1715098
Scotmid,supermarket,Mo-Su 07:00-22:00,,55.9593198,-3.1714738
Londis,convenience,,,55.9654312,-3.1704482
PK Mashallah,hairdresser,,,55.9658898,-3.1703687
W.I. Reith,car_repair,,,55.9680717,-3.1704052
Logan's Garage,car_repair,,,55.9681286,-3.1705912
Stein's Garage,car_repair,,,55.9682344,-3.1709167
Automotive Automatics,car_repair,,,55.9683458,-3.1712360
MS Garage,car_repair,,,55.9683953,-3.1714004
The Car Doctor,car_repair,,,55.9685572,-3.1717872
Heriothill Garage,car_repair,,,55.9686547,-3.1721210
RS Coachworks,car_repair,,,55.9686961,-3.1722795
Dunwell Coachworks,car_repair,,,55.9687316,-3.1724538
Millers Flooring,hardware,,,55.9675155,-3.1741271
Zabka,convenience,,,55.9662062,-3.1751959
Amir & Sons,convenience,,,55.9334399,-3.1666817
Bookworm,books,,,55.9330965,-3.1661388
Cyrus Barbers,hairdresser,,,55.9336415,-3.1669909
Flamingo Bathrooms,furniture,,,55.9334627,-3.1667296
Muir & Sons DIY Store,doityourself,,,55.9334150,-3.1666306
Salon Fairnington,hairdresser,,,55.9338292,-3.1672580
Shanas,beauty,,,55.9333497,-3.1665544
The Scruffy Dog Co.,pet,,,55.9337425,-3.1671210
Vulcan Gas Services,yes,,,55.9335419,-3.1668256
William Hill,bookmaker,,,55.9332619,-3.1663855
The Nomads Tent,rug,,,55.9432941,-3.1776488
House of Hearing,hearing_aids,,,55.9492178,-3.2109143
Tesco Express,convenience,Mo-Su 06:00-23:00,,55.9504583,-3.2069903
Dingwall Fabrics,curtain;interior_decoration,,,55.9307886,-3.2100583
Cameratiks,photo,Mo-Fr 09:30-17:30; Sa 10:00-17:00,,55.9310326,-3.2101021
Hart's Cyclery,bicycle,,,55.9430349,-3.2893507
KSH,hairdresser,,,55.9430363,-3.2891815
Warners,estate_agent,,,55.9430338,-3.2892744
Day Today,convenience,,,55.8740773,-3.1040752
SimplyFixIt Dalkeith,convenience,Mo-Sa 09:00-18:00,,55.8947571,-3.0686636
Naveco General Store,convenience,,,55.8925325,-3.0573676
Premier,convenience,,,55.8940005,-3.0535320
Capricorn Flowers Limited,florist,,,55.9294736,-3.1756943
Jaxx: Hairdressers and Barbers,hairdresser,,,55.9295028,-3.1757121
Game,computer,,,55.9541657,-3.1885889
Stewart Travel,travel_agency,,,55.9548074,-3.1880809
L'Occitaine,perfume,,,55.9521635,-3.2001889
Verve,clothes,,,55.9518938,-3.2016905
Shakeaway,yes,,,55.9519215,-3.2015213
Day-Today,convenience,,,55.9444757,-2.9553077
Premier,convenience,Mo-Su 06:00-22:00,,55.9442009,-2.9531042
The Avenue Store,convenience,,,55.9274390,-3.1876566
Be Inspired Fibres,health,,,55.9384934,-3.1951736
EZ Sports,sports,,,55.9386296,-3.1952039
Marchmont Gallery,frame,,,55.9381916,-3.1950985
Strutt & Parker,estate_agent,,,55.9501387,-3.2123380
Jan de Vries,health_food,,,55.9383396,-3.1786541
Gamma,bicycle,,,55.9588646,-3.2152487
Stockbridge Kitchen,bakery,,,55.9575707,-3.2076016
Miss Bizio Couture,clothes,,,55.9579794,-3.2066907
The Tide,art,,,55.9580718,-3.1186513
Best-One,convenience,,,55.9576961,-2.9901424
Greggs,bakery,,,55.9591945,-2.9847810
Baynes,bakery,,,55.9595098,-2.9846550
Carpet Rite,carpet,,,55.9460256,-3.2131802
Grove Bedding,bed,,,55.9463153,-3.2156353
Peter Young,carpet,Mo-Fr 09:30-17:30; Sa 09:30-14:30,,55.9463169,-3.2157689
Anita Glasby,optician,,,55.9454129,-3.2341214
Fresh,cakes,,,55.9456389,-3.2341968
British Red Cross,charity,,,55.9591633,-3.2119957
Sainsbury's Local,supermarket,Mo-Su 07:00-23:00,,55.9486187,-3.1870026
Stick Gallery,art,,,55.9300815,-3.1757112
Afrin Barber,hairdresser,,,55.9462653,-3.2001400
Armchair Books,books,,,55.9462803,-3.2000712
Peter Bell Books,books,,,55.9463119,-3.1999342
Owl & Lion,yes,,,55.9463209,-3.1998799
Scottish Pictures,art,,,55.9463309,-3.1998267
Thomson,travel_agency,,,55.9532516,-3.1155356
,supermarket,,,55.9352355,-3.1141567
Day Today,convenience,,,55.9344712,-3.1225423
Mieso Wedliny Wedzonki,butcher,,,55.9700633,-3.1697434
Art Room 32,art,,,55.9751912,-3.1808514
Be Seated,furniture,,,55.9750636,-3.1803471
Bike Craft,bicycle,,limited,55.9752182,-3.1807226
Muse Hair,hairdresser,,limited,55.9750231,-3.1805805
News Trader,convenience,,,55.9340627,-3.1748010
Omni Furnishing,furniture,,,55.9341585,-3.1749308
Saltire Antiques,furniture,,,55.9341066,-3.1748749
Andrew Stout Kitchens,kitchen,,,55.9439109,-3.2189520
Scotbet,bookmaker,,,55.9438084,-3.2192069
Victorian Heart Tattoo Studio,tattoo,,,55.9438390,-3.2191308
Eastfield Newsagent General Store,convenience,,,55.9467075,-3.0803276
edinburgh property management,estate_agent,,,55.9516440,-3.2127464
Executive Dry Cleaners,dry_cleaning,,,55.9448784,-3.2179058
Edinburgh Golf Centre,sports,,,55.9444482,-3.2181930
High Spirit Drinks,convenience,,,55.9441246,-3.2185117
Mr Man,hairdresser,,,55.9272475,-3.1643483
fone customize,mobile_phone,,,55.9272255,-3.1641251
Belle Cheveaux,hairdresser,,,55.9258128,-3.1833717
The Paint Shed,paint,,,55.9258981,-3.1838089
Floor Coverings International,trade,,,55.9262223,-3.1859274
Craiglea Clocks,yes,,,55.9226157,-3.2111359
Edinburgh News,convenience,,,55.9217043,-3.2112680
Harmonious & Healthy Chinese Clinic,yes,,,55.9223608,-3.2108570
LA hair solutions,hairdresser,,,55.9223408,-3.2113258
Wright of Comiston,greengrocer,,,55.9220591,-3.2110785
2's Company,hairdresser,,,55.9219666,-3.2111231
Angelica Flowers,florist,,,55.9896188,-3.3935665
Sea Kist,antiques,,,55.9896148,-3.3940510
Town Cryer,convenience,,,55.9896648,-3.3944829
,vacant,,,55.9896029,-3.3937427
words&pictures,art,,,55.9896068,-3.3939615
Mr Fella,hairdresser,,,55.9550662,-3.4010196
Ladbrokes,bookmaker,,,55.9160121,-3.2847898
Top Cellar,beverages,,,55.9159645,-3.2850021
William Hill,bookmaker,,,55.9159883,-3.2848950
House of Hound,pet,,,55.9455544,-3.2350067
The Cycle Service,bicycle,Mo-Fr 08:00-19:00; Sa 09:00-19:00,,55.9460189,-3.1819732
Greggs,bakery,,,55.8757291,-3.1067740
Aytouns,bakery,,,55.8756734,-3.1067338
,convenience,,,55.9236249,-3.1749240
Salon Sixty Nine,hairdresser,,,55.9127100,-3.1067482
Barber Inc,hairdresser,,,55.9304776,-3.1760554
Smith Bakery & Deli,deli,,,55.9303453,-3.1759564
,convenience,,,55.9306338,-3.1761609
Denis Equi,hairdresser,,,55.9148676,-3.1652668
Goodfellow & Steven,bakery,,,55.9148390,-3.1652277
Gwenne,bridal,,,55.9146397,-3.1649963
Liberton Flowers,florist,,,55.9147866,-3.1651681
"Liberton Food, News & Wine",supermarket,,,55.9145806,-3.1649266
Paper Rack,convenience,,,55.9146817,-3.1650473
Scotmid Co-operative Funeral Directors,yes,,,55.9147256,-3.1650933
Simply Clintons,card,,,55.9271568,-3.1641288
,vacant,,,55.9271987,-3.1643902
Blinds,curtain,,,55.9435168,-3.1831485
Cancer Research UK,yes,,,55.9414096,-3.1811702
Bottle Baron,alcohol,,,55.9418730,-3.1816242
Capital Newsagents,newsagent,,,55.9426551,-3.1824142
Choco-latte,confectionery,,,55.9406566,-3.1805231
Cleaning Centre,laundry,,,55.9413736,-3.1811369
Drum Central,musical_instrument,,,55.9419317,-3.1816824
Dry Cleaners,dry_cleaning,,,55.9387816,-3.1790144
Edinburgh Bakehouse,bakery,,,55.9376474,-3.1780108
Edinburgh Bargain Stores,variety_store,,,55.9432966,-3.1829608
Edinburgh Fabrics,fabric,,,55.9431631,-3.1828471
Eva's,hairdresser,,,55.9424366,-3.1822280
First Class Butchers,butcher,,,55.9425272,-3.1823052
Food for Thought,convenience,,,55.9435732,-3.1832129
Greggs,bakery,,,55.9414683,-3.1812245
H&T Pawnbrokers,pawnbroker,,,55.9451070,-3.1839065
Hifi & Video Repair Services,hifi,,,55.9415110,-3.1812640
KHD,hairdresser,,,55.9413110,-3.1810790
Cascade Juggling,yes,,,55.9420746,-3.1818242
Love Hate Tattoo,tattoo,,,55.9381075,-3.1784384
Lu's Tailor,tailor,,,55.9418376,-3.1815891
Newington Stationers,stationery,,,55.9410478,-3.1808355
Old and Newington,antiques,,,55.9386567,-3.1789132
Pace Print,copyshop,,,55.9412734,-3.1810442
Ruby Rouge,hairdresser,,,55.9429610,-3.1826749
Sainsbury's Local,supermarket,Mo-Su 07:00-23:00,yes,55.9407885,-3.1806196
The Barber,hairdresser,,,55.9389068,-3.1791158
Tanz,tanning_salon,,,55.9403211,-3.1802060
The Edinburgh Framing Company,frame,,,55.9379055,-3.1782507
The Finishing Touch,boutique,,,55.9430343,-3.1827374
The Tan Stand,tanning_salon,,,55.9395829,-3.1796088
Twice as Nice,clothes,,,55.9382782,-3.1785970
William Hill,bookmaker,,,55.9425835,-3.1823532
William Hill,bookmaker,,,55.9449628,-3.1837698
Wood Winters wines and whiskies,alcohol,,,55.9377634,-3.1781186
Your Store,convenience,,,55.9393382,-3.1793990
baberfella,hairdresser,,,55.9382359,-3.1785577
brew store,alcohol,,,55.9396658,-3.1796798
AA Bargain Store,mobile_phone,,,55.9415974,-3.1813439
savers,variety_store,,,55.9492406,-3.2099228
Backtracks,music,,,55.9432139,-3.2024855
Cowan Print,copyshop,,,55.9430993,-3.2022568
Tesco Express,convenience,,,55.9331366,-3.2607443
Greggs,bakery,,,55.9331816,-3.2608758
Real Foods,convenience,Mo-Th 08:30-18:00; Fr 08:30-17:00; Sa 09:00-17:00,,55.9436030,-3.2026816
Marchmont Garage No 1,car_repair,,,55.9350062,-3.1946275
Interiors Scotland,interior_decoration,,,55.9630302,-3.2006042
Edinburgh Tile Studio,interior_decoration,,,55.9630830,-3.2006999
The Edinburgh Fringe,hairdresser,,,55.9629101,-3.2003863
A&A Stadios,hairdresser,,,55.9637625,-3.2017715
Aurora Books,books,,,55.9637043,-3.2016920
Duncan & Reid Antiques,antiques,,,55.9636829,-3.2016627
Edinburgh Clothing Company,clothes,,,55.9490409,-3.1872195
Flight Centre,travel_agency,,,55.9506291,-3.1880368
Global News,newsagent,,,55.9490931,-3.1872467
House of Cashmere,gift,,,55.9507086,-3.1880769
Ladbrokes,bookmaker,,,55.9462792,-3.1855698
Ladbrokes,bookmaker,,,55.9508634,-3.1881548
Mode,hairdresser,,,55.9454082,-3.1847351
Netversal,computer,,,55.9482499,-3.1867878
Heritage of Edinburgh,gift,,,55.9493927,-3.1874028
Ripping Records,music,,,55.9489647,-3.1871798
Ryman,stationery,Mo-Fr 09:00-18:00;Sa 10:00-18:00;Su 11:30-17:00,,55.9469052,-3.1861162
Shoe Zone,shoes,,,55.9488953,-3.1871437
Tailor Stop,tailor,,,55.9457184,-3.1850069
The Scotland Shop,gift,,,55.9496051,-3.1875079
Yekta,clothes,,,55.9491480,-3.1872753
A&E Locksmiths,locksmith,,,55.9440931,-3.1838026
Apothecary,herbalist,,,55.9419268,-3.1821479
Bailey's Barber Shop,hairdresser,,,55.9420570,-3.1822682
Barbers 3-2-1,hairdresser,,,55.9428372,-3.1830984
Barnardo's,charity,,,55.9419579,-3.1821802
best-one,convenience,,,55.9420164,-3.1822211
Bona Deli,convenience,,,55.9397857,-3.1803565
Bonningtons,bakery,,,55.9415944,-3.1818222
Browns,optician,,,55.9424135,-3.1826485
Cobblers Key,locksmith,,,55.9404332,-3.1808661
Ladbrokes,bookmaker,,,55.9389843,-3.1797491
Leslie Deans & Co,estate_agent,,,55.9436202,-3.1836611
Letslet,estate_agent,,,55.9427925,-3.1830599
Medusa,hairdresser,,,55.9403582,-3.1808148
Metro Barbers,hairdresser,,,55.9406600,-3.1810459
Mobile Phone & Computer Repair Centre,computer,,,55.9414535,-3.1816705
Natural Foods etc.,wholefoods,,,55.9418304,-3.1820570
Polo Deli,deli,,,55.9423617,-3.1825905
Record Shack,music,,,55.9416285,-3.1818508
Stitch Master,tailor,,,55.9420860,-3.1822958
The Wee Boulangerie,bakery,,,55.9416532,-3.1818741
,vacant,,,55.9439796,-3.1837552
User 2,computer,,,55.9410414,-3.1812990
Warners,estate_agent,,,55.9428674,-3.1831497
William Hill,bookmaker,,,55.9392588,-3.1799848
Earlston Convenience Store,convenience,,,55.9574167,-3.1679055
,supermarket,,,55.9196790,-3.2957655
A & M Methven,hairdresser,,,55.9196939,-3.2950193
Cash Generator,pawnbroker,,,55.9482071,-3.1863757
Forbidden Planet,toys,,,55.9485272,-3.1865249
Jacob,bakery,,,55.9484509,-3.1864893
Mace,convenience,,,55.9484213,-3.1864755
Kissa,hairdresser,,,55.9380493,-3.2916343
Top Tan,tanning_salon,,,55.9380227,-3.2915686
M&S Simply Food,convenience,"Mo,Tu 06:30-21:00; We-Fr 06:30-22:00; Sa 07:00-21:00; Su 09:00-21:00",,55.9456280,-3.2189655
Bamboo Boutique,beauty,,,55.9603838,-3.2017480
Knights Barber,hairdresser,,,55.9604036,-3.2016028
Licks Cake Design,bakery,,,55.9603970,-3.2016509
Ling Ling Massage,massage,,,55.9597854,-3.2057192
The Colour Room,beauty,,,55.9599536,-3.2059947
Bacco Wine,alcohol,,,55.9600797,-3.2009864
Blue,hairdresser,,,55.9599396,-3.2009163
Trigg,hairdresser,,,55.9603153,-3.2011043
Zen Kichen,kitchen,,,55.9600939,-3.2009935
Edina Paint Co,paint,,,55.9558065,-3.2023083
Futur Property Auctions,estate_agent,,,55.9564912,-3.2026728
Gamefish,fishing,Mo-Fr 09:30-17:30; Sa 10:00-17:00,,55.9556278,-3.2022150
Handbag Heaven,bag,,,55.9565240,-3.2026895
Sally,hairdresser,,,55.9563708,-3.2026114
George Pirie Antiques,furniture,,,55.9562104,-3.2025298
Urban,hairdresser,,,55.9565548,-3.2027051
Allan K Jackson Antiques,antiques,,,55.9380847,-3.1811015
Bygone,antiques,,,55.9381279,-3.1811366
Day-Today Express,convenience,,,55.9388961,-3.1816722
Lorraine Graham Flowers,florist,,,55.9383725,-3.1813113
Majestic Wine Warehouse,alcohol,,,55.9384843,-3.1813183
The Bethany Shop,charity,,,55.9393704,-3.1819547
Hair Joy,hairdresser,,,55.9430364,-3.1843953
Pan Pan Bridal,boutique,,,55.9431494,-3.1844452
Development Direct,kitchen,,,55.9444404,-3.2177942
A Cunningham,fabric,,,55.9324931,-3.1403327
Afrin Barbers,hairdresser,,,55.9325848,-3.1392781
Amir & Son,convenience,,,55.9324842,-3.1404246
Green House,yes,,,55.9326424,-3.1387278
Greggs,bakery,,,55.9325122,-3.1401027
Niddrie Bargain Store,convenience,,,55.9326531,-3.1386228
Polish Delicatessan,deli,,,55.9324651,-3.1406106
Shhh Hair & Beauty,hairdresser,,,55.9325234,-3.1399767
Switch On Repairs,electronics,,,55.9325730,-3.1393801
William Hill,bookmaker,,,55.9327931,-3.1375571
iSee,optician,,,55.9326374,-3.1388008
,vacant,,,55.9326927,-3.1359176
,vacant,,,55.9327204,-3.1361042
Barber,hairdresser,,,55.9437970,-3.2186244
Dalry hair stylists,hairdresser,,,55.9438450,-3.2185104
M&D Caledonian,newsagent,,,55.9439539,-3.2182518
Torrance Gallery,art,,,55.9574672,-3.1996888
Allan Smith,bakery,,no,55.8780877,-3.1488659
Gregg's,bakery,,,55.8781101,-3.1485210
Joe's Convenience Store,convenience,,,55.8783838,-3.1489008
One to One,beauty,,,55.8788118,-3.1495227
PC Clinic,computer,,,55.8785773,-3.1495610
R Brown & Son,butcher,,,55.8781561,-3.1485785
Scotbet,bookmaker,,,55.8780359,-3.1483955
Scotmid Co-op,convenience,,yes,55.8782196,-3.1490645
Traditional Turkish Barbers,hairdresser,,,55.8781922,-3.1486360
Urban Beauty,beauty,,,55.8780075,-3.1487509
Doggone Purrfect,pet,,,55.9660271,-3.1760170
Jack's Grooming,pet,,,55.9119662,-3.1635381
Liberton Convenience Store,convenience,,,55.9120080,-3.1635395
In Vision,video,,,55.9254360,-3.2596683
Ladbrokes,bookmaker,,,55.9251467,-3.2601075
Short & Curley's,hairdresser,,,55.9253887,-3.2599126
Costcutter Sighthill,convenience,,,55.9227703,-3.2865579
Halo's Hair Design,hairdresser,,,55.9243298,-3.2777424
Ladbrokes,bookmaker,,,55.9224356,-3.2865528
Premier,convenience,,,55.9243575,-3.2776247
RS McColl,newsagent,,,55.9226471,-3.2867767
Tan Stand,beauty,,,55.9244111,-3.2773978
William Hill,bookmaker,,,55.9243862,-3.2775001
At The Coast,beauty,,,55.9513674,-3.1084348
Gordon's,butcher,,,55.9513374,-3.1082625
Joppa Foodstore,convenience,,,55.9512173,-3.1077751
Mancini,hairdresser,,,55.9511627,-3.1074747
in-house design,furniture,,,55.9511980,-3.1076887
The Cutting Room,hairdresser,,,55.9617659,-3.1798168
Leith Army Stores,outdoor,Mo-Sa 09:20-17:30; Su 11:30-16:00,,55.9614608,-3.1801760
Bo Chick,hairdresser,,,55.9490471,-3.0994393
Harmony Health & Beauty,beauty,,,55.9493544,-3.1000960
Head Start,hairdresser,,,55.9493088,-3.0997810
Surrey Aerials,electronics,,,55.9493388,-3.1000136
,newsagent,,,55.9492800,-3.0996288
Lonsdale & Dutch,yes,,,55.9565573,-3.2021129
McAree Brothers,knitting,,,55.9562044,-3.2019251
McLean Forth Properties,estate_agent,,,55.9562570,-3.2019093
Simpson & Marwick,estate_agent,,,55.9562341,-3.2019435
Prontaprint,copyshop,,,55.9561282,-3.2018779
The Wind Section,musical_instrument,,,55.9588627,-3.1977543
designer-lights.com,yes,,,55.9560729,-3.2018437
John Montgomery,furniture,,,55.8708160,-3.1785447
Lady Muck,beauty,,,55.8707710,-3.1783185
Meadow Deli & Bakery,bakery,,,55.8707938,-3.1784211
Arden Property Management,estate_agent,,,55.9570211,-3.1988381
Rachel Scott Bridal Couture,clothes,,,55.9562583,-3.1983819
Ritz,hairdresser,,,55.9564284,-3.1984730
"Sturrock, Armstrong &Thomson",estate_agent,,,55.9563881,-3.1984514
relove,second_hand,,,55.9576403,-3.2073138
Mr Purves,antiques,Sa 13:00-18:00,,55.9581341,-3.2064052
The Curtain Agency,curtain,,,55.9488703,-3.4062111
The Remedy Rooms,beauty,,,55.9578944,-3.2063314
Abacus Blinds & Curtains,curtain,,,55.9590347,-3.2106624
Ampersand,furniture,,,55.9580401,-3.1937911
Linzi Crawford,clothes,,,55.9570135,-3.1932291
,hairdresser,,,55.9561365,-3.1927910
Bob's haircutting,hairdresser,,,55.9594281,-3.2190345
Comely Bank Glazing,glaziery,,,55.9593493,-3.2188028
Dream,hairdresser,,,55.9591892,-3.2153669
Horizon Hair & Beauty,beauty,,,55.9587942,-3.2225363
Orient,furniture,,,55.9594344,-3.2189667
Mr Eion,coffee,,,55.9589470,-3.2148598
George Mewes,cheese,,,55.9590567,-3.2148812
Ruth Ball,hairdresser,,,55.9591813,-3.2186897
Shaws Fine Meats,butcher,,,55.9587362,-3.2229689
St Columba's Hospice,charity,,,55.9591575,-3.2147791
Aitken Nairn,estate_agent,,,55.9565405,-3.1943356
Dunpark,estate_agent,,,55.9566419,-3.1937175
,hairdresser,,,55.9560845,-3.1926079
rose & ammi flowers,florist,,,55.9406149,-3.2040458
Carolyn Baxter Dress and Hair Boutique,clothes,,,55.9590748,-3.1911945
London Street Grocery,greengrocer,,,55.9590719,-3.1910805
Absolute Nail and Beauty,beauty,,,55.9570228,-3.1994437
Dj Alexander,estate_agent,,,55.9571056,-3.1994894
Marwicks Solicitors and Estate Agents,estate_agent,,,55.9575285,-3.1997225
The Ringmaker,jewelry,,,55.9575877,-3.1997552
Red Hot and Blue Tattoo,tattoo,,,55.9428178,-3.2012380
Arthaus,hairdresser,,,55.9589873,-3.1902392
Broughton Place Hair and Beauty,hairdresser,,,55.9585952,-3.1896216
Dragonfly,gift,,,55.9590089,-3.1902681
Lamesley Bridal,clothes,,,55.9589329,-3.1901949
Big Ideas,clothes,,,55.9482822,-3.1943662
Drift,yes,,,55.9479487,-3.1940613
The Mutts Nuts,gift,,,55.9480933,-3.1942288
Bacchus Antiques,antiques,,,55.9482259,-3.1946974
Black Box,yes,,,55.9482117,-3.1943346
Golden Hare Books,books,,,55.9481674,-3.1942981
The Christmas Shop,yes,,,55.9483642,-3.1943587
The Isle of Skye Candle Company,candles,,,55.9482750,-3.1946941
Bill Baber Knitwear,sewing,,,55.9477560,-3.1956053
Hijinks,clothes,,,55.9478914,-3.1951558
Sublime Hair Design,hairdresser,,,55.9473527,-3.1973269
Concrete wardrobe,gift,,,55.9585188,-3.1902342
JoeD Edi,clothes,,,55.9585846,-3.1903176
Shamoon's,greengrocer,,,55.9584964,-3.1902058
boombarbers,hairdresser,,,55.9581034,-3.1897253
PI-KU Collective,fashion,tues-sat 11-6 + sun 12-5,,55.9476177,-3.1925449
Avizandum,books,,,55.9472836,-3.1920023
Deadhead Comics,books,,,55.9472570,-3.1916452
Maple Arts & picture framing,frame,Tu-Sa 10:30-18:00,,55.9473572,-3.1921813
Still Life,antiques,,,55.9472309,-3.1919083
Transreal,books,,,55.9471176,-3.1917878
Venus Flytrap Tattoo,tattoo,,,55.9471996,-3.1918747
Patrick Buckley Antiques,antiques,,,55.9374950,-3.1809773
Antiques & Stuff,antiques,,,55.9375216,-3.1809953
McKensie Knight Hairdressing,hairdresser,Tu-Sa 10:00-18:00,,55.9393795,-3.1800549
Day-Today,convenience,,,55.9067420,-3.1562830
Elle Hair & Beaty,hairdresser,,,55.9040274,-3.1473582
Gilmerton Grocers,convenience,,,55.9040809,-3.1471056
S D Wright,convenience,,,55.9040999,-3.1470041
William Hill,bookmaker,,,55.9052548,-3.1345695
Coral,bookmaker,,,55.9366242,-3.0162358
Wallyford Supermarket,convenience,,,55.9368039,-3.0161152
Montgomery,optician,,,55.9447083,-2.9553667
Shopsmart,convenience,,,55.9445496,-2.9558027
Bethany House Maker,charity,,,55.9606121,-3.1821507
Crystal International Air Travel,travel_agency,,,55.9601195,-3.1828764
Doyle & Company,estate_agent,,,55.9602898,-3.1826254
Emma Hall,hairdresser,,,55.9601588,-3.1828184
Homemax furniture,furniture,,,55.9607206,-3.1819909
Ivy,beauty,,,55.9601996,-3.1827585
McCalls,clothes,,,55.9602290,-3.1827151
Urban Furniture,furniture,,,55.9604344,-3.1824125
Adeel,mobile_phone,,,55.9606650,-3.1812200
Bill's Tattoo Studio,tattoo,,,55.9606926,-3.1811845
Harburn hobbies,yes,,,55.9604960,-3.1814370
Laiba Boutique,clothes,,,55.9600168,-3.1820625
Leomax,computer,Mo-Sa 09:30-19:00,,55.9607477,-3.1811137
Macbet,bookmaker,,,55.9605631,-3.1813509
Minuteman Press,copyshop,,,55.9603840,-3.1815809
Najaf,greengrocer,,,55.9602649,-3.1817339
Punjab Continental Food Store,greengrocer,,,55.9605416,-3.1813785
Oddbins,alcohol,Mo-We 12:00-21:00; Th 12:00-22:00; Fr-Sa 11:00-22:00; Su 12:00-21:00,,55.9607601,-3.1810686
Private shops,erotic,,,55.9603290,-3.1816516
Repair Centre,mobile_phone,,,55.9601883,-3.1818324
Rooh eyebrow specialist,beauty,,,55.9604514,-3.1814944
Ross McCulloch Hair,hairdresser,Mo-Fr 10:30-17:30; Sa 09:30-15:00,,55.9602076,-3.1818075
Taj Collections,jewelry,,,55.9600925,-3.1819554
Tattie Shaw's,greengrocer,,,55.9596475,-3.1825279
The Cat's Miaou,jewelry,,,55.9596688,-3.1825001
Venus Barbers,hairdresser,,,55.9604272,-3.1815255
Veyis Hair Design,hairdresser,,,55.9603059,-3.1816812
Workweardirect,clothes,,,55.9596018,-3.1825875
i Travel4U,travel_agency,,,55.9601141,-3.1819277
Ben's newsagant,newsagent,,,55.9607624,-3.1806097
Capital Cartridges,yes,,,55.9595331,-3.1826770
Digital Images Centre,yes,,,55.9594224,-3.1828215
Garlands,florist,,,55.9594654,-3.1827653
Neil Barton,hairdresser,,,55.9594434,-3.1827940
Elm Row Grocer,convenience,,,55.9593328,-3.1828828
Mama Said,convenience,,,55.9504843,-3.1891343
Miss Katie Cupcake,jewelry,,,55.9503790,-3.1885283
Old Town Context,gift,,,55.9504741,-3.1889890
Swish,clothes,,,55.9504445,-3.1887097
Whisky World,alcohol,,,55.9504936,-3.1892667
Broughton Property Management,estate_agent,,,55.9579298,-3.1889070
Edinburgh Carpet & Flooring Warehouse,carpet,,,55.9604557,-3.1856112
Den of Iniquity,tattoo,,,55.9577246,-3.1885877
Cavanagh Antiques,antiques,,,55.9506913,-3.1892472
Enchantment,gift,,,55.9506734,-3.1889797
Forever Scotland,gift,,,55.9506805,-3.1890434
Hair By Alfie,hairdresser,,,55.9508145,-3.1888157
Pie in the Sky,clothes,,,55.9506945,-3.1893245
Whiplash Trash,clothes,,,55.9506856,-3.1891339
Cutie House,gift,,,55.9507348,-3.1909550
Eden,gift,,,55.9507032,-3.1896893
Blow HQ,beauty,,,55.9506667,-3.1903376
Cookie,clothes,,,55.9507000,-3.1899003
Route One,sports,,,55.9506878,-3.1900635
The Scotsman,newsagent,,,55.9505916,-3.1884307
The Woollen Mill,clothes,,,55.9502241,-3.1880632
Victor Scott Kilt Maker,gift,,,55.9509347,-3.1881907
Crest of Edinburgh,clothes,,,55.9501088,-3.1888213
Ness,clothes,,,55.9497810,-3.1913943
Hair-Kare,hairdresser,,,55.8922395,-3.0577087
Scotbet,bookmaker,,,55.8923607,-3.0575822
Edfringe Shop,ticket,,,55.9497244,-3.1894827
Royal Mile Crystal,gift,,,55.9497578,-3.1892503
Warhammer,video_games,,,55.9498615,-3.1885286
Hi-Fi Corner,electronics,,,55.9592529,-3.1840148
McNaughtan's Bookshop,books,,,55.9593444,-3.1838906
Picture Framer,frame,,,55.9579668,-3.1852274
Powerhouse Fitness,sports,,,55.9582605,-3.1848804
The Movie Room,electronics,,,55.9592518,-3.1839141
Razor Sharp,hairdresser,,,55.9593056,-3.1838609
Zest skin spa,beauty,,,55.9594997,-3.1836449
McPherson,seafood,,,55.9385580,-3.2303579
Ladbrokes,bookmaker,,,55.9571582,-3.1880090
mC'm,hairdresser,,,55.9576029,-3.1857642
Iconic,antiques,,,55.9468835,-3.1972639
News Experss,newsagent,,,55.9469081,-3.1971727
Purple Glamour,jewelry,,,55.9468250,-3.1974803
Hawico,clothes,,,55.9476537,-3.1944533
Mr Wood's Fossils,yes,,,55.9473484,-3.1939135
W. Armstrong & Son,clothes,,,55.9476932,-3.1943394
Cutz Barbers,hairdresser,,,55.9491010,-3.1868455
Mail Boxes Etc.,yes,,,55.9496259,-3.1871096
Marie Curie Cancer Care,charity,,,55.9497330,-3.1871634
Sally,beauty,,,55.9489754,-3.1867824
The Phone Box,mobile_phone,,,55.9491593,-3.1868749
William Hill,bookmaker,,,55.9488546,-3.1867325
Buckstone News,newsagent,,,55.9085853,-3.2095890
Headturners,hairdresser,,,55.9084914,-3.2094885
Evolution Furniture,furniture,,,55.9427728,-3.2839886
Ruth Ross,hairdresser,,,55.9002411,-3.1635928
Ballantrae Cashmere,clothes,,,55.9502998,-3.1857066
Best Of Scottish,gift,,,55.9504170,-3.1849297
Edinburgh Cashmere Boutique,gift,,,55.9501824,-3.1864367
Fudge Kitchen,confectionery,,,55.9503887,-3.1851172
Heritage of Scotland,clothes,,,55.9504354,-3.1848073
House of Cashmere,clothes,,,55.9503119,-3.1856264
Johnstons of Elgin,clothes,,,55.9503993,-3.1850470
Palenque,jewelry,,,55.9502480,-3.1860503
Real Scot Shop,gift,,,55.9504552,-3.1846762
Really Scottish,gift,,,55.9502838,-3.1858126
Royal Mile Jewellery,jewelry,,,55.9502623,-3.1859550
The Nutcracker Christmas Shop,yes,,,55.9502703,-3.1859022
Ali Willmore Hairdressing,hairdresser,,,55.9503181,-3.1841423
Antiques,antiques,,,55.9503577,-3.1841972
Carson Clark Gallery,antiques,,,55.9502432,-3.1841036
Kilberry Bagpipes,musical_instrument,,,55.9501133,-3.1840188
Tete a Tete Foto,yes,,,55.9491137,-3.1857682
Cycle Scotland,bicycle,,,55.9497789,-3.1858030
Old Town Tattoo,tattoo,,,55.9495584,-3.1856859
Shear Magik,hairdresser,,,55.9104514,-3.3218679
Chic,clothes,,,55.9511016,-3.1847848
Cyan,beauty,,,55.9509272,-3.1845930
Harmony Complementary Therapies,massage,,,55.9508583,-3.1845447
Scottish Regimental Store,clothes,,,55.9508873,-3.1845660
Studio XIII Gallery,tattoo,,,55.9508166,-3.1845126
Tangram,furniture,,,55.9512195,-3.1852113
Barnets,shoes,,,55.9506697,-3.1845967
Celtic Craft Centre,clothes,,,55.9506160,-3.1860868
Cashmere And Kilt Centre,clothes,,,55.9506295,-3.1851989
Geoffrey (Tailor) Kiltmaker,clothes,,,55.9506258,-3.1853451
John Morrison Kiltmakers,clothes,,,55.9506140,-3.1854878
Ladbrokes,bookmaker,,,55.9504130,-3.1866628
The Bonnie Blue,gift,,,55.9505366,-3.1859449
The Tappit Hen,jewelry,,,55.9505491,-3.1858770
Wee Gift Shop,gift,,,55.9505717,-3.1857548
Whisky & Wine,alcohol,,,55.9505204,-3.1860326
Hector Russell,clothes,,,55.9503523,-3.1871203
Whisky & Wine,alcohol,,,55.9508278,-3.1875549
Lifestyle Express,convenience,,,55.9350652,-3.0911209
,hairdresser,,,55.9425472,-3.1794215
Whiski Rooms,alcohol,,,55.9499121,-3.1933926
Julie Maxwell,hairdresser,,,55.9035998,-3.2849230
Corniche,clothes,,,55.9508258,-3.1841129
Aquila,jewelry,,,55.9508678,-3.1841390
,vacant,,,55.9510292,-3.1842467
Lickety Splits,confectionery,,,55.9508956,-3.1841576
Saks,hairdresser,,,55.9509635,-3.1842029
The Scottish Grocer,convenience,,,55.9507564,-3.1840682
Cranachan & Crowdie,gift,,,55.9508459,-3.1832108
Eyden,hairdresser,,,55.9507656,-3.1839701
Balerno Garage,car_repair,,,55.8839274,-3.3407044
Balerno Hardware,hardware,,,55.8838471,-3.3388220
Head Quarters,hairdresser,,,55.8834757,-3.3387391
Ian Cameron Hairdressing,hairdresser,,,55.8834681,-3.3385292
Demijohn,gift,,,55.9486214,-3.1941622
,books,,,55.9488012,-3.1931423
Howies,clothes,,,55.9487636,-3.1936055
I.J. Mellis Cheesemonger,cheese,,,55.9486368,-3.1941121
Swish,clothes,,,55.9487224,-3.1938222
The Whisky Shop,alcohol,,,55.9486630,-3.1940240
Alan Scott,hairdresser,,,55.9653284,-3.1759463
Aslam Jewellers,jewelry,,,55.9648043,-3.1764117
Dofos,pet,,,55.9643661,-3.1767741
Elvis Shakespeare,books,,,55.9642393,-3.1769217
Flying Computers,computer,,,55.9676497,-3.1740097
Greggs,bakery,,,55.9640862,-3.1771034
Home Essentials,hardware,,,55.9655928,-3.1757108
Lebara,greengrocer,,,55.9655474,-3.1757537
Lovella,beauty,,,55.9685893,-3.1732119
Men's Room,hairdresser,,,55.9676089,-3.1740454
Pat's Chung Ying,deli,,,55.9670586,-3.1744914
Polak W Szkocji,deli,,,55.9664659,-3.1749615
Purusha,hairdresser,,,55.9686551,-3.1731539
The Salvation Army Charity Shop,charity,,,55.9687126,-3.1731033
Tip Top Tresses,hairdresser,,,55.9688473,-3.1729782
Vbaid Jewelers,jewelry,,,55.9663247,-3.1750890
William Hill,bookmaker,,,55.9668433,-3.1746606
best-one,convenience,,,55.9672280,-3.1743609
iDeal Digitech,computer,,,55.9643131,-3.1768297
Vacuum Exchange,vacuum_cleaner,,,55.9646692,-3.1765261
Clarksons,jewelry,,,55.9484107,-3.1946452
The Red Door Gallery,gift,"Mo-Fr 10:30-18:00, Sa 10:00-18:00, Su 10:30:17:30",,55.9485104,-3.1945073
Museum CONTEXT,gift,,,55.9485354,-3.1944329
Walker Slater,clothes,,,55.9484737,-3.1945897
British Heart Foundation,charity,,,55.9491209,-3.2101489
Cheynes,hairdresser,,,55.9514359,-3.2117394
Digital Print Centre,copyshop,,,55.9514798,-3.2123746
Direct Lettings,estate_agent,,,55.9513245,-3.2113720
Exclusive Barbers,hairdresser,,,55.9508874,-3.2100327
Mathew Watt,hairdresser,,,55.9513470,-3.2115488
Fast Frame,frame,,,55.9496063,-3.2098569
Maialino,deli;cafe,,,55.9486000,-3.2139056
Mr James,tailor,,,55.9514804,-3.2119479
Odyssey Boutique,boutique,,,55.9488028,-3.2139494
Rogue Flowers,florist,,,55.9496992,-3.2118487
Sleeping Beauty Salon,beauty,,,55.9495463,-3.2116744
St Columba's Hospice,charity,,,55.9514531,-3.2118145
boombarbers,hairdresser,,,55.9513613,-3.2116007
charlie miller,hairdresser,,,55.9496648,-3.2110702
frontiers,clothes,,,55.9495751,-3.2113916
marco pelo,hairdresser,,,55.9493906,-3.2121255
Bobs,hairdresser,,,55.9443178,-3.2016527
Games Hub,toys,,,55.9443104,-3.2017136
The Vapour Lounge,e-cigarette,,,55.9443304,-3.2015925
John Saunderson,butcher,,,55.9409843,-3.2032932
Lupe Pinto,deli,Mo-We 10:00-18:00; Th-Fr 10:00-19:00;Sa 10:00-18:00;Su 12:30-17:30,,55.9412894,-3.2032709
The Little Fox Deli,deli,,,55.9414661,-3.2032578
Pekoetea,tea,,,55.9413655,-3.2032652
Tollcross Superstore,convenience,,,55.9423156,-3.2032353
Nicolson,clothes,,,55.9512206,-3.1809675
Prestige Scotland,gift,,,55.9512503,-3.1808322
Millie's Cookies,confectionery,,,55.9387808,-3.3140224
,dry_cleaning,,yes,55.9394405,-3.3160757
Celtic,jewelry,,,55.9513690,-3.1804461
Holyrood Gift House,yes,,,55.9527482,-3.1749235
,vacant,,,55.9525339,-3.1754980
Pegasus Sound and Light,yes,,,55.9526051,-3.1752971
Chinese Doctor,massage,,,55.9309343,-3.2100845
Ye Olde Christmas Shoppe,yes,,,55.9516925,-3.1788934
Hair of the Dog,pet,,,55.9218165,-3.1544171
Keystore,convenience,,,55.9221875,-3.1535007
Laidlaw's,bookmaker,,,55.9222537,-3.1533575
Red Ox,hairdresser,,,55.9219589,-3.1540413
Scotmid,convenience,,,55.9217432,-3.1546087
Sun Factor,tanning_salon,,,55.9220742,-3.1537692
X-box Heat,tanning_salon,,,55.9219147,-3.1541684
Day-Today,convenience,,,55.9175340,-3.1573744
Glenvarloch Bakery,bakery,,,55.9174745,-3.1579689
Wash Hoose,laundry,,,55.9175853,-3.1570940
Heads Together,hairdresser,,,55.9513082,-3.2951413
I love Edinburgh,gift,,,55.9517830,-3.1784351
Neanie Scot,gift,,,55.9517524,-3.1785900
The Royal Mile Factory Outlet,clothes,,,55.9517329,-3.1786888
William Watt Electricians,electronics,,,55.9396811,-3.2043114
Edinburgh Copy Shop,copyshop,,,55.9496059,-3.1832770
Kleen Cleaners,dry_cleaning,,,55.9503527,-3.1837801
Lo Demore,yes,,,55.9501715,-3.1836580
Pinnies and Poppy Seeds,pastry,,,55.9500720,-3.1835910
Psychomoda,clothes,,,55.9501378,-3.1836354
Ragamuffin,clothes,,,55.9505756,-3.1839303
Rene Walrus,yes,,,55.9499590,-3.1835149
Slanj,clothes,,,55.9502944,-3.1837408
Solo,clothes,,,55.9505847,-3.1838535
Thomas Marin Funeral Director,funeral_directors,,,55.9493738,-3.1831207
Tidalfire,computer,,,55.9497809,-3.1833814
Ali & Son Newsagent,convenience,,,55.9448184,-3.0944451
Brunstane Kitchens,kitchen,,,55.9447406,-3.0943986
The Wooden Floor Store,hardware,,,55.9726502,-3.1559848
TileStar,hardware,,,55.9725566,-3.1557339
Head Candy Style Boutique,hairdresser,,,55.9375010,-3.1778747
Simply Bridsmaid,clothes,,,55.9380027,-3.1783409
Call Print,copyshop,Mo-Fr 09:00-17:30,,55.9470259,-3.1864063
Edinburgh Arts and Picture Framers,art;frame,Mo-Sa 09:00-17:00;Su 12:00-17:00,,55.9470276,-3.1861862
A. Jack,glaziery,,,55.9410786,-3.1777472
Myra Crawford,beauty,,,55.9401723,-3.1798127
RJ's,hairdresser,,,55.9408456,-3.1773265
Intelvisa,travel_agency,,,55.9418533,-3.1789874
The Real. A.B. Cave,yes,,,55.9415684,-3.1813171
VIP's Barber,hairdresser,,,55.9401883,-3.1797257
Viva,hairdresser,,,55.9417151,-3.1788642
Cross Fitness Training,sports,,,55.9419005,-3.1790296
iQ,fire and security systems,,,55.9420155,-3.1791322
Haven Ink Tattoo Studio,tattoo,,,55.9400277,-3.2190358
Myriad,gift,,,55.9400427,-3.2189815
N&N Barbers,hairdresser,,,55.9400840,-3.2188317
Scotbet,bookmaker,,,55.9401230,-3.2186898
Sandher & Sons,convenience,,,55.9404835,-3.2174615
Ben's Newsagent,newsagent,,,55.9430448,-3.1797884
Cash Converters,pawnbroker,,,55.9412241,-3.1809783
Green Print,copyshop,,,55.9431447,-3.1798704
Easy Let Property,estate_agent,,,55.9424023,-3.1821954
USA Nailz,beauty salon,,,55.9428628,-3.1825912
Welch Fishmonger,seafood,,,55.9428401,-3.1825719
Guaranteed Watch & Clock Repairs,yes,,,55.9493150,-3.1829881
Focus,clothes,,,55.9506089,-3.1836499
The Royal Mile Gallery,map;gift,,,55.9506011,-3.1837160
Treasurer 1874,alcohol,,,55.9506323,-3.1834530
Tribal Body Art,tattoo,,,55.9506582,-3.1832351
Macraes of Edinburgh,clothes,,,55.9507972,-3.1823043
D & J Motors,car,,,55.9802636,-3.2149740
Wardie Bay Garage,car_repair,,,55.9802817,-3.2147545
Best Fae Scotland,gift,,,55.9516038,-3.1784316
Cadenhead's Whisky Shop,alcohol,,,55.9511811,-3.1803641
Canongate Crafts,yes,,,55.9512432,-3.1801030
Celtic Design Jewellery,jewelry,,,55.9512868,-3.1798754
Holyrood Cashmere,clothes,,,55.9517064,-3.1779864
Simply Scottish,gift,,,55.9512041,-3.1802758
The Wyrd Shop,gift,,,55.9512983,-3.1798150
Backbeats Records,music,,,55.9437354,-3.1827929
Cables and chips,computer,,,55.9449161,-3.1837439
Chu's Salon,hairdresser,,,55.9453385,-3.1834312
Euronics,electronics,,,55.9443540,-3.1835177
Events Armoury Design and print,copyshop,,,55.9452540,-3.1836161
Hollan and Barret,yes,,,55.9441503,-3.1834310
Lawrence Smith and Son Wine Merchants,alcohol,,,55.9470098,-3.1821603
Oxfam,charity,,,55.9442211,-3.1834611
Oxfam,books,,,55.9443038,-3.1834963
Richmond Barbers,hairdresser,,,55.9453234,-3.1834643
Shelter,charity,,,55.9439804,-3.1833586
Southside Glazing and Joinery,glass and glazing,,,55.9439753,-3.1816982
The Clothing Bank,clothes,,,55.9439504,-3.1833459
Adult Conceptions,erotic,,,55.9471701,-3.1856476
Varsity Music,musical_instrument,,,55.9469589,-3.1856793
Wood's,hairdresser,,,55.9472373,-3.1853708
Ballantrae Cashmere,clothes,,,55.9492193,-3.1930877
Clans Of Scotland,clothes,,,55.9491246,-3.1937628
Edinburgh Cashmere & Lambswool,clothes,,,55.9490916,-3.1939899
Elgin Cashmere,clothes,,,55.9491960,-3.1932462
House Of Cashmere,clothes,,,55.9491357,-3.1936769
Kiltane,clothes,,,55.9491159,-3.1938348
Ness,clothes,,,55.9490725,-3.1940908
The Whisky Trail,alcohol,,,55.9491457,-3.1935949
Victoria Regalia,jewelry,,,55.9486694,-3.1944064
Camera Obscura,yes,,,55.9490645,-3.1957177
Cashmere and Scarf Company,clothes,,,55.9484046,-3.1961153
Castle Gift Shop,gift,,,55.9490044,-3.1952049
Highland House,gift,,,55.9493452,-3.1939099
House Of Scotland,clothes,,,55.9492619,-3.1942327
J & S - Newsagent,newsagent,,,55.9493239,-3.1939924
The Court Curio Shop,jewelry,,,55.9492222,-3.1943866
The Wee Scotland Shop,gift,,,55.9492425,-3.1943076
Cashmere House,clothes,,,55.9493848,-3.1937565
Harris Tweed Hebrides,clothes,,,55.9493659,-3.1938295
Howick Knitwear,clothes,,,55.9494382,-3.1936005
Heritage Of Scotland,clothes,,,55.9494691,-3.1934259
James Court City Refund,clothes,,,55.9494530,-3.1942106
Jamie Scott’s Millshop,clothes,,,55.9495149,-3.1931025
Royal Mile Factory Outlet,clothes,,,55.9494757,-3.1940901
The Woolen Factory Outlet,clothes,,,55.9494920,-3.1932788
Cheynes,hairdresser,,,55.9477142,-3.1860821
Southside Books,books,,,55.9476854,-3.1860695
Applejack,clothes,,,55.9486809,-3.1865965
Arika,art,,,55.9490145,-3.1840806
Boosh Boosh Boosh,hairdresser,,,55.9489949,-3.1842044
Cowgate Newsagant,newsagent,,,55.9490273,-3.1839998
Crescent print LTD,copyshop,Mo-Fr 09:00-17:30,,55.9489667,-3.1843829
KSI,beauty,,,55.9490408,-3.1839147
Spectrum Graffiri shop,art,,,55.9490516,-3.1838467
Antique Jewellers,jewelry,,,55.9497950,-3.1913255
House of Edinburgh,gift,,,55.9496955,-3.1918215
James Pringle Weavers,clothes,,,55.9497647,-3.1914755
Marchbrae,clothes,,,55.9497390,-3.1916043
Royal Mile Whiskies,alcohol,,,55.9497161,-3.1917184
The Cigar Box,tobacco,,,55.9498019,-3.1912828
House of Edinburgh,clothes,,,55.9501204,-3.1887259
The Whisky Trail,alcohol,,,55.9500958,-3.1889541
Joe,gift,,,55.9466505,-3.1912961
Greyfriars Art Shop,craft,,,55.9467039,-3.1913562
Bridge Express,gift,,,55.9472146,-3.1915661
Greyfriars,gift,,,55.9463610,-3.1912077
The Golden Scissors,hairdresser,,,55.9464760,-3.1911769
Archipelago Bakery,bakery,,,55.9542193,-3.2014742
Berketex Bride,clothes,,,55.9535194,-3.2010249
HIM,hairdresser,,,55.9532675,-3.2068024
Hadeel,craft,,,55.9524260,-3.2050607
Stock Xchange,yes,,,55.9530952,-3.2048858
Allure,beauty,,,55.9379731,-3.1934014
Chest Heart & Stroke Scotland,charity,,,55.9382401,-3.1920625
Cheryl Irvine,hairdresser,,,55.9384045,-3.1915968
New Leaf Co-op,deli,,,55.9385137,-3.1915979
The Opticians At Marchmont,optician,Mo-Fr 09:00-17:15; Sa 09:00-13:00,,55.9379877,-3.1927026
Crystal Optometry,optician,,,55.9624287,-3.1962127
London1 Barber,hairdresser,,,55.9622762,-3.1960863
Marshmallow Lady,confectionery,,,55.9623590,-3.1961433
Naihas,convenience,,,55.9323785,-3.3144582
Paper Tiger,gift,,,55.9478075,-3.2059200
Barnardos,charity,,,55.9895754,-3.3991595
Neilsons,estate_agent,,,55.9898488,-3.3945956
Indigo Hair and Beauty,beauty,,,55.9642863,-3.1768629
Ivor and Ineta's Hair n' Beauty,beauty,,,55.9643915,-3.1767411
Leith Grocer,convenience,,,55.9639690,-3.1772085
Shoe Repairs,yes,,,55.9640157,-3.1771974
Yasmin's Health and Wellness Centre,massage,,,55.9640388,-3.1771747
Brian Drumm,hairdresser,,,55.9535754,-3.1979836
Drain Center,trade,,,55.9630400,-3.1652856
Paragon Print Co.,copyshop,,,55.9645712,-3.1735576
Pentland Component Parts,trade,,,55.9634531,-3.1649166
STAX Trade Centres,trade,,,55.9636695,-3.1654936
Speedy Tool Hire,tool_hire,,,55.9634433,-3.1637567
Wishart and Co. Ltd,trade,,,55.9638482,-3.1661864
Wishart and Co. Ltd,trade,,,55.9642285,-3.1667580
Wishart and Co. Ltd,trade,,,55.9647802,-3.1678640
AGA,kitchen,,,55.9538029,-3.2005913
Charlie Miller,hairdresser,,,55.9533377,-3.2002948
Zen Beauty,beauty,,,55.9540830,-3.1978926
Neal's Yard Remedies,beauty,,,55.9543960,-3.1980436
Robertson,art,,,55.9543733,-3.1980327
Arden,estate_agent,,,55.9322294,-3.2097354
Braemore,estate_agent,,,55.9320223,-3.2101927
Hunters,estate_agent,,,55.9322214,-3.2102149
Kristofferson,carpet,,,55.9319292,-3.2101628
SH Jewellery,jewelry,,,55.9318821,-3.2101551
Shelter Scotland,charity,,,55.9317736,-3.2101097
Technik,hifi,,,55.9318350,-3.2101108
Albert Stores Newsagent,newsagent,,,55.9625561,-3.1723554
Ali's Convenience Store,newsagent,,,55.9623166,-3.1711968
Allen's Scrap Metal,trade,,,55.9626990,-3.1775360
Ben Stores Newsagent,newsagent,,,55.9627101,-3.1779712
Apollo Blinds,window_blind,,,55.9630120,-3.1782485
Inform,copyshop,,,55.9636277,-3.1775765
DNA Hairdressing,hairdresser,,,55.9629837,-3.1782786
Freak Body Shop,sports,,,55.9631630,-3.1780881
Holt Insulation,trade,,,55.9625431,-3.1713964
Ladbrokes,bookmaker,,,55.9630841,-3.1781720
Lifestyle Newsagent,newsagent,,,55.9611578,-3.1672271
Maria's Repairs/Alterations,tailor,,,55.9636774,-3.1775215
Noble Centre,massage,,,55.9624227,-3.1759031
PC Repair Man,computer,,,55.9633609,-3.1778779
Sicilian Pastry Shop,bakery,,,55.9627123,-3.1781131
Stone Restor (Masonary Specialist),trade,,,55.9625764,-3.1731835
Walker Woodstock Building Centre,trade,,,55.9632977,-3.1755785
Walker Woodstock Building Centre,trade,,,55.9634965,-3.1749674
William Hill,bookmaker,,,55.9632070,-3.1780414
Airlink Travel,travel_agency,,,55.9621451,-3.1792980
Bharosa Boutique,clothes,,,55.9622189,-3.1792068
Vintiques,antiques,,,55.9619206,-3.1796083
Helen Deans Hair and Beauty,beauty,,,55.9624403,-3.1789331
Leith Army Stores Footwear,outdoor,Mo-Sa 09:20-17:30; Su 11:30-16:00,,55.9613992,-3.1802618
Rajah's Supermarket,supermarket,,,55.9624261,-3.1763251
ALC,clothes,,,55.9539527,-3.1998932
Alchemia Studio,jewelry,,,55.9541148,-3.1988313
City alteration,dry_cleaning,,,55.9548325,-3.1976413
Howie R Nicholsby 21st Century Kilt,clothes,,,55.9539393,-3.1989723
Jane Davidson,clothes,,,55.9538860,-3.1992782
Kakao by K,clothes,,,55.9540652,-3.1991560
Cox & Co,estate_agent,,,55.9540252,-3.1984781
Pam Jenkins,shoes,,,55.9540816,-3.1990491
Samsung support centre,electronics,,,55.9546265,-3.1975347
eye,optician,,,55.9539378,-3.1999912
ishi,hairdresser,,,55.9547082,-3.1975770
Afreen,beauty,,,55.9706273,-3.1711684
City PC Repairs,computer,,,55.9606576,-3.1716248
Ian Bonnyman's Auto Electrics,car_repair,,,55.9613082,-3.1716278
Privilege Detail,car_repair,,,55.9611979,-3.1718782
Robertson's Garage,car_repair,,,55.9610120,-3.1722298
The Salvation Army,charity,,,55.9456418,-3.1909438
Feelfit Massage,massage,,,55.9609072,-3.1806608
Lothian Cat Rescue Shop,charity,,,55.9589001,-3.1719708
Print Sponge,copyshop,,,55.9609417,-3.1806709
Scot-Comp Electronics,computer,,,55.9589292,-3.1719640
Tattoo Studio,tattoo,,,55.9591736,-3.1719076
Top Cellar,alcohol,,,55.9589845,-3.1719512
Verde,antiques,,,55.9588436,-3.1719841
XS Locksmiths,locksmith,,,55.9590621,-3.1719333
Better Hearing Scotland,hearing_aids,,,55.9594042,-3.1718547
Cool Cuts Barbers,hairdresser,,,55.9594555,-3.1718429
Glam,beauty,,,55.9599603,-3.1717381
Hairdresser,hairdresser,,,55.9593228,-3.1718733
Hard to Find Hair Studio,hairdresser,,,55.9598396,-3.1717681
Ladbrokes,bookmaker,,,55.9595719,-3.1717981
M&S Foodstore,newsagent,,,55.9594882,-3.1718354
Mr Greg Tattoo,tattoo,,,55.9593737,-3.1718617
PWC Charity Shop,charity,,,55.9600150,-3.1717245
Capital Pets,pet,,,55.9597294,-3.1713888
Fruit o' the Toun,greengrocer,,,55.9601814,-3.1716831
Holland House Electrical Supplies,doityourself,,,55.9587463,-3.1676912
Imagina Studio Photography,photo,,,55.9602799,-3.1716586
MK Smart Cut,hairdresser,,,55.9602488,-3.1716664
Trim & Trig Hair,hairdresser,,,55.9602078,-3.1716765
Pink,clothes,,,55.9521300,-3.2037098
CeX Edinburgh,electronics,,,55.9530797,-3.1957672
Dance Wear,clothes,,,55.9514551,-3.2043696
Mail Boxes Etc,parcel,,,55.9513520,-3.2049738
Robert Graham,alcohol,,,55.9513768,-3.2048286
The Wax Bar,beauty,,,55.9517044,-3.2037661
AIM Computers,computer,,,55.9698475,-3.1691607
Duke Barbers,hairdresser,,,55.9705345,-3.1711146
Fones 2 You,mobile_phone,,,55.9705528,-3.1711673
Melinda's Cake Boutique,bakery,,,55.9699822,-3.1694976
G.A.S. Autogas,car_repair,,,55.9730927,-3.1670990
Covet,boutique,,,55.9540898,-3.1981026
Alexander Latto,car_repair,,,55.9726873,-3.1679950
Boneyard,tattoo,,,55.9706848,-3.1710703
Leith Florist,florist,,,55.9706598,-3.1711130
Premier Windscreens,car,,,55.9711993,-3.1702188
Toni and Guy,hairdresser,,,55.9537303,-3.2011852
Austin Reed,clothes,,,55.9523519,-3.2030160
Laing,jewelry,,,55.9527501,-3.2005561
Cruise,clothes,,,55.9524612,-3.2023403
Gant,clothes,,,55.9524997,-3.2021026
Hackett,clothes,,,55.9525397,-3.2018555
Hollister,clothes,,,55.9526503,-3.2011724
Rohan,outdoor,,,55.9525584,-3.2017401
Slaters,clothes,,,55.9523890,-3.2027864
The White Company,clothes,,,55.9525166,-3.2019981
Viyella,clothes,,,55.9523305,-3.2031480
French Connection,clothes,,,55.9528490,-3.1999809
Bright House,furniture,,,55.9709990,-3.1716173
Cancer Research UK,charity,,,55.9715525,-3.1717428
Card Factory,gift,,,55.9710610,-3.1719242
Farmfoods,supermarket,,,55.9718675,-3.1714527
Furniture & Electrical,furniture,,,55.9707944,-3.1714944
Kirkgate Barbers,hairdresser,,,55.9709224,-3.1716615
Peacocks,clothes,,,55.9715502,-3.1712993
Pound Stretcher,variety_store,,,55.9716110,-3.1717108
R S Mccoll,newsagent,,,55.9715225,-3.1717592
Semichem,optician,,,55.9714110,-3.1713796
Semichem,beauty,,,55.9714545,-3.1713546
Shoe Zone,shoes,,,55.9712311,-3.1718410
Specsavers Opticians,optician,,,55.9710145,-3.1719469
Superdrug,beauty,,,55.9711913,-3.1715064
Beautybeba,beauty,,,55.9751146,-3.1670369
Bishop Newsagents,newsagent,,,55.9751836,-3.1669785
Cascal,beauty,,,55.9746575,-3.1674844
LG Beauty Clinic,beauty,,,55.9753791,-3.1673720
Leith Print & Copy,copyshop,,,55.9754249,-3.1674641
Moda,hairdresser,,,55.9753095,-3.1672319
William Hill,bookmaker,,,55.9752567,-3.1671257
Keyprint Security Ltd,yes,,,55.9749838,-3.1661365
Creative cookware,kitchen,,,55.9521792,-3.2009433
Cute-icle nail spa,beauty,Tu-We 10:00-18:00; Th-Fr 10:00-19:00; Sa 10:00-18:00,,55.9519434,-3.2022935
Forever Flawless,beauty,,,55.9518856,-3.2026249
Ladbrokes,bookmaker,,,55.9520134,-3.2018929
Palenque,jewelry,,,55.9521325,-3.2012110
Vision Express,optician,,,55.9524117,-3.2003443
Rock Candy,jewelry,,,55.9520743,-3.2015440
Tartan Gift and Souvenirs,gift,,,55.9521032,-3.2013784
The Treasure Trove,craft,,,55.9519814,-3.2029436
Tickets Scotland,ticket,,,55.9519279,-3.2023826
Viking Optical Centre,yes,,,55.9521174,-3.2012971
madefromscotland,boutique,,,55.9520535,-3.2016633
McLaren Auto Body,car_repair,,,55.9773288,-3.1684025
Murdo Macleans,hairdresser,,,55.9519960,-3.2010909
CC,clothes,,,55.9522294,-3.2030946
Flux,gift,,,55.9760370,-3.1692333
Petals By The Shore,florist,,,55.9760587,-3.1692976
Co-operative Food,supermarket,Mo-Su 07:00-23:00,,55.9444724,-3.2041701
Hector Russel Kiltmakers,clothes,,,55.9517782,-3.1991245
Arran Aromatics,perfumery,,,55.9531556,-3.1981689
Cheynes,hairdresser,,,55.9531676,-3.1980981
Hanover Health Foods,convenience,,,55.9530190,-3.1973753
Holland & Barrett,chemist,,,55.9524983,-3.1980605
William Hill,bookmaker,,,55.9525215,-3.1979190
Charlotte Hair Stylist,hairdresser,,,55.9740649,-3.1692611
Camper,shoes,,,55.9523738,-3.1963933
Barrhead Travel,travel_agency,,,55.9531172,-3.1967415
Mac's Audios,mobile_phone,,,55.9709241,-3.1722542
Concept Clothing,clothes,,,55.9710387,-3.1724342
Coral,bookmaker,,,55.9711154,-3.1725547
J.P Optometrist,optician,,,55.9710586,-3.1724655
Albemarle Bond,pawnbroker,,,55.9711588,-3.1726230
Animus,hairdresser,,,55.9714101,-3.1730179
Greggs,bakery,,,55.9714788,-3.1731260
Jeneil,jewelry,,,55.9714412,-3.1730668
Junction News,newsagent,,,55.9713094,-3.1728596
Miena Jewellery,jewelry,,,55.9713891,-3.1729850
Textilewise,curtain,,,55.9711829,-3.1726608
Welch Fishmongers,seafood,,,55.9712226,-3.1727233
Jenners,department_store,,,55.9526388,-3.1941058
Express Laundry Service,laundry,,,55.9716939,-3.1734436
Lookin Trendy,clothes,,,55.9717167,-3.1734783
Calise Beauty,beauty,,,55.9735673,-3.1764012
Deery Funeral Services,funeral_directors,,,55.9739506,-3.1765206
Hogg Heaven,beauty,,,55.9735136,-3.1763356
Leith Bed Centre,bed,,,55.9737942,-3.1767567
Bra Bohag,furniture,,,55.9599671,-3.1713310
Devine Upholstery,fabric,,,55.9605704,-3.1692741
Store Room for Edinburgh,furniture,,,55.9599061,-3.1713458
The Albion Road Garage,car_repair,,,55.9617731,-3.1680629
William Hill,bookmaker,,,55.9598170,-3.1713675
Bulthaup,kitchen,,,55.9573875,-3.1990620
Coulters,estate_agent,,,55.9572778,-3.2072697
Duke's,hairdresser,,,55.9433329,-3.2039488
Gifted,gift,,,55.9592333,-3.2130720
Hadden Rankin,estate_agent,,,55.9566171,-3.2027400
Simpson & Marwick,estate_agent,,,55.9577755,-3.1891823
connolly,hairdresser,Tu 09:00-20:00; We 09:00-18:00; Th 09:00-20:00; Fr 09:00-18:00; Sa 09:00-16:30,,55.9559812,-3.2024020
Albion Convenience Store,newsagent,,,55.9617688,-3.1708996
The Football Programme Shop,sports,,,55.9618020,-3.1706631
The Good Old Days Vintage and Reclaimed,furniture,,,55.9618265,-3.1704720
Central Carpets,carpet,,,55.9746264,-3.1771962
Jlicious,hairdresser,,,55.9747210,-3.1781073
Sklep Mini Kubus,convenience,,,55.9746921,-3.1780773
George Pirie Modern,furniture,,,55.9749627,-3.1722138
Henderson Newsagents,newsagent,,,55.9735699,-3.1730217
short cut to the shore,hairdresser,,,55.9730525,-3.1729595
Braiding World,hairdresser,,,55.9652837,-3.1759857
Trade Cut,hairdresser,,,55.9656420,-3.1756705
Biscuit,clothes,,,55.9540830,-3.1981584
Selenita,clothes,,,55.9542169,-3.1981977
Sweet Service,convenience,,,55.9532501,-3.2068666
Ragdogg,yes,,,55.9747288,-3.1713479
Ecodry Cleaning and Laundry,laundry,Mo-Fr 08:30-18:00;Sa 09:00-15:00,,55.9655241,-3.1699487
Lorne Newsagent,newsagent,,,55.9655769,-3.1704886
Mighty Barbers and Beauty,hairdresser,,,55.9666330,-3.1745857
Window Cleaning Stuff,trade,,,55.9660955,-3.1735212
Perfect Signs,clothes,,,55.9671529,-3.1696465
Blue Tiger Tattoo,tattoo,,,55.9667052,-3.1747682
GCR Autos Ltd,car_repair,,,55.9687992,-3.1727609
Ju-Pa Hairdressing,hairdresser,,,55.9690677,-3.1682684
Leith Domestic Appliances,electronics,,,55.9689113,-3.1728306
Leith Salerooms,furniture,,,55.9689354,-3.1729070
Links Engraving,jewelry,,,55.9688435,-3.1678900
Max Yarns Embroidery,fabric,,,55.9693398,-3.1687069
McKenzie and Flynn Roofing Contractors,trade,,,55.9672951,-3.1699956
Pets and Things,pet,,,55.9689094,-3.1680013
Printing Express,computer,,,55.9701504,-3.1718335
R&A Foodstore,newsagent,,,55.9675682,-3.1707731
Ronald G Graham Building and Roofing,trade,,,55.9681777,-3.1707458
S&J Motors,car_repair,,,55.9692663,-3.1686038
S&N Grocers,greengrocer,,,55.9661128,-3.1702872
Scotmid Funeral Directors,funeral_directors,,,55.9688221,-3.1678539
Shoe Repairs and Key Cutting,locksmith,,,55.9687844,-3.1678546
Stardust Crystals and Gifts,gift,,,55.9667415,-3.1747399
The Money Shop,pawnbroker,,,55.9702026,-3.1717846
We-Pay,pawnbroker,,,55.9700100,-3.1719649
Swatch,jewelry,,,55.9516228,-3.1999574
Borlands,sports,,,55.9617154,-3.1806220
Nails & Spa,beauty,,,55.9616862,-3.1806728
Blunted Barbers,hairdresser,,,55.9556743,-3.1925318
Kennethkim Hairedresser,hairdresser,,,55.9555894,-3.1925296
Troon Designer Clothing,clothes,,,55.9556669,-3.1925739
Jack Brown eye care,optician,,,55.9557306,-3.1907433
Stringers Cellos,musical_instrument,,,55.9557990,-3.1918188
Hair by Marnie,hairdresser,,,55.9536335,-3.1903920
Apple,computer,,,55.9533274,-3.1901571
Calumet Photographic,photo,,,55.9710656,-3.1777362
Pippin,gift,Mo-We 10:30-18:00; Th 10:30-19:00; Fr 10:30-18:00; Sa 11:00-17:00; Su 11:00-16:00,,55.9460126,-3.2201782
Bagpipes Galore,musical_instrument,,,55.9460083,-3.2198885
Caroline Murray Hairdressing,hairdresser,,,55.9460103,-3.2200252
Conetta & Co,beauty,,,55.9460133,-3.2202276
Viet Nam House,art,,,55.9460114,-3.2200955
R.D. DOIG MOTOR ENGINEERS,car_repair,,,55.9760890,-3.1774345
Sandro,clothes,,,55.9551612,-3.1919278
Best-one,convenience,Mo-Su 07:00-22:00,,55.9510693,-3.2099273
Daneli's Deli,bakery,,,55.9510261,-3.2098355
LadyLux,hairdresser,,,55.9764029,-3.1709586
Salon Services,beauty,,,55.9712303,-3.1776159
Scotland Kilt Company,clothes,,,55.9712775,-3.1773834
Emma Wallace,hairdresser,,,55.9447042,-3.2507531
House of Blinds,window_blind,,,55.9446322,-3.2508107
Murrayfield Carpets & Interiors,carpet,,,55.9445778,-3.2508136
Salon La Greca,hairdresser,,,55.9448889,-3.2516512
Amplifon,hearing_aids,,,55.9288080,-3.2092789
Capability Scotland,charity,Mo-Sa 10:00-17:00; Su 12:00-17:00,,55.9288496,-3.2093031
Out of the Blue,gift,,,55.9281155,-3.2092138
Shoebox,shoes,,,55.9284330,-3.2092608
Western Union,newsagent,,,55.9769782,-3.1799430
,car_repair,,,55.8880013,-3.0807323
Cobalt Hair,hairdresser,,,55.9335898,-3.2299051
Kharma,hairdresser,,,55.9334368,-3.2296523
Pollination,florist,,,55.9334745,-3.2297146
Revive,beauty,,,55.9335536,-3.2298453
Bravado,boutique,,,55.9332752,-3.2103340
Clan House,clothes,,,55.9331161,-3.2103232
Helen Rennie Dressmaking,tailor,,,55.9324102,-3.2101814
Kids' Stop,hairdresser,,,55.9330128,-3.2103107
Kudos,yes,,,55.9324554,-3.2101974
Macgregor Hairdressing,hairdresser,,,55.9323846,-3.2101857
Mail Boxes Etc.,copyshop,,,55.9328557,-3.2102916
Nail Yard,beauty,,,55.9329657,-3.2103050
Panache,hairdresser,,,55.9329200,-3.2102886
Persian Rug Village,interior_decoration;carpet,,,55.9330567,-3.2103160
Too Good To Eat,bakery,,,55.9332103,-3.2103231
Sainsbury's Local,convenience,Mo-Su 07:00-22:00,,55.9526238,-3.1902393
Yankee Scotland,candles,,,55.9542637,-3.1883823
1-Tech,mobile_phone,,,55.9556391,-3.1885367
Argyll Cashmere,clothes,,,55.9497427,-3.1893555
Medusa,hairdresser,,,55.9456976,-3.2042872
Wonderland Models,toys,,,55.9463098,-3.2053627
Godiva Boutique,clothes,,,55.9468504,-3.1979833
unknown,gift,,,55.9469972,-3.1979842
The Edinburgh Kiltmakers - Clothing & Souvenirs,clothes,,,55.9470322,-3.1980209
Sink & Anchor,hairdresser,,,55.9467912,-3.1981479
97 Black,clothes,,,55.9468230,-3.1980596
Pure Scottish,gifts,,,55.9527011,-3.1891146
Amma Art,art,,,55.9576172,-3.1840274
Box Office,ticket,,,55.9568681,-3.1854395
DOFOS Pet Centre,pet,,,55.9576358,-3.1841204
Christopher Ross,clothes,,,55.9541866,-3.1874398
Emma Roy,clothes,,,55.9540802,-3.1875809
CitiDogs,pet,,,55.9074033,-3.2563037
Colinton Arts,art,,,55.9073683,-3.2581823
Colinton Hair Design,hairdresser,,,55.9075750,-3.2558086
Colinton Opticians,optician,,,55.9073725,-3.2583188
,florist,,,55.9073716,-3.2584020
Moodz,hairdresser,,,55.9073224,-3.2569119
Peaches Colinton,beauty,,,55.9073707,-3.2582497
,deli,,,55.9073336,-3.2568453
,convenience,,,55.9075333,-3.2559474
Dalliance,gift,,,55.9459239,-3.2026028
Edinburgh Ink - Tattoo Studio,tattoo,,,55.9459200,-3.2021221
Main Point Books,books,,,55.9459189,-3.2020308
Missionhair,hairdresser,,,55.9459228,-3.2023769
Stag Barber Co,hairdresser,,,55.9462644,-3.2015244
Loft,hairdresser,,,55.9461888,-3.2013444
Aquarius,gift,,,55.9459699,-3.2037494
,clothes,,,55.9463477,-3.2032777
Scotbet,bookmaker,,,55.9459453,-3.2038130
A&A Foodstore Newsagent,newsagent,,,55.9585607,-3.1716249
A&A Traders Shop,general,,,55.9586846,-3.1716016
Barber Me,hairdresser,,,55.9582939,-3.1716751
Chest Heart and Stroke Scotland,charity,,,55.9579750,-3.1717351
Could 9 Flowers and Gifts,gift,,,55.9583689,-3.1716610
Golden Stitch,tailor,,,55.9578436,-3.1717598
Hair by Linda,hairdresser,,,55.9584981,-3.1716367
MoviExpress,video,,,55.9582251,-3.1721394
Time Out Health and Beauty,beauty,,,55.9582297,-3.1716872
Trade Cut Studio,hairdresser,,,55.9584270,-3.1716501
Zeenat Style,clothes,,,55.9580030,-3.1717298
free SPACE,gift,,,55.9584345,-3.1720814
iTaste Vapour,e-cigarette,,,55.9582690,-3.1716798
KnotStressed Therapies Clinic,massage,,,55.9574361,-3.1831817
Barber,hairdresser,,,55.9459114,-3.2049576
Cheynes,hairdresser,,,55.9467302,-3.2055144
Jazz Tattoo,tattoo,,,55.9459166,-3.2045772
William Hill,bookmaker,,,55.9482958,-3.2060943
Carrickknowe Convenience Store,convenience,Mo-Fr 07:00-19:00; Sa 08:00-13:30,,55.9342888,-3.2767980
Carrick Knowe Licensed Grocers,convenience,,,55.9341581,-3.2766328
Ross Barbers,hairdresser,,,55.9339961,-3.2764078
Time Hair,hairdresser,,,55.9339580,-3.2763686
,vacant,,,55.9341106,-3.2765647
Gregg's,bakery,,,55.9613619,-3.1518927
Soderberg,bakery,,,55.9439508,-3.1937950
Autocar Coachworks,car_repair,,,55.9687698,-3.1643069
Burns Street Bikes,car,,,55.9686779,-3.1648765
Links Express,newsagent,,,55.9685451,-3.1662481
EH6 Hair Design,hairdresser,,,55.9691050,-3.1590362
Electrical Testing Services,electronics,,,55.9694816,-3.1594591
Lothian Racing,bookmaker,,,55.9693938,-3.1593648
Live Laugh -Love,beauty,,,55.9537485,-3.1875030
The Makeup and Beauty Studio,beauty,Mo-Fr 10:00-20:00;Sa 10:00-17:00,,55.9389043,-3.1811126
Forth Flooring,carpet,,,55.9622467,-3.1999514
Tanz,beauty,,,55.9638590,-3.2020090
The Gently Mad,books,,,55.9638931,-3.2020424
Tom Brown's Stamp Shop,yes,,,55.9375175,-3.2160944
British Heart Foundation,charity,,,55.9446157,-3.2182805
White's Auto Services,car_repair,,,55.9427536,-3.2222938
Haymarket Barber,hairdresser,,,55.9451201,-3.2177187
Mobile Care Point,mobile_phone,,,55.9450236,-3.2177825
African Markt,convenience,,,55.9451476,-3.2176986
Vallance,beauty,,,55.9451022,-3.2177319
Georgian Windows,window,,,55.9403653,-3.2249453
Vidhi,supermarket,,,55.9397294,-3.2258628
Cook,supermarket,,,55.9273622,-3.2095055
U Save,convenience,Mo-Su 07:00-22:00,,55.9274247,-3.2095220
Class,hairdresser,,,55.9022171,-3.1559585
Buddah Hair and Beauty,beauty,,,55.9685448,-3.1585799
Natisse,hairdresser,,,55.9389590,-3.2261186
Hair Workshop,hairdresser,,,55.9397827,-3.2199408
we-fix.net,computer,,,55.9398453,-3.2196997
Thistle Tyre & Auto Centres,car_repair,,,55.9634598,-3.1700643
Kami Hair,hairdresser,,,55.9443990,-3.2182342
Edinburgh Barbers,hairdresser,,,55.9440801,-3.2185757
MGM Letting,estate_agent,,,55.9427867,-3.2208759
Save the Children,charity,,,55.9446466,-3.2176463
Shoppers Spot,convenience,,,55.9427487,-3.2209414
Thai @ Haymarket,convenience,,,55.9447784,-3.2175466
Blkwrk,tattoo,,,55.9460224,-3.2208412
Deluxe,dry_cleaning,,,55.9457981,-3.2215242
Designer Cake Boutique,pastry,,,55.9460233,-3.2208997
Fleurs de Fleur,florist,,,55.9460213,-3.2207643
Golifing Lady,sports,,,55.9460073,-3.2198204
Grange,estate_agent,,,55.9460521,-3.2226109
Purdie & Co,estate_agent,,,55.9457959,-3.2213478
Signs Made,copyshop,,,55.9460060,-3.2189545
The Kilt Hire Co,clothes,,,55.9460252,-3.2210283
Zest Skin Spa,beauty,,,55.9457967,-3.2214155
Edinburgh Art Shop,art,,,55.9439620,-3.2027872
Elite,dry_cleaning,,,55.9417105,-3.2036329
Formo,hairdresser,,,55.9424280,-3.2032688
Optometrist,optician,,,55.9427324,-3.2038488
Istanbul Hair Studio,hairdresser,,,55.9432865,-3.2034123
Littlejohns,estate_agent,,,55.9441943,-3.2021920
Nail Hub,beauty,Mo-Su 10:00-18:00,,55.9422433,-3.2032130
Omega,travel_agency,,,55.9431639,-3.2034780
Oriental Supermarket,convenience,,,55.9440766,-3.2024988
Hötter than hell,tattoo,,,55.9426757,-3.2038282
Shelter,charity,,,55.9427150,-3.2033630
Sparkle,yes,,,55.9441409,-3.2023230
Black & Lizars,optician,Mo-We 09:00-18:00; Th 09:00-19:00; Fr 10:00-18:00; Sa 9:00-17:00; Su 11:00-16:00,,55.9522977,-3.2002662
Soderberg,bakery,,,55.9509802,-3.2097331
Vodafone,mobile_phone,,,55.9511835,-3.2025393
Statement,hairdresser,,,55.9428362,-3.2038911
Sweet Serve News,newsagent,,,55.9430052,-3.2034550
The Smoking Fox,yes,,,55.9423424,-3.2032443
William Hill,bookmaker,,,55.9425071,-3.2033033
XL Electrical,hardware,,,55.9430258,-3.2034619
Allan's Bakery,bakery,,,55.9653610,-3.1550289
Anwar Newsagent,newsagent,,,55.9595422,-3.1565232
Kerry's Hair and Beauty,hairdresser,,,55.9655315,-3.1551717
McGillivray's Funeral Directors,funeral_directors,,,55.9656987,-3.1553118
Raeburn Autos,car_repair,,,55.9666151,-3.1543604
Restalrig Villiage Shop,newsagent,,,55.9573848,-3.1494092
Rydale Building Ltd.,trade,,,55.9663504,-3.1565607
William Hill,bookmaker,,,55.9655824,-3.1552144
Yaan Peet Garage,car_repair,,,55.9666053,-3.1546077
Carparts,car_parts,,,55.9387398,-3.2184989
Edinburgh Diving Centre,sports,Mo-Sa 09:30-17:30,,55.9388795,-3.2186008
A.Q.Q.A. Stores,newsagent,,,55.9594605,-3.1504508
Alan's MOT Centre,car_repair,,,55.9587646,-3.1503503
EH7 Hair and Beauty,hairdresser,,,55.9564354,-3.1381575
Edinburgh Waverly Cars and Service,car,,,55.9562469,-3.1325763
I & L Fraser Butchers,butcher,,,55.9564836,-3.1381810
J. Akhtar and Sons,newsagent,,,55.9595179,-3.1500514
St Jude's Laundry,laundry,,,55.9596736,-3.1482425
Breadshare,bakery,,,55.9580703,-3.1227957
Frost Nails and Beauty,beauty,,,55.9551762,-3.1553750
Ideal Electrical Solutions,electronics,,,55.9551678,-3.1540699
JC Melrose Hairdressing,hairdresser,,,55.9549505,-3.1517279
June Carol Hair Design,hairdresser,,,55.9549593,-3.1518598
KMC Beauty,beauty,,,55.9549525,-3.1517652
Lynnette Daly Hair Design,hairdresser,,,55.9551234,-3.1535243
McLean Barbers,hairdresser,,,55.9549645,-3.1519475
Meadowbank Clinic,massage,,,55.9551613,-3.1554785
Parsons Green Mini Market,newsagent,,,55.9551428,-3.1539685
Style Flooring,hardware,,,55.9551041,-3.1533443
Tailor Made for Style,tailor,,,55.9552501,-3.1547514
The Paper Rack,newsagent,,,55.9552382,-3.1544826
Wicked Hair and Beauty,hairdresser,,,55.9549422,-3.1510258
Willowbrae Service Centre,electronics,,,55.9552512,-3.1548244
Premier Newsagent Shaukat Convenience,newsagent,,,55.9548766,-3.1501081
A One Alterations,tailor,,,55.9549137,-3.1504509
Stir Crazy Fancy Dress,clothes,,,55.9549038,-3.1503298
Dunedin Chiropody and Reflexology,massage,,,55.9549310,-3.1482495
Ladbrokes,bookmaker,,,55.9549435,-3.1471975
Missy Cut and Master Cut,hairdresser,,,55.9544028,-3.1486935
Paws Perfect,pet,,,55.9547155,-3.1491776
Caroline Cleland,beauty,"Tu 09:00-21:00; We,Fr 09:00-18:00; Th 09:00-19:00; Sa 09:00-14:30",,55.9240955,-3.2103345
Blackbird Studios,craft,,,55.9241233,-3.2103155
Edward & Irwyn,confectionery,,,55.9241432,-3.2108465
Julie's,hairdresser,,,55.9241523,-3.2102957
Level Up,hairdresser,"Tu,Fr 09:30-17:00; We,Sa 09:30-16:00; Th 10:00-20:00",,55.9241894,-3.2105385
Muirs Hair Salon,hairdresser,,,55.9241909,-3.2103794
Moi Nail & Eyebrow Bar,beauty,"Mo-Fr 09:00-18:00; We,Th 09:00-21:00; Sa 09:00-17:00",,55.9244162,-3.2104761
Capital Glazing,glaziery,,,55.9350675,-3.2254576
Fulton,car_repair,,,55.9348419,-3.2250362
Refinishing Services,car_repair,,,55.9349706,-3.2252766
Machine Mart,hardware,,,55.9556180,-3.1416945
William Purves Funeral Directors,funeral_directors,,,55.9599259,-3.1385127
Fresh Choice,convenience,,,55.9397211,-3.1803029
The Meadows Pottery,pottery,,,55.9391402,-3.1818108
Aihua Chinese Supermarket,convenience,,,55.9438941,-3.1841132
,music,,,55.9438913,-3.1839560
Starlight Chinese Supermarket,convenience,,,55.9423263,-3.1825547
WT Dunbar & Sons Funeral Directors,funeral_directors,Mo-Th 08:45-17:00;Fr 09:00-16:00,,55.9290384,-3.2097387
William Hill,bookmaker,Mo-Sa 09:00-22:00;Su 10:00-18:30,,55.9287646,-3.2097170
Angel,hairdresser,,,55.9350166,-3.2312209
Just Alans,hairdresser,,,55.9349569,-3.2313447
Sash and Case,glaziery,"Mo-Th 09:00-16:30, Fr 09:00-15:30",,55.9344638,-3.2318848
Real McCoy Barber,hairdresser,,,55.9372337,-3.2342184
James Aird,furniture,,,55.9333220,-3.2299590
The Art Stop,art,,,55.9445960,-3.1850571
Dandelion,clothes,,,55.9412304,-3.2036977
Monkey Temple,clothes,Mo-Sa 10:00-18:00,,55.9414232,-3.2032610
Tom H.G. Stewart,estate_agent,,,55.9398036,-3.2042033
Totty Rocks,clothes,,,55.9397500,-3.2042506
e-senses,e-cigarette,,,55.9395825,-3.2039645
Harlie's,electronics,,,55.9593245,-3.1827748
Capital Lettings,estate_agent,,,55.9413464,-3.2036865
Kings Barbers,hairdresser,,,55.9412978,-3.2036912
Silver Joolz,jewelry,,,55.9411893,-3.2037013
Klaklak,photography,,,55.9324981,-3.2285884
James Allan MOT Centre,car_repair,,,55.9583568,-3.1806926
Macdonald Armouries,weapons,,,55.9586345,-3.1790632
Valvona & Crolla Kitchen,bakery,,,55.9588768,-3.1791133
Johnson Cleaners,dry_cleaning,,,55.8824460,-3.1643003
Thomas Cook,travel_agency,,,55.8825423,-3.1644397
Greggs,bakery,,,55.9589264,-3.1830818
Mark 1 Motorcycles,motorcycle,,,55.9583486,-3.1830279
McColls,convenience,,,55.9429698,-3.2899305
Semichem,chemist,,,55.9427944,-3.2844522
Vision Express,optician,,,55.9427556,-3.2833781
,vacant,,,55.8963413,-3.0492485
,vacant,,,55.8964055,-3.0492078
,vacant,,,55.8964783,-3.0491593
,vacant,,,55.8965545,-3.0491166
Dean Jones Hair,hairdresser,,,55.9581776,-3.1837982
Johnsons The Cleaners,dry_cleaning,,,55.9585518,-3.1834402
Key Player,musical_instrument,,,55.9586256,-3.1833696
Ladbrokes,bookmaker,,,55.9582330,-3.1837452
Simply Exquisite Bridal Shop,clothes,,,55.9586895,-3.1833084
Vinyl Villains,music,,,55.9582805,-3.1836997
William Hill,bookmaker,,,55.9587851,-3.1832169
Clancys,estate_agent,,,55.9454223,-3.2341744
Scotbet,bookmaker,,,55.9454029,-3.2340651
U Beauty Therapy,beauty,,,55.9455410,-3.2348994
DianWard,hairdresser,,,55.9324629,-3.2285421
Urban Angel,hairdresser,,,55.9390795,-3.1822006
Eskbank Trading,convenience,,,55.8886399,-3.0823143
Back to Balance,herbalist,,,55.9568045,-3.1712090
Cameron's Antiques,antiques,,,55.9564319,-3.1718507
ETC Locks,locksmith,,,55.9564558,-3.1718121
Escape,hairdresser,,,55.9566100,-3.1715854
Janatha Food Store,convenience,,,55.9567587,-3.1712895
John McMenamin Ltd,trade,,,55.9568399,-3.1710797
Joiner,trade,,,55.9564785,-3.1717724
Property Repair,trade,,,55.9569124,-3.1708410
Salon 328,hairdresser,,,55.9567206,-3.1713938
The Flower Pot,florist,,,55.9565668,-3.1716535
Top Nails,beauty,,,55.9567098,-3.1714192
A Bathgate Joiners,trade,,,55.9571353,-3.1710943
Abbeyglass Window Repairs,glaziery,,,55.9570890,-3.1700716
Abbeyhill Garage,car_repair,,,55.9569554,-3.1685331
Abbeyhill Saleroom,electronics,,,55.9571721,-3.1684878
Absolute Indigo,massage,,,55.9572110,-3.1707903
Amber Arts,art,,,55.9571219,-3.1697916
Armchair Theatre Video Services,video,,,55.9571824,-3.1687531
Asylum Tattoo Parlour,tattoo,,,55.9571520,-3.1679707
Field and Stream Ltd. Antiques,antiques,,,55.9573200,-3.1700773
Flowers by Maxwell,florist,,,55.9570817,-3.1701520
Gent's Haircut,hairdresser,,,55.9571482,-3.1678728
Health for Life,massage,,,55.9570118,-3.1705282
Houseproud Upholsterers,furniture,,,55.9570568,-3.1702999
JP Camera Repair Co.,electronics,,,55.9570729,-3.1701965
JR Drever,jewelry,,,55.9570994,-3.1700141
KB Stores,newsagent,,,55.9571562,-3.1680789
Scott Parker Studio,photo,,,55.9571847,-3.1688131
Twyford Bathroom Showroom,bathroom_furnishing,,,55.9572544,-3.1705866
Abbeyhill Electrical Services,electronics,,,55.9573752,-3.1706822
Beauty Works Scotland,hairdresser,,,55.9573841,-3.1707837
Best Little Hair House,hairdresser,,,55.9574217,-3.1712120
CableCom Group,electronics,,,55.9555855,-3.1701390
Changes,hairdresser,,,55.9574432,-3.1714567
Edinburgh Dry Cleaners,dry_cleaning,,,55.9574326,-3.1713356
Feel Beauty,beauty,,,55.9574512,-3.1715478
Precision Hairdressing,hairdresser,,,55.9573416,-3.1702991
Rock'n'Roll Tattoos,tattoo,,,55.9573940,-3.1708964
Sports Portraits,photo,,,55.9574842,-3.1719227
Ya African Salon,hairdresser,,,55.9573696,-3.1706185
Greenend Motors,car_repair,,,55.9563298,-3.1629430
Ashley Ann Kitchen and Bedroom,interior_decoration,,,55.9557230,-3.1588281
Boots Opticians,optician,,,55.9557680,-3.1593656
Stonecraft,interior_decoration,,,55.9560618,-3.1614525
Global Fruits & Vegetables,greengrocer,,,55.9408023,-3.2037855
Snowvolution Ltd,sports,,,55.9448759,-3.2517838
Bees 2 Honey,convenience,,,55.9513857,-3.2047777
Save the Children,charity,,,55.9555631,-3.1889316
Vaporized,e-cigarette,,,55.9496660,-3.2097033
Carphone Warehouse,mobile_phone,,,55.9564337,-3.1609034
Hibernian FC Club Store,sports,,,55.9625039,-3.1660484
Hibernian FC Ticket Office,sports,,,55.9620137,-3.1667031
Hair By Lynda Miller,hairdresser,,,55.9745218,-3.1853521
Day Today express,convenience,,,55.9113933,-3.2228147
Naturalaser,beauty,,,55.9771899,-3.1973697
Bryton Travel,travel_agency,,,55.9377314,-3.2165867
DJK Lettings,estate_agent,,,55.9390294,-3.2199323
Hair Lounge,hairdresser,,,55.9376880,-3.2169661
Home at Six,interior_decoration,,,55.9376921,-3.2166768
Premier,convenience,,,55.9390838,-3.2199719
Glamour,beauty,,,55.9398390,-3.2115237
Cancer Research,charity,,,55.9424014,-3.2037911
Ladbrokes,bookmaker,,,55.9424877,-3.2037768
Bensons,bed,,,55.9362012,-3.2414770
Kleofas,convenience,,,55.9367201,-3.2390018
Poundstretcher,variety_store,,,55.9369193,-3.2359580
20:20 Opticians,optician,,,55.9366414,-3.2395820
Building Centre,hardware,,,55.9319275,-3.2496928
First News,newsagent,,,55.9314726,-3.2519794
HSS Hire,hardware,,,55.9320810,-3.2491918
McDowell,florist,,,55.9313365,-3.2523945
The Paint Shed,paint,,,55.9271200,-3.2447896
Ade Blessing Salon,hairdresser,,,55.9448675,-3.2174791
BMG Office Equipment,stationery,,,55.9426840,-3.2210587
Bazyliszek,deli,,,55.9424570,-3.2214498
British Heart Foundation,charity,,,55.9435521,-3.2199780
Cairney,hardware,,,55.9451500,-3.2180286
De Africa,yes,,,55.9424816,-3.2214094
Dr Vapor,e-cigarette,,,55.9443349,-3.2182632
First Class,yes,,,55.9426579,-3.2211105
Home Ware,hardware,,,55.9449332,-3.2178328
Jubilant Mart,convenience,,,55.9424127,-3.2215364
Myles,hairdresser,,,55.9442454,-3.2183400
Orchid,beauty,,,55.9422094,-3.2218371
Paradise,yes,,,55.9426364,-3.2211499
Passion Hut,convenience,,,55.9442786,-3.2183089
Taste of Europe,convenience,,,55.9435185,-3.2200783
Repair Centre,computer;mobile_phone,,,55.9422390,-3.2217902
The Jewellers,jewelry,,,55.9447944,-3.2179355
The No 1 Bead Shop,fabric,,,55.9447607,-3.2179562
floxzee,hairdresser,,,55.9423680,-3.2215995
The Edinburgh Piano Company,musical_instrument,,,55.9495565,-3.1003694
Graham Fraser,hairdresser,Mo-We 9:30-17:30;Th 9:30-18:00;Fr 9:30-17:30;Sa 9:00-16:00,,55.9270264,-3.2098732
Solution,hairdresser,,,55.9270344,-3.2097251
Intelligent Hair Growth,beauty,,,55.9320421,-3.2093126
Hua Xing Chinese Supermarket,supermarket,,,55.9337495,-3.1784017
Hua Xing Fruit and Veg Supermarket,greengrocer,,,55.9336951,-3.1783598
Brakesafe Garage,car_repair,,,55.9319190,-3.1778690
Chinese Laundry Co.,laundry,,,55.9338831,-3.1792036
Gilhooley Plumbing and Heating,trade,,,55.9338934,-3.1791716
Michael Paxton Lighting,interior_decoration,,,55.9338471,-3.1793157
The Grange Dry Cleaners,dry_cleaning,,,55.9338630,-3.1792662
Anteaques,antiques,,,55.9424439,-3.1826762
Gillespie Convenience Store,convenience,,,55.9408153,-3.2037763
Bethany,charity,Mo-Sa 09:30-17:00; Tu 10:00-17:00,,55.9303242,-3.2095575
British Red Cross,charity,,,55.9301710,-3.2095367
Cancer Research UK,charity,,,55.9304867,-3.2095939
Goodfellow & Steven,bakery,,,55.9277224,-3.2095761
Growler Beers,alcohol,"Mo-Tu 12:00-21:00, We 12:00-22:00, Th-Sa 10:00-22:00, Su 12:00-20:00",,55.9278510,-3.2091751
Morningside Mini Mart,convenience,,,55.9325276,-3.2102270
Vision Express,optician,,,55.9295307,-3.2094249
Wilkies,clothes,,,55.9305508,-3.2096039
age scotland,charity,,,55.9295891,-3.2094299
Bayne's,bakery,,,55.9530706,-3.1144267
Findlay's,butcher,,,55.9537968,-3.1155775
London Road Mini-market,convenience,,,55.9577193,-3.1718560
Top Hat,clothes,,,55.9517355,-3.1098552
Farmer Autocare,car_repair,,,55.9344118,-3.1945240
Best-One,convenience,,,55.9692433,-3.1840840
Amor - Hairdresser/Fryzjer,hairdresser,,,55.9692032,-3.1842294
Auto Windscreens,car_repair,,,55.9298069,-3.2976579
Breadwinner Bakery,bakery,,,55.9295883,-3.2975758
ECS Express,car_repair,,,55.9292701,-3.2974562
GSM Gyle,car_repair,,,55.9293442,-3.2965237
Halfords Autocentre,car_repair,,,55.9299107,-3.2976969
Parts Center,car_parts,,,55.9291553,-3.2974130
The Wheel Specialist,car_repair,,,55.9294756,-3.2975334
Aga Edinburgh,kitchen,,,55.9514912,-3.2120628
Boyd Property,estate_agent,,,55.9509847,-3.2104652
J. Sives Surfacing Ltd.,trade,,,55.9278180,-3.1829744
Edinburgh Harley Davidson,motorcycle,,,55.9247810,-3.1773325
Dog Aid Society of Scotland,pet,,,55.9262856,-3.1859176
Blackford Motor Engineers,car_repair,,,55.9268661,-3.1891903
,newsagent,,,55.9521698,-3.1365631
Best One,convenience,,,55.9302264,-3.2676609
Novella,beauty,,,55.9425626,-3.2948942
Earthy,greengrocer,,,55.9513297,-3.1130446
,newsagent,,,55.9521841,-3.1125140
F-Tailor Design,tailor,,,55.9621216,-3.1964164
Hershaws,hairdresser,,,55.9621434,-3.1964735
Joyce's Cake Shop,confectionery,,,55.9622293,-3.1966995
William Hill,bookmaker,,,55.9622979,-3.1968797
Go Outdoors,outdoor,,,55.9827821,-3.2261927
Poundstretcher Extra,variety_store,,,55.9832517,-3.2260143
Larry's Barber Shop,hairdresser,,no,55.9590155,-3.1828096
P Campbell,butcher,,,55.9227407,-3.2868053
Sighthill General Store,convenience,,,55.9224072,-3.2867837
,kiosk,,,55.9508813,-3.1916235
Parkhead Bakers,bakery,,,55.9240121,-3.2767704
Alana's Hair & Beauty,hairdresser,,,55.9359999,-3.2792498
Buzz,hairdresser,,,55.9361687,-3.2787281
Dianward,hairdresser,,,55.9363882,-3.2788186
Footcare,chiropodist,,,55.9361813,-3.2793567
Ladbrokes,bookmaker,,,55.9365038,-3.2788804
MHI,newsagent,,,55.9360780,-3.2792958
William Hill,bookmaker,,,55.9363333,-3.2787824
Ali's Cave,variety_store,,,55.9453782,-3.2050231
William Hill,bookmaker,,,55.9451624,-3.2049511
Football Nation,sports,,,55.9453974,-3.2056763
National Tyres and Autocare,car_repair,,,55.9437298,-3.1174817
Omni Furnishing,furniture,,,55.9436521,-3.1181338
Holster,furniture,,,55.9619980,-3.1696966
Arnold Clark Fiat,car,,,55.9685722,-3.1434457
Arnold Clark Motorstore,car,,,55.9618361,-3.1280957
Arnold Clark Renault/Dacia,car,,,55.9627644,-3.1274470
Arnold Clark Skoda,car,,,55.9607870,-3.1253192
Citroen Edinburgh,car,,,55.9603097,-3.1245735
Direct Flooring,trade,,,55.9653651,-3.1325226
Economy Drive Cars,car,,,55.9598493,-3.1256101
HSS Hire,equipment_hire,,,55.9645906,-3.1319702
Halfords,car_parts,,,55.9649690,-3.1321686
Hilti,equipment_hire,,,55.9652672,-3.1323709
Hyundai,car,,,55.9622404,-3.1272530
Kia Motors,car,,,55.9687070,-3.1438403
MS Saleem,newsagent,,,55.9579000,-3.1225946
MS Supplies,trade,,,55.9656813,-3.1330122
Peter Vardy BMW,car,,,55.9595237,-3.1236270
Peter Vardy Mini,car,,,55.9604670,-3.1233262
Peter Vardy Vauxhall,car,,,55.9631650,-3.1279552
Peter Vardy,car,,,55.9637153,-3.1286106
Peugeot,car,,,55.9610285,-3.1256536
Rembrand,trade,,,55.9644140,-3.1318775
Thistle Autos,car_repair,,,55.9593298,-3.1249681
Tool Station,hardware,,,55.9647845,-3.1320719
Topps Tiles,hardware,,,55.9655019,-3.1327343
Waggy Tails,pet,,,55.9693030,-3.1446061
Capital Autos,car_repair,,,55.9331588,-3.2352076
W.D. JOHNSTONE,convenience,Mo-Su 08:00-20:00,,55.9775857,-3.1988278
Toccata Hair & Beauty,hairdresser,Tu-We 10:00-17:00;Th 10:00-21:00; Fr 10:00-19:00; Sa 09:00-14:00,,55.9775512,-3.1977499
Trinity Garage,car_repair,,,55.9796074,-3.2076746
Yuu Beauty,beauty,,,55.9769190,-3.1972663
Diana Alteration,tailor,,,55.9208194,-3.2121972
Morningside School of Music,music,,,55.9208613,-3.2121735
One36 computing,computer,,,55.9209027,-3.2121502
Ten Hair & Beauty,hairdresser,,,55.9241077,-3.2363926
Charlies Barbers,hairdresser,,,55.9224124,-3.2496996
Designer Bridal,boutique,,,55.9370086,-3.2366871
Sugardaddy's,bakery,,,55.9622681,-3.1967802
Hog's Head Music,music,,,55.9399243,-3.1804596
,vacant,,,55.9488137,-3.1870914
Invereleith House,art,As per garden,,55.9650111,-3.2101384
Nordic,clothes,,,55.9803301,-3.2227788
Maid of the Forth,gift,,,55.9905855,-3.3854130
Citroen Service MOT Centre,car_repair,,,55.9651455,-3.1774714
The Corner Store,newsagent,,,55.9646456,-3.1814849
Iain Cameron Motor Engineer,car_repair,,,55.9647482,-3.1783756
Rhubaba,art,,,55.9649896,-3.1777782
Wilkinson Tool and Machinery Centre,trade,,,55.9648525,-3.1780168
Bayne's,bakery,,,55.9672435,-3.2457527
Day Today,convenience,,,55.9670006,-3.2440905
Farmfoods,supermarket,,,55.9673627,-3.2446356
McColl's,convenience,,,55.9672685,-3.2455189
Top Cellar,alcohol,,,55.9672301,-3.2458786
Co-operative Food,convenience,Mo-Su 07:00-22:00,,55.9458272,-3.2086099
L'Amour,gift,"Mo-Fr 08:00-18:00, Sa 10:00-17:00",,55.9456677,-3.2096367
Le Me,dry_cleaning,,,55.9460199,-3.2127431
Paterson SA,hairdresser,,,55.9455935,-3.2050700
Welby & Wright,tiles,,,55.9456392,-3.2093870
Apple,hairdresser,,,55.9779501,-3.1804290
Bee & Q,hardware,,,55.9789429,-3.1844487
Best One,convenience,,,55.9780636,-3.1806794
Image Printers,copyshop,,,55.9789429,-3.1842912
Reinkarnation,computer,,,55.9779821,-3.1804782
The Geology Shop,map;gift,Mo-Fr 09:00-12:30; Mo-Fr 13:30-17:00,,55.9244073,-3.1793360
Kodak Express,photo,,,55.9400607,-3.1805793
LIDL,supermarket,Mo-Sa 08:00-21:00; Su 08:00-20:00,,55.9152198,-3.2842269
Stokrotka,convenience,,,55.9141275,-3.2854540
Best One,convenience,,,55.9118983,-3.2765725
Buyrite Bathrooms,bathroom,,,55.9315556,-3.2546815
Fire Group,fireplace,,,55.9296077,-3.2552875
Saughton Mill Carpets,carpet,,,55.9285603,-3.2560917
Italian Style,tailor,,,55.9412324,-3.2032823
The Life Room Studio Gallery,art,,,55.9570925,-3.1989078
The Photography Gallery,art,,,55.9570714,-3.1989025
New Town Therapy,massage,,,55.9574108,-3.1990728
Epitome,clothes,,,55.9575226,-3.1991170
Bryce McKenzie Decoration,furniture,,,55.9575009,-3.1991076
Colours Gallery,art,,,55.9576578,-3.1991895
Archipelago Artisan Bakery,bakery,,,55.9576090,-3.1991586
Keen Cost newsagent and grocer,convenience,,,55.9580429,-3.1994188
Arusha Gallery,yes,,,55.9565414,-3.1985833
Gallery Seventeen,art,,,55.9566457,-3.1986369
Rachel Scott Accessories,boutique,,,55.9575710,-3.1997256
Sharps,furniture,Mo-Sa 09:30-17:30; Su 11:00-17:00,,55.9324293,-3.2098178
Time & Tide,furniture,,,55.9322477,-3.2094671
James Erskine,furniture,,,55.9320268,-3.2095576
786,greengrocer,,,55.9425087,-3.2014531
Marie Curie,charity,,,55.9529733,-3.1142848
Edinburgh Bicycle Co-operative,bicycle,,,55.9621790,-3.1959259
Harlequin Hair Studio,hairdresser,,,55.9094671,-3.2331645
Fabric Focus,fabric,,,55.9651000,-3.1901531
SimplyFixIt,computer,,,55.9425008,-3.2953228
Medusa,hairdresser,,,55.9474602,-3.1951142
Thorntons,confectionery,,,55.9520702,-3.1995149
The Shore Barbers,hairdresser,,,55.9760852,-3.1693652
KMK,hairdresser,,,55.9789191,-3.1869419
Rodney Street Barbers,hairdresser,,,55.9619692,-3.1953879
Bob's Fish,seafood,,,55.9620189,-3.1955398
Loulabelle's Beauty,beauty,,,55.9619812,-3.1954252
M&A Store,convenience,,,55.9619215,-3.1918607
Snow Sport Services,sports,,,55.9619090,-3.1951987
Bagel Factory,kiosk,,,55.9520651,-3.1892117
Millie's Cookies,kiosk,,,55.9519756,-3.1891705
Nero Express,kiosk,,,55.9519322,-3.1891463
Craigdon Mountain Sports,outdoor,Mo-Su 09:00-18:00; Th-Fr 09:00-20:00,,55.8972135,-3.2041794
Avalanche Records,music,,,55.9501971,-3.1840761
Aydin's,hairdresser,,,55.9429335,-3.2863223
Blondie Kerr,hairdresser,,,55.9429303,-3.2862590
Cancer Research,charity,,,55.9427744,-3.2836734
Capability Scotland,charity,,,55.9429614,-3.2867691
D&S McLean,newsagent,,,55.9404901,-3.2836571
Edinburgh Hearing Practice,hearing_aids,,,55.9429271,-3.2861957
Laurence Granger,hairdresser,,,55.9430180,-3.2894745
Marie Curie,charity,,,55.9424387,-3.2804990
Nikki's Fleurs,florist,,,55.9427510,-3.2833050
Sher,hairdresser,,,55.9429247,-3.2807953
The Bethany Shop,charity,,,55.9429024,-3.2822183
WT Dunbar & Sons,funeral_directors,,,55.9430099,-3.2896518
White Hollow,beauty,,,55.9423930,-3.2800896
guitar guitar,musical_instrument,,,55.9428269,-3.2907254
,gift,,,55.9430254,-3.2894203
thebeautyworks,beauty,,,55.9427805,-3.2837698
A Touch of Silk,hairdresser,,,55.9379664,-3.2311786
Autology,car_repair,,,55.9357457,-3.2429063
Better Bathrooms,bathroom,,,55.9351458,-3.2436762
Beut,hairdresser,,,55.9381007,-3.2308472
Chinese Mini Market,convenience,,,55.9371640,-3.2358915
Continental Food,convenience,,,55.9365361,-3.2403556
Fireside,fireplace,,,55.9371049,-3.2361774
Gorgie Laundrette,laundry,,,55.9381288,-3.2307470
Hospices of Hope,charity,,,55.9372246,-3.2355468
,newsagent,,,55.9388761,-3.2287720
Laundrette & Dry Cleaners,laundry,,,55.9377789,-3.2332329
McRae of Gorgie,frame,"Mo-Tu 10:00-17:00, We 10:00-13:00, Th-Fr 10:00-17:00, Sa 10:00-13:00",,55.9379418,-3.2312476
Plumb Centre,hardware,,,55.9355099,-3.2426706
Raman Halal,convenience,,,55.9368878,-3.2361481
Salvation Army,charity,,,55.9373234,-3.2351414
Your Move,estate_agent,,,55.9372814,-3.2342680
20 20 opticians,optician,,,55.9378912,-3.2314451
McGills,hairdresser,,,55.9434314,-3.2033470
electron wheels,bicycle,,,55.9438392,-3.2029702
Tesco Express,convenience,,,55.8705497,-3.1127145
HPN News Agency,newsagent,,,55.9654963,-3.1631466
Lochend Premier Convenience Store,convenience,,,55.9615343,-3.1583105
Lochend Store,convenience,,,55.9616627,-3.1583845
Medusa,hairdresser,,,55.9457116,-3.1899044
Mov8,estate_agent,,,55.9374050,-3.1782348
Newington Metro,convenience,,,55.9376445,-3.1785050
Signarama,copyshop,,,55.9379369,-3.1787758
Signature,hairdresser,,,55.9433108,-3.1780983
Zen LIfestyle,beauty,,,55.9457875,-3.1897537
Crows Family Bakery,bakery,,,55.9284400,-3.2792074
,convenience,,,55.9283108,-3.2792074
Jonas,convenience,,,55.9394443,-3.1800816
Bonk and Co.,interior_decoration,,,55.9562630,-3.1673069
Ecko Living Solutions,furniture,,,55.9559961,-3.1673055
Ross Electrical/Parker Merchanting,trade,,,55.9563045,-3.1665652
sofa.com,furniture,Mo-Sa 10:00-18:00; Su 11:00-17:00,,55.9368795,-3.1940924
Crystal Chandelier Company,lamps,,,55.9577068,-3.2066953
Elite Nails,beauty,,,55.9579390,-3.2062404
Golden Hare,books,,,55.9579121,-3.2063031
Lillies & Dreams,boutique,,,55.9575585,-3.2069686
Reflect,art,,,55.9576033,-3.2073868
Vox Box,music,,,55.9576867,-3.2072250
Cash Converters,electronics,,,55.9635307,-3.1783918
Clash Hair and Beauty,hairdresser,,,55.9724974,-3.1753150
Crystal Bows Bridal,clothes,,,55.9726536,-3.1755494
Culture Lounge,hairdresser,,,55.9724749,-3.1752694
Estate Hair Salon,hairdresser,,,55.9725791,-3.1754434
Griffen Fitness,sports,,,55.9656998,-3.1764080
In Style,clothes,,,55.9716259,-3.1739729
The Puppet Lab,yes,,,55.9716565,-3.1740323
Leith Walk Barbers Salon,hairdresser,,,55.9655529,-3.1764142
McKenzie and Millar Funeral Directors,funeral_directors,,,55.9717640,-3.1741545
Sound and Vision,electronics,,,55.9654918,-3.1764670
Vaporized,e-cigarette,,,55.9630848,-3.1788818
Garvald - The Mulberry Bush,gift,Mo-Sa 09:30-17:00,,55.9306805,-3.2096358
Haggart Plumbing Limited,charity,,,55.9304399,-3.2095889
Hampton's,hairdresser,Mo 09:00-16:00; Tu 09:00-18:00; Th 09:00-19:30; Fr 09:00-18:00; Sa 09:00-16:30,,55.9306092,-3.2096227
Keith Elgin Motor Engineers,car_repair,,,55.9278990,-3.2058622
Remnant Kings,fabric,,,55.9306508,-3.2096303
A & M Licensed Grocers,newsagent,,,55.9665627,-3.1775474
Canderson's Sweet Shop,confectionery,,,55.9689277,-3.1735266
Carpet Bargain Store,hardware,,,55.9688940,-3.1735510
Rikki's Music Store,music,,,55.9689605,-3.1734879
The Bed Shop,furniture,,,55.9686768,-3.1737516
Amoura Nails and Beauty,beauty,,,55.9713514,-3.1735242
Anderson The Butchers,butcher,,,55.9712083,-3.1733004
Beatrice McShee Hairdresser,hairdresser,,,55.9713599,-3.1736400
British Heart Foundation,charity,,,55.9708627,-3.1727703
Cancer Research UK,charity,,,55.9706806,-3.1724736
Cash Generator,pawnbroker,,,55.9715263,-3.1737740
Junction Food Store,convenience,,,55.9709454,-3.1728796
Just Sew,tailor,,,55.9715929,-3.1739126
Ladbrokes,bookmaker,,,55.9710787,-3.1730723
Leith Barbers,hairdresser,,,55.9705186,-3.1721807
Nazar Deli,deli,,,55.9705469,-3.1722422
Piemaker,bakery,,,55.9713179,-3.1734837
Scissors,hairdresser,,,55.9709703,-3.1729140
Timpsons,craft,,,55.9712491,-3.1733785
Warsaw Polish Shop,convenience,,,55.9711306,-3.1731897
William Hill,bookmaker,,,55.9705809,-3.1722999
Jessops Photo Store,photo,,,55.9372554,-3.2393734
Johnsons,dry_cleaning,,,55.9373178,-3.2394814
Scotbet,bookmaker,,,55.9187660,-3.1386958
Accha Oriental Food Company,supermarket,,,55.9462597,-3.2127694
Bobbie's Bookshop,books,,,55.9462677,-3.2133857
Diamond Barbers,hairdresser,,,55.9462821,-3.2135354
McLaren Ross Hair Studios,hairdresser,,,55.9462672,-3.2132934
Picture Perfect,beauty,,,55.9462593,-3.2129854
Retro,furniture,,,55.9462580,-3.2124667
Secret Beauty Garden,beauty,,,55.9459962,-3.2114915
Special Scotch Whisky,alcohol,,,55.9462688,-3.2134861
TR News,newsagent,,,55.9462567,-3.2123984
Escape Skin Care,beauty,,,55.9458385,-3.2126732
Little Star Gems,gift,,,55.9457266,-3.2125989
One Spa,beauty,,,55.9467797,-3.2085258
Hot Shave Barbers,hairdresser,,,55.9440701,-3.2044559
Indigo Sun,beauty,,,55.9452783,-3.2056302
Pure Nail amd Beauty,beauty,,,55.9451540,-3.2056036
Rocco Hairdressers,hairdresser,,,55.9444059,-3.2057819
Salvation Army,charity,,,55.9444223,-3.2049390
Scotmid Funeral Directors,funeral_directors,,,55.9438565,-3.2073527
Lotus Hair,hairdresser,"Tu 10:00-17:00, We 10:00-18:00, Th 10:00-20:00, Fr 10:00-18:00, Sa 10:00-17:00",,55.9458454,-3.2105172
Hex Electronics,computer,,,55.9434602,-3.2039413
New York Nails,beauty,,,55.9433993,-3.2039453
Newstime,newsagent,,,55.9438555,-3.2067891
Printing.com,copyshop,,,55.9435773,-3.2039540
WT Dunbar Funeral Directors,funeral_directors,,,55.9459957,-3.2058774
W. G. Muirhead,seafood,,,55.9805559,-3.1950410
Bains Bicycles,bicycle,,,55.9802617,-3.1951451
Scribe Tattoo,tattoo,,,55.9471479,-3.2143727
Sainsbury's Local,supermarket,Mo-Su 07:00-23:00,,55.9627397,-3.1793813
Barclays Funeral Directors,funeral_directors,,,55.9728637,-3.1759225
European East Store,convenience,,,55.9734640,-3.1762524
AI Pets,pet,,,55.9731413,-3.1763356
Pet Home,pet,,,55.9731849,-3.1764107
,convenience,,,55.9732449,-3.1764992
Emporium Vapour,e-cigarette,,,55.9733875,-3.1767325
MaDeb African Shop,convenience,,,55.9734715,-3.1768519
Super 5*,boutique,,,55.9734415,-3.1768049
Hair House,hairdresser,,,55.9735271,-3.1769216
Daisy Barber Shop,hairdresser,,,55.9735466,-3.1769525
Flower Fantasy,florist,,,55.9418745,-3.2049939
Mr and Mrs Doom,tattoo,,,55.9419685,-3.2043689
Artis,interior_decoration,,,55.9422498,-3.2037527
Gallery Beadshop,art,,,55.9426384,-3.2043712
Hoochie Coochie,clothes,,,55.9424385,-3.2038005
The Wax Bar,beauty,,,55.9429377,-3.2086367
Claremont Electric Motor Repairs,electronics,,,55.9696040,-3.1762097
Edinburgh Bathroom Company,interior_decoration,,,55.9690892,-3.1828394
Forth Furnishings Ltd,furniture,,,55.9701051,-3.1749086
Harrison Motors,car_repair,,,55.9711240,-3.1752726
Leith Framing Studio,frame,,,55.9697798,-3.1765608
Leith Pram Centre,yes,,,55.9709237,-3.1755237
Patisserie Joldo,bakery,,,55.9705393,-3.1750105
Print Solution Bookbinding by Crawford,copyshop,,,55.9702450,-3.1745733
Shortbread House of Edinburgh,bakery,,,55.9702913,-3.1759723
Spectacles Direct,optician,,,55.9692921,-3.1830602
Yesss Electrical,electronics,,,55.9700521,-3.1763175
Tanz,beauty,,,55.9549108,-3.1447051
Coral,bookmaker,,,55.9056203,-3.2222340
L. S. Hair,hairdresser,,,55.9056322,-3.2221110
Edinburgh Patchwork,fabric,,,55.9615987,-3.1907018
Mandala Flow,yes,,,55.9622990,-3.1961117
Nice Stuff,gift,,,55.9584203,-3.1900908
Farmer Autocare,car_repair,,,55.9432412,-3.0653278
Magnet,furniture,,,55.9430028,-3.0643621
Brotique,gift,,,55.9542027,-3.2014638
Extravaganza,hairdresser,,,55.9433684,-3.2195018
Glencore Mobility,yes,,,55.9434403,-3.2202973
Mind & Body Thai Spa,massage,,,55.9462609,-3.2145066
O2,mobile_phone,,,55.9532308,-3.1905789
Ryman,stationery,,,55.9491633,-3.2100515
Skechers,shoes,,,55.9521682,-3.1968462
TfE Travelshop,travel_agency,,,55.9460021,-3.2185527
Hing Sing,convenience,,,55.9650499,-3.1768651
Mov8,estate_agent,,,55.9659201,-3.1760960
Pilrig Motors,car_parts,,,55.9646791,-3.1771859
Polypak Continental,convenience,,,55.9645264,-3.1773283
Romeo,hairdresser,,,55.9659470,-3.1760720
Dolls House,hairdresser,,,55.9325224,-3.2361538
McGills Bakeries,bakery,,,55.9330324,-3.2353865
Stenhouse Motor Engineers,car_repair,,,55.9277351,-3.2418038
Coulters,estate_agent,,,55.9381205,-3.1945310
Save The Date,cake,,,55.9363231,-3.1940113
Remade in Edinburgh,doityourself,,,55.9482491,-3.1880666
A&R Coachworks,car_repair,,,55.9722852,-3.1856997
Newhaven Licensed Grocer,convenience,,,55.9727096,-3.1876826
Pout,beauty,,,55.9728057,-3.1877792
Bonita Beauty,beauty,,,55.9742322,-3.1873370
Lomi Lomi Massage,massage,,,55.9742472,-3.1872297
One Barbers,hairdresser,,,55.9742637,-3.1871117
Domestic Gas Services,energy,,,55.9744603,-3.1862587
Computer & Mobile Service Centre,computer,,,55.9744896,-3.1862909
Gadget Workshop,computer,,,55.9745353,-3.1852583
Premier,convenience,,,55.9745459,-3.1851671
1 DJ Academy,music,,,55.9742727,-3.1870473
Howard-Johnston Cars,car,,,55.9746104,-3.1847406
DS Hair,hairdresser,,,55.9745924,-3.1849042
Howard-Johnston Cars,car,,,55.9748115,-3.1834183
William Sinclair & Son Bagpipe Makers,musical_instrument,,,55.9751252,-3.1815649
Sections,hairdresser,,,55.9750907,-3.1801916
William Purves Funeral Directors,funeral_directors,,,55.9752437,-3.1805376
Braw Dugs,pet,,,55.9751177,-3.1800628
Tailor,tailor,,,55.9751612,-3.1797463
KC's Krafty Gifts,gift,,,55.9751747,-3.1796551
Bomar Carpets & Blinds,carpet,,,55.9751942,-3.1795291
C.M. Marr Picture Framer,frame,,,55.9752242,-3.1793413
J D Salon,hairdresser,,,55.9223451,-3.2116981
Callanetics Studio,yes,,,55.9223633,-3.2115924
Braidburn Launderette,laundry,"Mo-Fr 08:00-17:00, Sa 08:00-15:00",,55.9216363,-3.2112916
Farmer,car_repair,,,55.9571464,-3.2476398
St Columba's Hospice,charity,,,55.9441804,-3.2184564
Duddingston Store,convenience,,,55.9471034,-3.1306582
Jay's Hairdresser,hairdresser,,,55.9471195,-3.1305565
Mercedes Benz of Edinburgh,car,,,55.9466484,-3.1359155
Scotbet,bookmaker,,,55.9473860,-3.1362681
Balloons Are TakingOff,balloon,,,55.9363670,-3.2410143
BDS Ironmongery,trade,,,55.9378868,-3.2377662
Howden's Joinery,trade,,,55.9380343,-3.2377880
One Teck,computer,"Mo-Sa 09:00-17:00, Su 11:00-17:00",,55.9379853,-3.2311254
A&K Hair and Beauty,hairdresser,"Mo 09:30-18:00, Tu 09:00-18:00, We-Th 09:00-20:00, Fr 09:00-18:00, Sa 09:00-16:00",,55.9280775,-3.2092082
Margaret A King Ltd,jewelry,,,55.9280253,-3.2092006
pretty pink,gift,Mo-Sa 10:00-17:00,,55.9279595,-3.2091910
Beauteous Hair,hairdresser,,,55.9345196,-3.2459974
Capital Carpets,carpet,,,55.9364559,-3.2407264
Christine's Dog Parlour,pet,,,55.9339639,-3.2450313
Edward Labinjoh,car,,,55.9377584,-3.2420629
Gorgie Appliances,electronics,,,55.9340103,-3.2449504
Ladbrokes,bookmaker,,,55.9365993,-3.2399031
Newsagent,newsagent,,,55.9340318,-3.2449162
Paula Hair Salon,hairdresser,,,55.9365134,-3.2404558
Print Sign Centres,copyshop,,,55.9339107,-3.2451940
Renew-IT,computer,,,55.9346181,-3.2460517
William Hill,bookmaker,,,55.9339087,-3.2453942
iFire Alarm,electronics,,,55.9339308,-3.2454470
Better Tiles,hardware,,,55.9354614,-3.2433810
City Plumbing Supplies,hardware,,,55.9288919,-3.2539389
D&G Autocare Workshop,car_repair,,,55.9365135,-3.2435457
D&G Autocare,car_repair,,,55.9367298,-3.2435469
Firegroup Fireplaces & Stoves,fireplace,,,55.9292973,-3.2546813
Halliday Lighting,trade,,,55.9284667,-3.2543370
J Van Vliet Ltd,florist,,,55.9290708,-3.2548700
National,car_repair,,,55.9368778,-3.2433028
Planet Flowers,florist,,,55.9287281,-3.2540716
Richard F Mackay,furniture,,,55.9362119,-3.2441213
Senate Electrical Supplied,electronics,,,55.9291823,-3.2536486
Sinemaster,car_repair,,,55.9285411,-3.2553054
Solaglas,glaziery,,,55.9288420,-3.2550587
Western Nissan / Mazda,car,,,55.9291222,-3.2556438
Emily Black Interiors,interior_decoration,,,55.9244191,-3.2103775
The Gentleman's Barber of Comiston,hairdresser,,,55.9246090,-3.2096688
Raymond Edinburgh Hairdressers,hairdresser,,,55.9245702,-3.2096950
Floored Ltd,yes,,,55.9238037,-3.2100478
Morningside Dog Shop,pet,,,55.9236760,-3.2101341
D.R.M. Residential,yes,,,55.9236268,-3.2101294
Mozolowski & Murray Conservatories,yes,,,55.9233808,-3.2102650
Homestyle Blinds & Shutters,interior_decoration,,,55.9246168,-3.2100201
Moi Beauty,beauty,,,55.9245736,-3.2100370
,laundry,,,55.9497206,-3.1811407
Barnardos Donation Centre,charity,,,55.9572778,-3.1664629
Venture,photo,,,55.9572551,-3.1662196
White Eagle Edinburgh,convenience,,,55.9574027,-3.1677914
ABS Motor Company,car_repair,,,55.9610160,-3.1704280
Baileyfield Garage,car_repair,,,55.9551257,-3.1196626
Evans Halshaw Ford,car,,,55.9544627,-3.1222415
Amed 21,hairdresser,,,55.9459692,-3.2112205
Bon Vivant Companion,alcohol,,,55.9539859,-3.1996202
Paperview,newsagents,,,55.9440173,-3.0593956
Fisherrow Newsagents,newsagents,,,55.9437860,-3.0592990
Day-Today,convenience,,,55.9440984,-3.0587250
Poundland,yes,,,55.9419624,-3.0533123
Poundstretcher,yes,,,55.9419941,-3.0530551
Holland & Barrett,heathfood,,,55.9422944,-3.0511988
Greggs,bakery,,,55.9423726,-3.0508530
Supernews,newsagents,,,55.9312779,-3.2525683
Martha's Attic,yes,,,55.9525633,-3.1144968
Chiko's,hairdresser,,,55.9525142,-3.1145626
,optician,,,55.9523899,-3.1147308
SPAR,convenience,,,55.9502238,-3.1333622
Marion's hairdressing,hairdresser,,,55.9460630,-3.1412844
Nairne Convenience Store,convenience,,,55.9460295,-3.1414428
Bluntz,hairdresser,,,55.9426822,-3.1071131
U Save,newsagent,,,55.9426490,-3.1073442
